<?xml version="1.0" encoding="UTF-8"?>
<kml xmlns="http://www.opengis.net/kml/2.2"><Document><name>gigaro_lardier_taillat_la_croix-valmer</name>
<Placemark><name>Tracé</name><Style><LineStyle><color>ff5aad7a</color><width>3</width></LineStyle></Style><LineString><altitudeMode>clampToGround</altitudeMode><coordinates>6.599128,43.185682,0
6.59891,43.185782,0
6.598809,43.185618,0
6.598749,43.185437,0
6.598618,43.185284,0
6.598452,43.185142,0
6.598444,43.184952,0
6.598428,43.184769,0
6.598441,43.184585,0
6.598442,43.184398,0
6.598645,43.184285,0
6.59889,43.184267,0
6.599139,43.184226,0
6.59938,43.184184,0
6.599608,43.184111,0
6.599843,43.184032,0
6.600072,43.183948,0
6.600282,43.18385,0
6.600523,43.183805,0
6.600725,43.183693,0
6.600945,43.183608,0
6.601189,43.183544,0
6.60138,43.183427,0
6.601424,43.183244,0
6.601485,43.183064,0
6.601422,43.182884,0
6.60152,43.182713,0
6.601625,43.182542,0
6.601811,43.18241,0
6.601983,43.18227,0
6.602124,43.18212,0
6.602228,43.181955,0
6.602419,43.181829,0
6.602405,43.181645,0
6.602446,43.181466,0
6.602589,43.181311,0
6.602713,43.181153,0
6.60278,43.180972,0
6.602924,43.180823,0
6.602952,43.180642,0
6.603115,43.180505,0
6.602998,43.180343,0
6.602958,43.180162,0
6.602816,43.180008,0
6.602787,43.179824,0
6.602868,43.179652,0
6.602876,43.179468,0
6.602897,43.179286,0
6.602934,43.179103,0
6.603072,43.178953,0
6.603294,43.178872,0
6.603371,43.178698,0
6.603484,43.178533,0
6.603699,43.178438,0
6.603752,43.178262,0
6.603776,43.178079,0
6.603824,43.177898,0
6.603914,43.17772,0
6.604065,43.177569,0
6.603893,43.177438,0
6.603828,43.177262,0
6.603671,43.177123,0
6.603712,43.176942,0
6.603943,43.176864,0
6.604153,43.176762,0
6.60433,43.176635,0
6.60451,43.176509,0
6.604467,43.176329,0
6.604499,43.176141,0
6.604564,43.175966,0
6.604561,43.175785,0
6.604685,43.175623,0
6.604664,43.17544,0
6.604485,43.175315,0
6.604295,43.175196,0
6.604297,43.175015,0
6.604116,43.174887,0
6.603885,43.17497,0
6.603647,43.174923,0
6.60344,43.174823,0
6.603191,43.174827,0
6.603088,43.174658,0
6.603078,43.174477,0
6.60316,43.174305,0
6.603282,43.174147,0
6.603507,43.174067,0
6.603746,43.174018,0
6.603986,43.173968,0
6.604221,43.173902,0
6.604467,43.17388,0
6.604715,43.173884,0
6.60497,43.173879,0
6.605214,43.173837,0
6.605443,43.173765,0
6.605681,43.173704,0
6.605932,43.173696,0
6.606118,43.17382,0
6.606317,43.173705,0
6.606519,43.173601,0
6.606763,43.173568,0
6.607014,43.173579,0
6.607237,43.173487,0
6.60747,43.173422,0
6.607676,43.173321,0
6.607917,43.173268,0
6.608163,43.173247,0
6.608385,43.173166,0
6.608409,43.172984,0
6.608376,43.172799,0
6.6084,43.172616,0
6.608508,43.172445,0
6.608628,43.172287,0
6.608757,43.172131,0
6.608748,43.171951,0
6.608717,43.171766,0
6.608626,43.171595,0
6.608472,43.171445,0
6.608369,43.171277,0
6.608533,43.171142,0
6.608658,43.170986,0
6.608627,43.170801,0
6.60878,43.170657,0
6.608934,43.170515,0
6.609097,43.170373,0
6.609324,43.170299,0
6.609516,43.170185,0
6.609662,43.170036,0
6.609732,43.169861,0
6.609837,43.169691,0
6.610008,43.169561,0
6.610216,43.169461,0
6.610413,43.16935,0
6.610661,43.169321,0
6.610872,43.169225,0
6.611088,43.169315,0
6.611336,43.169328,0
6.611594,43.169332,0
6.611788,43.169444,0
6.611858,43.169268,0
6.612092,43.169195,0
6.612316,43.169111,0
6.612576,43.16908,0
6.612787,43.168972,0
6.612874,43.168791,0
6.613015,43.168638,0
6.613204,43.16852,0
6.613352,43.168363,0
6.613504,43.168217,0
6.613666,43.168078,0
6.613835,43.167947,0
6.614047,43.167838,0
6.614266,43.167755,0
6.614502,43.167683,0
6.614749,43.167635,0
6.614959,43.167539,0
6.615207,43.16751,0
6.615445,43.167441,0
6.615686,43.16737,0
6.615928,43.167316,0
6.616095,43.167184,0
6.61621,43.167018,0
6.616377,43.166883,0
6.616499,43.166726,0
6.616563,43.166549,0
6.616719,43.166409,0
6.61688,43.166269,0
6.617067,43.166138,0
6.617248,43.166015,0
6.617442,43.165892,0
6.617576,43.165741,0
6.617682,43.165576,0
6.617776,43.165402,0
6.617901,43.165239,0
6.618032,43.165083,0
6.618143,43.164918,0
6.618205,43.164737,0
6.618256,43.164551,0
6.618362,43.164377,0
6.618492,43.164214,0
6.618562,43.16403,0
6.618602,43.163849,0
6.618698,43.16368,0
6.61878,43.163502,0
6.618913,43.163346,0
6.618975,43.163167,0
6.618966,43.162981,0
6.618935,43.162792,0
6.619098,43.162645,0
6.619248,43.1625,0
6.619424,43.16236,0
6.619419,43.162171,0
6.619427,43.16199,0
6.619427,43.161807,0
6.619366,43.161627,0
6.619363,43.161441,0
6.619501,43.161282,0
6.619734,43.161197,0
6.619772,43.161015,0
6.619739,43.160825,0
6.619746,43.160641,0
6.619713,43.160455,0
6.61986,43.160307,0
6.619882,43.160125,0
6.62013,43.160126,0
6.620262,43.160283,0
6.620711,43.160566,0
6.620949,43.160618,0
6.621177,43.160694,0
6.621434,43.160681,0
6.621634,43.160792,0
6.621815,43.160916,0
6.62199,43.161049,0
6.622068,43.161229,0
6.622032,43.16141,0
6.621947,43.161586,0
6.621854,43.161759,0
6.621693,43.161904,0
6.621611,43.162074,0
6.621546,43.162248,0
6.621351,43.162376,0
6.621302,43.16256,0
6.621266,43.162742,0
6.621239,43.162921,0
6.621315,43.163095,0
6.621404,43.163264,0
6.621479,43.163435,0
6.621426,43.163615,0
6.621559,43.163775,0
6.621749,43.163898,0
6.621767,43.164086,0
6.62179,43.164266,0
6.621907,43.16443,0
6.622005,43.164601,0
6.622183,43.164729,0
6.622363,43.164867,0
6.622517,43.165018,0
6.622634,43.165178,0
6.622811,43.16531,0
6.622966,43.165456,0
6.623126,43.165604,0
6.623336,43.1657,0
6.623506,43.165838,0
6.623666,43.16598,0
6.623876,43.16588,0
6.623867,43.16606,0
6.624113,43.166081,0
6.624349,43.166135,0
6.624489,43.16629,0
6.624704,43.166388,0
6.624957,43.166413,0
6.625191,43.166352,0
6.625442,43.166326,0
6.625622,43.166452,0
6.625761,43.166608,0
6.625902,43.166755,0
6.62613,43.166829,0
6.626192,43.167008,0
6.626255,43.167185,0
6.626294,43.167371,0
6.626295,43.167554,0
6.626321,43.167739,0
6.626501,43.167862,0
6.626668,43.167998,0
6.626822,43.168139,0
6.627026,43.168246,0
6.627117,43.168419,0
6.627227,43.168591,0
6.62737,43.168739,0
6.627452,43.168913,0
6.627572,43.169071,0
6.627788,43.169166,0
6.628001,43.169257,0
6.627988,43.16944,0
6.627952,43.169619,0
6.628191,43.16967,0
6.628405,43.169773,0
6.628653,43.169808,0
6.62889,43.169863,0
6.629046,43.170008,0
6.629221,43.170141,0
6.629447,43.170063,0
6.629463,43.169883,0
6.629703,43.169949,0
6.629805,43.170124,0
6.629812,43.170311,0
6.629842,43.170495,0
6.629951,43.170659,0
6.63019,43.170708,0
6.630326,43.170861,0
6.630459,43.17102,0
6.630682,43.171115,0
6.630936,43.171107,0
6.631184,43.171115,0
6.631435,43.171089,0
6.63158,43.170941,0
6.631817,43.171024,0
6.63199,43.171162,0
6.631991,43.171347,0
6.631932,43.171524,0
6.631958,43.171708,0
6.632052,43.171877,0
6.632235,43.171999,0
6.632306,43.172176,0
6.632543,43.172232,0
6.632744,43.172344,0
6.632967,43.172421,0
6.63319,43.172508,0
6.633446,43.172493,0
6.63369,43.172544,0
6.633929,43.172601,0
6.634174,43.172639,0
6.634423,43.17268,0
6.634675,43.17271,0
6.634925,43.172738,0
6.635177,43.172754,0
6.635432,43.172755,0
6.635683,43.172738,0
6.635934,43.172711,0
6.636186,43.17267,0
6.636442,43.172643,0
6.6367,43.172626,0
6.636956,43.172661,0
6.637187,43.172588,0
6.637416,43.172506,0
6.637665,43.172474,0
6.637909,43.17243,0
6.638148,43.172492,0
6.638391,43.172545,0
6.638622,43.17263,0
6.638854,43.172713,0
6.639101,43.172729,0
6.639265,43.172868,0
6.639235,43.173054,0
6.639137,43.173221,0
6.639194,43.173399,0
6.639289,43.173574,0
6.639398,43.173748,0
6.639529,43.173911,0
6.639634,43.174084,0
6.639771,43.174244,0
6.639825,43.174426,0
6.639821,43.17461,0
6.639798,43.174794,0
6.639793,43.174977,0
6.639872,43.175153,0
6.639898,43.175342,0
6.639864,43.175522,0
6.639631,43.175594,0
6.639429,43.175704,0
6.639248,43.175829,0
6.639073,43.175965,0
6.639309,43.176037,0
6.639557,43.176089,0
6.639776,43.176175,0
6.640025,43.176201,0
6.639776,43.176173,0
6.639551,43.176097,0
6.639308,43.176056,0
6.639056,43.17607,0
6.638826,43.176144,0
6.638598,43.176223,0
6.638359,43.176291,0
6.638121,43.176357,0
6.637875,43.17641,0
6.637618,43.176429,0
6.637371,43.176479,0
6.637126,43.176535,0
6.636887,43.176602,0
6.63665,43.176683,0
6.636428,43.176774,0
6.636223,43.176875,0
6.636023,43.176989,0
6.635815,43.177107,0
6.635596,43.177196,0
6.635359,43.177271,0
6.635144,43.177361,0
6.634949,43.17748,0
6.634786,43.177622,0
6.634672,43.177785,0
6.63464,43.177968,0
6.634507,43.178129,0
6.634349,43.178269,0
6.634146,43.178385,0
6.633963,43.178507,0
6.633901,43.178683,0
6.633751,43.178826,0
6.633576,43.178966,0
6.633392,43.179099,0
6.633225,43.179238,0
6.633099,43.179393,0
6.632941,43.179539,0
6.632796,43.179692,0
6.632665,43.179855,0
6.632576,43.180028,0
6.632461,43.180191,0
6.632307,43.180339,0
6.632172,43.180495,0
6.632032,43.180648,0
6.631821,43.180751,0
6.631615,43.180853,0
6.631393,43.180945,0
6.631166,43.18103,0
6.63094,43.181118,0
6.630729,43.181218,0
6.630518,43.181319,0
6.630287,43.181398,0
6.630059,43.181487,0
6.629866,43.18161,0
6.629717,43.181765,0
6.629594,43.181933,0
6.629616,43.182123,0
6.629473,43.182273,0
6.62926,43.182375,0
6.629327,43.182551,0
6.629275,43.182733,0
6.62925,43.182915,0
6.629339,43.183085,0
6.629408,43.183265,0
6.629439,43.183447,0
6.62946,43.183635,0
6.629445,43.183821,0
6.629378,43.184004,0
6.629432,43.184185,0
6.629496,43.184367,0
6.629452,43.184549,0
6.629363,43.184723,0
6.62933,43.184906,0
6.629274,43.185086,0
6.629242,43.185266,0
6.629135,43.185433,0
6.629082,43.185609,0
6.629083,43.185794,0
6.629127,43.185973,0
6.628983,43.186126,0
6.628829,43.186274,0
6.62872,43.18644,0
6.628719,43.186622,0
6.628648,43.186796,0
6.628486,43.186937,0
6.62835,43.187097,0
6.628402,43.187279,0
6.628565,43.18742,0
6.628538,43.187601,0
6.62852,43.187786,0
6.62845,43.187962,0
6.628384,43.18814,0
6.628292,43.188307,0
6.62814,43.188461,0
6.627969,43.188605,0
6.627819,43.188748,0
6.627658,43.188897,0
6.627532,43.189061,0
6.627384,43.189215,0
6.627228,43.189362,0
6.627231,43.189548,0
6.627277,43.189725,0
6.627189,43.189896,0
6.626964,43.189803,0
6.626718,43.18979,0
6.626501,43.18988,0
6.62626,43.189938,0
6.62605,43.190035,0
6.62628,43.190102,0
6.626381,43.190271,0
6.626341,43.190452,0
6.626304,43.190639,0
6.626207,43.190808,0
6.626059,43.190958,0
6.625883,43.191097,0
6.625692,43.191226,0
6.62552,43.191367,0
6.625327,43.191489,0
6.625135,43.191613,0
6.624975,43.191755,0
6.624999,43.191939,0
6.624911,43.19211,0
6.624723,43.191978,0
6.62449,43.191919,0
6.624279,43.191808,0
6.624139,43.19166,0
6.62406,43.191487,0
6.624103,43.191305,0
6.624229,43.191149,0
6.624313,43.190971,0
6.624343,43.190788,0
6.624308,43.190608,0
6.624229,43.190431,0
6.62413,43.190265,0
6.624034,43.190095,0
6.623907,43.189936,0
6.623778,43.189781,0
6.623529,43.189791,0
6.623328,43.189901,0
6.623112,43.19001,0
6.622915,43.190123,0
6.62275,43.190261,0
6.622597,43.190404,0
6.62241,43.190521,0
6.622165,43.190567,0
6.621912,43.190561,0
6.621675,43.190635,0
6.621469,43.190749,0
6.621285,43.190883,0
6.621076,43.190994,0
6.620891,43.191125,0
6.620693,43.191235,0
6.620478,43.191344,0
6.620275,43.191457,0
6.620099,43.191594,0
6.619853,43.191573,0
6.6196,43.191584,0
6.619353,43.191612,0
6.619101,43.191565,0
6.618913,43.191444,0
6.618688,43.191358,0
6.618444,43.191332,0
6.618192,43.191336,0
6.617941,43.191392,0
6.617694,43.191379,0
6.617439,43.191372,0
6.617181,43.191405,0
6.617052,43.191247,0
6.617084,43.191066,0
6.617096,43.190885,0
6.617108,43.190698,0
6.617154,43.190511,0
6.617177,43.190321,0
6.617109,43.190147,0
6.616999,43.189984,0
6.616875,43.189818,0
6.616734,43.189666,0
6.616577,43.189522,0
6.616407,43.189386,0
6.61621,43.189273,0
6.616,43.189164,0
6.615766,43.189088,0
6.615541,43.189013,0
6.615337,43.188907,0
6.615129,43.188799,0
6.61491,43.188706,0
6.614989,43.188526,0
6.614991,43.188335,0
6.61501,43.188154,0
6.615045,43.187965,0
6.615078,43.187781,0
6.615107,43.187599,0
6.615113,43.187409,0
6.615169,43.187231,0
6.615241,43.187048,0
6.61531,43.186861,0
6.615376,43.186687,0
6.615451,43.18651,0
6.61554,43.186335,0
6.615566,43.186151,0
6.615498,43.185969,0
6.615466,43.18578,0
6.61552,43.185602,0
6.615575,43.185424,0
6.615562,43.185243,0
6.615588,43.185061,0
6.615583,43.184878,0
6.615594,43.184693,0
6.615608,43.184506,0
6.615614,43.184322,0
6.615632,43.18414,0
6.615607,43.183956,0
6.615491,43.183797,0
6.615474,43.183611,0
6.615446,43.183425,0
6.615215,43.183361,0
6.615,43.183454,0
6.614801,43.183336,0
6.614609,43.183217,0
6.614536,43.18304,0
6.61442,43.182873,0
6.614262,43.182725,0
6.614015,43.182668,0
6.613768,43.182649,0
6.613595,43.18252,0
6.613611,43.182703,0
6.613757,43.182863,0
6.613615,43.183015,0
6.613355,43.183005,0
6.613152,43.182899,0
6.61299,43.18276,0
6.612838,43.182611,0
6.612647,43.182496,0
6.612599,43.182674,0
6.612517,43.182845,0
6.612306,43.182942,0
6.612104,43.183064,0
6.611975,43.18322,0
6.611849,43.183378,0
6.611637,43.183473,0
6.611396,43.183546,0
6.611152,43.183612,0
6.610909,43.183679,0
6.610663,43.183728,0
6.610417,43.18377,0
6.610169,43.1838,0
6.609909,43.18379,0
6.609762,43.183634,0
6.609621,43.18348,0
6.609402,43.183384,0
6.609153,43.183373,0
6.60891,43.183424,0
6.608679,43.183489,0
6.608422,43.183474,0
6.608172,43.183467,0
6.607916,43.183481,0
6.607664,43.183457,0
6.607417,43.183448,0
6.607168,43.183453,0
6.606917,43.18346,0
6.606671,43.183508,0
6.606457,43.183602,0
6.60631,43.183758,0
6.606184,43.183922,0
6.60609,43.184092,0
6.605971,43.184251,0
6.605757,43.184143,0
6.605603,43.183996,0
6.605451,43.183845,0
6.605354,43.183675,0
6.605289,43.183493,0
6.605217,43.183315,0
6.605106,43.183145,0
6.604867,43.183078,0
6.604615,43.183092,0
6.604402,43.183196,0
6.604162,43.183257,0
6.604035,43.183413,0
6.604093,43.183591,0
6.604196,43.183761,0
6.604377,43.183887,0
6.604535,43.184036,0
6.604568,43.184226,0
6.604457,43.184392,0
6.604237,43.184493,0
6.604003,43.184564,0
6.60375,43.184556,0
6.603532,43.184467,0
6.60335,43.184338,0
6.603176,43.184198,0
6.602952,43.184101,0
6.602699,43.18407,0
6.602456,43.184003,0
6.602231,43.183928,0
6.602005,43.183829,0
6.601836,43.18369,0
6.601665,43.183547,0
6.601417,43.183516,0
6.601178,43.183584,0
6.600926,43.183622,0
6.600711,43.183725,0
6.600483,43.183805,0
6.600236,43.183866,0
6.599999,43.183942,0
6.599763,43.184002,0
6.599516,43.184065,0
6.599285,43.184138,0
6.599036,43.184192,0
6.598784,43.184216,0
6.598534,43.184229,0
6.598658,43.184385,0
6.598533,43.184568,0
6.598537,43.184384,0
6.598493,43.184564,0
6.598517,43.184745,0
6.598474,43.184926,0
6.598552,43.1851,0
6.598691,43.185261,0
6.598816,43.185423,0
6.599019,43.185541,0
6.599053,43.185724,0
6.598868,43.185843,0
6.599085,43.185752,0</coordinates></LineString></Placemark>
<Placemark><name>Arrivée</name><description><![CDATA[Nom: Segment: 1Heure de départ: 09:20 13 juin 2021Heure d'arrivée: 16:34 13 juin 2021Distance: 13,9km (07:14)Temps déplacement: 04:41Vitesse moyenne: 1,92 km/hVitesse moyenne mouv.: 2,96 km/hVitesse Max.: 5,95 km/hAltitude minimale: -4 mAltitude maximale: 164 mVitesse de montée: 196,4 m/hVitesse de descente: 196 m/hGain d'altitude: 503 mPerte d'altitude: 496 mTemps de montée: 02:33Temps de descente: 02:32]]></description><ExtendedData><Data name="comment"><value>Nom: Segment: 1Heure de départ: 09:20 13 juin 2021Heure d'arrivée: 16:34 13 juin 2021Distance: 13,9km (07:14)Temps déplacement: 04:41Vitesse moyenne: 1,92 km/hVitesse moyenne mouv.: 2,96 km/hVitesse Max.: 5,95 km/hAltitude minimale: -4 mAltitude maximale: 164 mVitesse de montée: 196,4 m/hVitesse de descente: 196 m/hGain d'altitude: 503 mPerte d'altitude: 496 mTemps de montée: 02:33Temps de descente: 02:32</value></Data></ExtendedData><Point><coordinates>6.599085,43.185752,0</coordinates></Point></Placemark>
<Placemark><name>Au loin Taillat 1</name><description><![CDATA[{{https://live.staticflickr.com/65535/51245018448_c0c0cf4143_b.jpg}} [[https://live.staticflickr.com/65535/51245018448_c0c0cf4143_b.jpg|Agrandir]]]]></description><ExtendedData><Data name="comment"><value>{{https://live.staticflickr.com/65535/51245018448_c0c0cf4143_b.jpg}} [[https://live.staticflickr.com/65535/51245018448_c0c0cf4143_b.jpg|Agrandir]]</value></Data></ExtendedData><Point><coordinates>6.61894,43.163302,0</coordinates></Point></Placemark>
<Placemark><name>Au loin Taillat 2</name><description><![CDATA[{{https://live.staticflickr.com/65535/51244819031_d7ab259bc6_b.jpg}} [[https://live.staticflickr.com/65535/51244819031_d7ab259bc6_b.jpg|Agrandir]]]]></description><ExtendedData><Data name="comment"><value>{{https://live.staticflickr.com/65535/51244819031_d7ab259bc6_b.jpg}} [[https://live.staticflickr.com/65535/51244819031_d7ab259bc6_b.jpg|Agrandir]]</value></Data></ExtendedData><Point><coordinates>6.619446,43.162344,0</coordinates></Point></Placemark>
<Placemark><name>Baie de Briande</name><description><![CDATA[{{https://live.staticflickr.com/65535/51244091762_42bf734017_b.jpg}} [[https://live.staticflickr.com/65535/51244091762_42bf734017_b.jpg|Agrandir]]]]></description><ExtendedData><Data name="comment"><value>{{https://live.staticflickr.com/65535/51244091762_42bf734017_b.jpg}} [[https://live.staticflickr.com/65535/51244091762_42bf734017_b.jpg|Agrandir]]</value></Data></ExtendedData><Point><coordinates>6.62803,43.169335,0</coordinates></Point></Placemark>
<Placemark><name>Baie de Cavalaire</name><description><![CDATA[{{https://live.staticflickr.com/65535/51244815971_1a92484cd6_b.jpg}} [[https://live.staticflickr.com/65535/51244815971_1a92484cd6_b.jpg|Agrandir]]]]></description><ExtendedData><Data name="comment"><value>{{https://live.staticflickr.com/65535/51244815971_1a92484cd6_b.jpg}} [[https://live.staticflickr.com/65535/51244815971_1a92484cd6_b.jpg|Agrandir]]</value></Data></ExtendedData><Point><coordinates>6.619345,43.161531,0</coordinates></Point></Placemark>
<Placemark><name>Baie de Cavalaire</name><description><![CDATA[{{https://live.staticflickr.com/65535/51245835850_c59803d9fe_b.jpg}} [[https://live.staticflickr.com/65535/51245835850_c59803d9fe_b.jpg|Agrandir]]]]></description><ExtendedData><Data name="comment"><value>{{https://live.staticflickr.com/65535/51245835850_c59803d9fe_b.jpg}} [[https://live.staticflickr.com/65535/51245835850_c59803d9fe_b.jpg|Agrandir]]</value></Data></ExtendedData><Point><coordinates>6.612849,43.18264,0</coordinates></Point></Placemark>
<Placemark><name>Barbe Jupiter 1</name><description><![CDATA[{{https://live.staticflickr.com/65535/51245590134_e6c52f45b2_b.jpg}} [[https://live.staticflickr.com/65535/51245590134_e6c52f45b2_b.jpg|Agrandir]]]]></description><ExtendedData><Data name="comment"><value>{{https://live.staticflickr.com/65535/51245590134_e6c52f45b2_b.jpg}} [[https://live.staticflickr.com/65535/51245590134_e6c52f45b2_b.jpg|Agrandir]]</value></Data></ExtendedData><Point><coordinates>6.606097,43.173826,0</coordinates></Point></Placemark>
<Placemark><name>Barbe Jupiter 2</name><description><![CDATA[{{https://live.staticflickr.com/65535/51245010653_0f03a8252c_b.jpg}} [[https://live.staticflickr.com/65535/51245010653_0f03a8252c_b.jpg|Agrandir]] Anthyllis barba-jovis, la barbe de Jupiter, est une espèce de plantes dicotylédones de la famille des Fabaceae, sous-famille des Faboideae, originaire du bassin méditerranéen. Ce sont des plantes ligneuses vivaces, semi-halophiles.]]></description><ExtendedData><Data name="comment"><value>{{https://live.staticflickr.com/65535/51245010653_0f03a8252c_b.jpg}} [[https://live.staticflickr.com/65535/51245010653_0f03a8252c_b.jpg|Agrandir]] Anthyllis barba-jovis, la barbe de Jupiter, est une espèce de plantes dicotylédones de la famille des Fabaceae, sous-famille des Faboideae, originaire du bassin méditerranéen. Ce sont des plantes ligneuses vivaces, semi-halophiles.</value></Data></ExtendedData><Point><coordinates>6.620078,43.160098,0</coordinates></Point></Placemark>
<Placemark><name>Cap Camarat</name><description><![CDATA[{{https://live.staticflickr.com/65535/51245554704_129f8ca419_b.jpg}} [[https://live.staticflickr.com/65535/51245554704_129f8ca419_b.jpg|Agrandir]]]]></description><ExtendedData><Data name="comment"><value>{{https://live.staticflickr.com/65535/51245554704_129f8ca419_b.jpg}} [[https://live.staticflickr.com/65535/51245554704_129f8ca419_b.jpg|Agrandir]]</value></Data></ExtendedData><Point><coordinates>6.640137,43.176227,0</coordinates></Point></Placemark>
<Placemark><name>Cap Lardier 1</name><description><![CDATA[{{https://live.staticflickr.com/65535/51245012783_51ea549619_b.jpg}} [[https://live.staticflickr.com/65535/51245012783_51ea549619_b.jpg|Agrandir]] Le cap Lardier est le premier des trois caps de la presqu’île de Saint-Tropez visible depuis la baie de Cavalaire, et le plus boisé. Situé sur la commune de La Croix Valmer, dans le Var, c’est l’un des derniers poumons verts encore non urbanisés compris entre les villes balnéaires très touristiques de Cavalaire et de Saint-Tropez.]]></description><ExtendedData><Data name="comment"><value>{{https://live.staticflickr.com/65535/51245012783_51ea549619_b.jpg}} [[https://live.staticflickr.com/65535/51245012783_51ea549619_b.jpg|Agrandir]] Le cap Lardier est le premier des trois caps de la presqu’île de Saint-Tropez visible depuis la baie de Cavalaire, et le plus boisé. Situé sur la commune de La Croix Valmer, dans le Var, c’est l’un des derniers poumons verts encore non urbanisés compris entre les villes balnéaires très touristiques de Cavalaire et de Saint-Tropez.</value></Data></ExtendedData><Point><coordinates>6.619916,43.160076,0</coordinates></Point></Placemark>
<Placemark><name>Cap Lardier Est</name><description><![CDATA[{{https://live.staticflickr.com/65535/51245008778_60988d6379_b.jpg}} [[https://live.staticflickr.com/65535/51245008778_60988d6379_b.jpg|Agrandir]]]]></description><ExtendedData><Data name="comment"><value>{{https://live.staticflickr.com/65535/51245008778_60988d6379_b.jpg}} [[https://live.staticflickr.com/65535/51245008778_60988d6379_b.jpg|Agrandir]]</value></Data></ExtendedData><Point><coordinates>6.620949,43.160618,0</coordinates></Point></Placemark>
<Placemark><name>Cap Taillat Est</name><description><![CDATA[{{https://live.staticflickr.com/65535/51245848355_aec9d949b1_b.jpg}} [[https://live.staticflickr.com/65535/51245848355_aec9d949b1_b.jpg|Agrandir]]]]></description><ExtendedData><Data name="comment"><value>{{https://live.staticflickr.com/65535/51245848355_aec9d949b1_b.jpg}} [[https://live.staticflickr.com/65535/51245848355_aec9d949b1_b.jpg|Agrandir]]</value></Data></ExtendedData><Point><coordinates>6.640122,43.176224,0</coordinates></Point></Placemark>
<Placemark><name>Cavalaire</name><description><![CDATA[{{https://live.staticflickr.com/65535/51245896890_25f3e755db_b.jpg}} [[https://live.staticflickr.com/65535/51245896890_25f3e755db_b.jpg|Agrandir]]]]></description><ExtendedData><Data name="comment"><value>{{https://live.staticflickr.com/65535/51245896890_25f3e755db_b.jpg}} [[https://live.staticflickr.com/65535/51245896890_25f3e755db_b.jpg|Agrandir]]</value></Data></ExtendedData><Point><coordinates>6.60294,43.179126,0</coordinates></Point></Placemark>
<Placemark><name>Chenille Cucullie Scrof.</name><description><![CDATA[{{https://live.staticflickr.com/65535/51244845091_0833860bbf_b.jpg}} [[https://live.staticflickr.com/65535/51244845091_0833860bbf_b.jpg|Agrandir]] La Cucullie de la scrofulaire ou Cucullie des scrofulaires (Shargacucullia scrophulariae ou Cucullia scrophulariae) est une espèce de lépidoptères (papillons) de la famille des Noctuidae et de la sous-famille des Cuculliinae. Comme me l'a fait remarquer Vincent Blondel, cette cucullie pourrait aussi bien être la cucullie du Bouillon-Blanc.]]></description><ExtendedData><Data name="comment"><value>{{https://live.staticflickr.com/65535/51244845091_0833860bbf_b.jpg}} [[https://live.staticflickr.com/65535/51244845091_0833860bbf_b.jpg|Agrandir]] La Cucullie de la scrofulaire ou Cucullie des scrofulaires (Shargacucullia scrophulariae ou Cucullia scrophulariae) est une espèce de lépidoptères (papillons) de la famille des Noctuidae et de la sous-famille des Cuculliinae. Comme me l'a fait remarquer Vincent Blondel, cette cucullie pourrait aussi bien être la cucullie du Bouillon-Blanc.</value></Data></ExtendedData><Point><coordinates>6.618056,43.165104,0</coordinates></Point></Placemark>
<Placemark><name>Citerne des Gaches</name><description><![CDATA[{{https://live.staticflickr.com/65535/51244781421_d74d7605cc_b.jpg}} [[https://live.staticflickr.com/65535/51244781421_d74d7605cc_b.jpg|Agrandir]]]]></description><ExtendedData><Data name="comment"><value>{{https://live.staticflickr.com/65535/51244781421_d74d7605cc_b.jpg}} [[https://live.staticflickr.com/65535/51244781421_d74d7605cc_b.jpg|Agrandir]]</value></Data></ExtendedData><Point><coordinates>6.614888,43.188668,0</coordinates></Point></Placemark>
<Placemark><name>Départ</name><Point><coordinates>6.599128,43.185682,0</coordinates></Point></Placemark>
<Placemark><name>Dolmen de la Briande</name><description><![CDATA[{{https://live.staticflickr.com/65535/51245846865_283162c208_b.jpg}} [[https://live.staticflickr.com/65535/51245846865_283162c208_b.jpg|Agrandir]] Le dolmen a été édifié à flanc de coteau, à 300 m de la mer, c'est d'ailleurs le dolmen le plus méridional de tout le département. Bien que très endommagée, l'architecture générale de l'édifice est reconnaissable. La chambre sépulcrale est de forme rectangulaire. Elle est délimitée par une dalle de chevet et un orthostate côté est, tous deux en granite d'origine locale. Les autres dalles sont en gneiss, dressées sur chant et jointes par des murettes en pierres sèches.]]></description><ExtendedData><Data name="comment"><value>{{https://live.staticflickr.com/65535/51245846865_283162c208_b.jpg}} [[https://live.staticflickr.com/65535/51245846865_283162c208_b.jpg|Agrandir]] Le dolmen a été édifié à flanc de coteau, à 300 m de la mer, c'est d'ailleurs le dolmen le plus méridional de tout le département. Bien que très endommagée, l'architecture générale de l'édifice est reconnaissable. La chambre sépulcrale est de forme rectangulaire. Elle est délimitée par une dalle de chevet et un orthostate côté est, tous deux en granite d'origine locale. Les autres dalles sont en gneiss, dressées sur chant et jointes par des murettes en pierres sèches.</value></Data></ExtendedData><Point><coordinates>6.634818,43.177974,0</coordinates></Point></Placemark>
<Placemark><name>Forêt de La Tourraque</name><description><![CDATA[{{https://live.staticflickr.com/65535/51245842990_a795827b1a_b.jpg}} [[https://live.staticflickr.com/65535/51245842990_a795827b1a_b.jpg|Agrandir]]]]></description><ExtendedData><Data name="comment"><value>{{https://live.staticflickr.com/65535/51245842990_a795827b1a_b.jpg}} [[https://live.staticflickr.com/65535/51245842990_a795827b1a_b.jpg|Agrandir]]</value></Data></ExtendedData><Point><coordinates>6.629141,43.185922,0</coordinates></Point></Placemark>
<Placemark><name>Gigaro 2</name><description><![CDATA[{{https://live.staticflickr.com/65535/51245604259_d62124d689_b.jpg}} [[https://live.staticflickr.com/65535/51245604259_d62124d689_b.jpg|agrandir]]]]></description><ExtendedData><Data name="comment"><value>{{https://live.staticflickr.com/65535/51245604259_d62124d689_b.jpg}} [[https://live.staticflickr.com/65535/51245604259_d62124d689_b.jpg|agrandir]]</value></Data></ExtendedData><Point><coordinates>6.602381,43.18163,0</coordinates></Point></Placemark>
<Placemark><name>Gigaro 3</name><description><![CDATA[{{https://live.staticflickr.com/65535/51245600339_b2cf3344a7_b.jpg}} [[https://live.staticflickr.com/65535/51245600339_b2cf3344a7_b.jpg|Agrandir]]]]></description><ExtendedData><Data name="comment"><value>{{https://live.staticflickr.com/65535/51245600339_b2cf3344a7_b.jpg}} [[https://live.staticflickr.com/65535/51245600339_b2cf3344a7_b.jpg|Agrandir]]</value></Data></ExtendedData><Point><coordinates>6.603428,43.17856,0</coordinates></Point></Placemark>
<Placemark><name>Gigaro 4</name><description><![CDATA[{{https://live.staticflickr.com/65535/51245893360_5d1b2c52b9_b.jpg}} [[https://live.staticflickr.com/65535/51245893360_5d1b2c52b9_b.jpg|Agrandir]]]]></description><ExtendedData><Data name="comment"><value>{{https://live.staticflickr.com/65535/51245893360_5d1b2c52b9_b.jpg}} [[https://live.staticflickr.com/65535/51245893360_5d1b2c52b9_b.jpg|Agrandir]]</value></Data></ExtendedData><Point><coordinates>6.603626,43.176985,0</coordinates></Point></Placemark>
<Placemark><name>Giroflée des dunes</name><description><![CDATA[{{https://live.staticflickr.com/65535/51244996508_38d165d2d6_b.jpg}} [[https://live.staticflickr.com/65535/51244996508_38d165d2d6_b.jpg|Agrandir]]]]></description><ExtendedData><Data name="comment"><value>{{https://live.staticflickr.com/65535/51244996508_38d165d2d6_b.jpg}} [[https://live.staticflickr.com/65535/51244996508_38d165d2d6_b.jpg|Agrandir]]</value></Data></ExtendedData><Point><coordinates>6.639172,43.172747,0</coordinates></Point></Placemark>
<Placemark><name>Jeune palmier (Phoenix probable)</name><description><![CDATA[{{https://live.staticflickr.com/65535/51244073557_883b0d598e_b.jpg}} [[https://live.staticflickr.com/65535/51244073557_883b0d598e_b.jpg|Agrandir]] Ce jeune palmier poussant dans une dépression humide n'est pas le palmier nain (Chamaerops) comme je l'avais rapidement décrit, mais comme me l'a fait remarquer Marjorie Ughetto plutôt un Phoenix, avec la palme en forme de plume.]]></description><ExtendedData><Data name="comment"><value>{{https://live.staticflickr.com/65535/51244073557_883b0d598e_b.jpg}} [[https://live.staticflickr.com/65535/51244073557_883b0d598e_b.jpg|Agrandir]] Ce jeune palmier poussant dans une dépression humide n'est pas le palmier nain (Chamaerops) comme je l'avais rapidement décrit, mais comme me l'a fait remarquer Marjorie Ughetto plutôt un Phoenix, avec la palme en forme de plume.</value></Data></ExtendedData><Point><coordinates>6.628518,43.187526,0</coordinates></Point></Placemark>
<Placemark><name>Jonc</name><description><![CDATA[{{https://live.staticflickr.com/65535/51244803661_14e28d18a8_b.jpg}} [[https://live.staticflickr.com/65535/51244803661_14e28d18a8_b.jpg|Agrandir]]]]></description><ExtendedData><Data name="comment"><value>{{https://live.staticflickr.com/65535/51244803661_14e28d18a8_b.jpg}} [[https://live.staticflickr.com/65535/51244803661_14e28d18a8_b.jpg|Agrandir]]</value></Data></ExtendedData><Point><coordinates>6.623889,43.165957,0</coordinates></Point></Placemark>
<Placemark><name>Jovat 1</name><description><![CDATA[{{https://live.staticflickr.com/65535/51244831566_bff9b17084_b.jpg}} [[https://live.staticflickr.com/65535/51244831566_bff9b17084_b.jpg|Agrandir]]]]></description><ExtendedData><Data name="comment"><value>{{https://live.staticflickr.com/65535/51244831566_bff9b17084_b.jpg}} [[https://live.staticflickr.com/65535/51244831566_bff9b17084_b.jpg|Agrandir]]</value></Data></ExtendedData><Point><coordinates>6.604506,43.176507,0</coordinates></Point></Placemark>
<Placemark><name>Joyat 2</name><description><![CDATA[{{https://live.staticflickr.com/65535/51245888275_35e9703d24_b.jpg}} [[https://live.staticflickr.com/65535/51245888275_35e9703d24_b.jpg|Agrandir]]]]></description><ExtendedData><Data name="comment"><value>{{https://live.staticflickr.com/65535/51245888275_35e9703d24_b.jpg}} [[https://live.staticflickr.com/65535/51245888275_35e9703d24_b.jpg|Agrandir]]</value></Data></ExtendedData><Point><coordinates>6.603267,43.174811,0</coordinates></Point></Placemark>
<Placemark><name>Lardier 1</name><description><![CDATA[{{https://live.staticflickr.com/65535/51244118777_99a2e98fac_b.jpg}} [[https://live.staticflickr.com/65535/51244118777_99a2e98fac_b.jpg|Agrandir]]]]></description><ExtendedData><Data name="comment"><value>{{https://live.staticflickr.com/65535/51244118777_99a2e98fac_b.jpg}} [[https://live.staticflickr.com/65535/51244118777_99a2e98fac_b.jpg|Agrandir]]</value></Data></ExtendedData><Point><coordinates>6.604491,43.173882,0</coordinates></Point></Placemark>
<Placemark><name>Lardier Est 2</name><description><![CDATA[{{https://live.staticflickr.com/65535/51245864155_c2af406fd0_b.jpg}} [[https://live.staticflickr.com/65535/51245864155_c2af406fd0_b.jpg|Agrandir]]]]></description><ExtendedData><Data name="comment"><value>{{https://live.staticflickr.com/65535/51245864155_c2af406fd0_b.jpg}} [[https://live.staticflickr.com/65535/51245864155_c2af406fd0_b.jpg|Agrandir]]</value></Data></ExtendedData><Point><coordinates>6.623887,43.165904,0</coordinates></Point></Placemark>
<Placemark><name>Lardier Plage</name><description><![CDATA[{{https://live.staticflickr.com/65535/51245572309_ce4fa56cae_b.jpg}} [[https://live.staticflickr.com/65535/51245572309_ce4fa56cae_b.jpg|Agrandir]]]]></description><ExtendedData><Data name="comment"><value>{{https://live.staticflickr.com/65535/51245572309_ce4fa56cae_b.jpg}} [[https://live.staticflickr.com/65535/51245572309_ce4fa56cae_b.jpg|Agrandir]]</value></Data></ExtendedData><Point><coordinates>6.621331,43.162994,0</coordinates></Point></Placemark>
<Placemark><name>Lavatère</name><description><![CDATA[{{https://live.staticflickr.com/65535/51244107822_f7e0fd863d_b.jpg}} [[https://live.staticflickr.com/65535/51244107822_f7e0fd863d_b.jpg|Agrandir]] La Mauve ou lavatère royale (Malva arborea ou Malva dendromorpha) est un arbrisseau poussant sur le littoral méditerranéen et sur les côtes atlantiques, dont les grandes fleurs pourpres ou violacées sont assez semblables à celles des mauves véritables, même si leur coloris est souvent plus vif.]]></description><ExtendedData><Data name="comment"><value>{{https://live.staticflickr.com/65535/51244107822_f7e0fd863d_b.jpg}} [[https://live.staticflickr.com/65535/51244107822_f7e0fd863d_b.jpg|Agrandir]] La Mauve ou lavatère royale (Malva arborea ou Malva dendromorpha) est un arbrisseau poussant sur le littoral méditerranéen et sur les côtes atlantiques, dont les grandes fleurs pourpres ou violacées sont assez semblables à celles des mauves véritables, même si leur coloris est souvent plus vif.</value></Data></ExtendedData><Point><coordinates>6.619469,43.162192,0</coordinates></Point></Placemark>
<Placemark><name>Lepture porte-coeur sur figuier Barbarie</name><description><![CDATA[{{https://live.staticflickr.com/65535/51245902005_2134cdd5d0_b.jpg}} [[https://live.staticflickr.com/65535/51245902005_2134cdd5d0_b.jpg|Agrandir]] {{https://live.staticflickr.com/65535/51245901860_657a09478b_b.jpg}} [[https://live.staticflickr.com/65535/51245901860_657a09478b_b.jpg|Agrandir]]]]></description><ExtendedData><Data name="comment"><value>{{https://live.staticflickr.com/65535/51245902005_2134cdd5d0_b.jpg}} [[https://live.staticflickr.com/65535/51245902005_2134cdd5d0_b.jpg|Agrandir]] {{https://live.staticflickr.com/65535/51245901860_657a09478b_b.jpg}} [[https://live.staticflickr.com/65535/51245901860_657a09478b_b.jpg|Agrandir]]</value></Data></ExtendedData><Point><coordinates>6.636482,43.176735,0</coordinates></Point></Placemark>
<Placemark><name>Myrte commun</name><description><![CDATA[{{https://live.staticflickr.com/65535/51244135667_18db9ca847_b.jpg}} [[https://live.staticflickr.com/65535/51244135667_18db9ca847_b.jpg|Agrandir]] Le Myrte commun, parfois appelé Myrte juif ou Herbe du lagui (Myrtus communis), est une espèce d'arbuste buissonnant au port dressé. Les feuilles de 2 à 5 cm de long, opposées, ovales, vernissées, de couleur vert foncé, aromatiques quand on les froisse. Les fleurs solitaires à long pédicelle et à cinq pétales, avec une touffe centrale d'étamines blanches, dégagent un parfum capiteux. Les fleurs ont un diamètre de 1 à 2 cm. La floraison a lieu de juin à octobre.]]></description><ExtendedData><Data name="comment"><value>{{https://live.staticflickr.com/65535/51244135667_18db9ca847_b.jpg}} [[https://live.staticflickr.com/65535/51244135667_18db9ca847_b.jpg|Agrandir]] Le Myrte commun, parfois appelé Myrte juif ou Herbe du lagui (Myrtus communis), est une espèce d'arbuste buissonnant au port dressé. Les feuilles de 2 à 5 cm de long, opposées, ovales, vernissées, de couleur vert foncé, aromatiques quand on les froisse. Les fleurs solitaires à long pédicelle et à cinq pétales, avec une touffe centrale d'étamines blanches, dégagent un parfum capiteux. Les fleurs ont un diamètre de 1 à 2 cm. La floraison a lieu de juin à octobre.</value></Data></ExtendedData><Point><coordinates>6.621546,43.160768,0</coordinates></Point></Placemark>
<Placemark><name>Oeillet des Rochers</name><description><![CDATA[{{https://live.staticflickr.com/65535/51245904855_43634de9b0_b.jpg}} [[https://live.staticflickr.com/65535/51245904855_43634de9b0_b.jpg|agrandir]] {{https://live.staticflickr.com/65535/51245904700_bc4894dac6_b.jpg}} [[https://live.staticflickr.com/65535/51245904700_bc4894dac6_b.jpg|agrandir]] {{https://live.staticflickr.com/65535/51245904425_fbfe7f7ce2_b.jpg}} [[https://live.staticflickr.com/65535/51245904425_fbfe7f7ce2_b.jpg|agrandir]]]]></description><ExtendedData><Data name="comment"><value>{{https://live.staticflickr.com/65535/51245904855_43634de9b0_b.jpg}} [[https://live.staticflickr.com/65535/51245904855_43634de9b0_b.jpg|agrandir]] {{https://live.staticflickr.com/65535/51245904700_bc4894dac6_b.jpg}} [[https://live.staticflickr.com/65535/51245904700_bc4894dac6_b.jpg|agrandir]] {{https://live.staticflickr.com/65535/51245904425_fbfe7f7ce2_b.jpg}} [[https://live.staticflickr.com/65535/51245904425_fbfe7f7ce2_b.jpg|agrandir]]</value></Data></ExtendedData><Point><coordinates>6.603157,43.180467,0</coordinates></Point></Placemark>
<Placemark><name>Pancarte 1</name><description><![CDATA[{{https://live.staticflickr.com/65535/51245606869_536389c4e7_b.jpg}} [[https://live.staticflickr.com/65535/51245606869_536389c4e7_b.jpg|agrandir]]]]></description><ExtendedData><Data name="comment"><value>{{https://live.staticflickr.com/65535/51245606869_536389c4e7_b.jpg}} [[https://live.staticflickr.com/65535/51245606869_536389c4e7_b.jpg|agrandir]]</value></Data></ExtendedData><Point><coordinates>6.600632,43.183688,0</coordinates></Point></Placemark>
<Placemark><name>Pancarte 2</name><description><![CDATA[{{https://live.staticflickr.com/65535/51245596649_ebeb7b6f96_b.jpg}} [[https://live.staticflickr.com/65535/51245596649_ebeb7b6f96_b.jpg|Agrandir]]]]></description><ExtendedData><Data name="comment"><value>{{https://live.staticflickr.com/65535/51245596649_ebeb7b6f96_b.jpg}} [[https://live.staticflickr.com/65535/51245596649_ebeb7b6f96_b.jpg|Agrandir]]</value></Data></ExtendedData><Point><coordinates>6.604329,43.176643,0</coordinates></Point></Placemark>
<Placemark><name>Pancarte Maison Douaniers</name><description><![CDATA[{{https://live.staticflickr.com/65535/51245558519_4664069415_b.jpg}} [[https://live.staticflickr.com/65535/51245558519_4664069415_b.jpg|Agrandir]]]]></description><ExtendedData><Data name="comment"><value>{{https://live.staticflickr.com/65535/51245558519_4664069415_b.jpg}} [[https://live.staticflickr.com/65535/51245558519_4664069415_b.jpg|Agrandir]]</value></Data></ExtendedData><Point><coordinates>6.639787,43.174976,0</coordinates></Point></Placemark>
<Placemark><name>Parasols de La Bergerie</name><description><![CDATA[{{https://live.staticflickr.com/65535/51244076522_50aeaab7d1_b.jpg}} [[https://live.staticflickr.com/65535/51244076522_50aeaab7d1_b.jpg|Agrandir]]]]></description><ExtendedData><Data name="comment"><value>{{https://live.staticflickr.com/65535/51244076522_50aeaab7d1_b.jpg}} [[https://live.staticflickr.com/65535/51244076522_50aeaab7d1_b.jpg|Agrandir]]</value></Data></ExtendedData><Point><coordinates>6.631919,43.18072,0</coordinates></Point></Placemark>
<Placemark><name>Plage de Gigaro</name><description><![CDATA[{{https://live.staticflickr.com/65535/51244841476_2d2243865b_b.jpg}} [[https://live.staticflickr.com/65535/51244841476_2d2243865b_b.jpg|agrandir]] Cette plage familiale est la dernière avant l’accès au sentier des douaniers et est considérée comme la porte d’entrée du Conservatoire du Littoral.]]></description><ExtendedData><Data name="comment"><value>{{https://live.staticflickr.com/65535/51244841476_2d2243865b_b.jpg}} [[https://live.staticflickr.com/65535/51244841476_2d2243865b_b.jpg|agrandir]] Cette plage familiale est la dernière avant l’accès au sentier des douaniers et est considérée comme la porte d’entrée du Conservatoire du Littoral.</value></Data></ExtendedData><Point><coordinates>6.60209,43.182127,0</coordinates></Point></Placemark>
<Placemark><name>Poteau Brouis</name><description><![CDATA[{{https://live.staticflickr.com/65535/51245588844_1966f3b471_b.jpg}} [[https://live.staticflickr.com/65535/51245588844_1966f3b471_b.jpg|Agrandir]]]]></description><ExtendedData><Data name="comment"><value>{{https://live.staticflickr.com/65535/51245588844_1966f3b471_b.jpg}} [[https://live.staticflickr.com/65535/51245588844_1966f3b471_b.jpg|Agrandir]]</value></Data></ExtendedData><Point><coordinates>6.60842,43.172986,0</coordinates></Point></Placemark>
<Placemark><name>Poteau Cap Taillat</name><description><![CDATA[{{https://live.staticflickr.com/65535/51245560389_8670bc9ebf_b.jpg}} [[https://live.staticflickr.com/65535/51245560389_8670bc9ebf_b.jpg|Agrandir]]]]></description><ExtendedData><Data name="comment"><value>{{https://live.staticflickr.com/65535/51245560389_8670bc9ebf_b.jpg}} [[https://live.staticflickr.com/65535/51245560389_8670bc9ebf_b.jpg|Agrandir]]</value></Data></ExtendedData><Point><coordinates>6.63928,43.172955,0</coordinates></Point></Placemark>
<Placemark><name>Poteau Douaniers</name><description><![CDATA[{{https://live.staticflickr.com/65535/51244991648_657b377948_b.jpg}} [[https://live.staticflickr.com/65535/51244991648_657b377948_b.jpg|Agrandir]]]]></description><ExtendedData><Data name="comment"><value>{{https://live.staticflickr.com/65535/51244991648_657b377948_b.jpg}} [[https://live.staticflickr.com/65535/51244991648_657b377948_b.jpg|Agrandir]]</value></Data></ExtendedData><Point><coordinates>6.639048,43.176061,0</coordinates></Point></Placemark>
<Placemark><name>Poteau vers Gigaro</name><description><![CDATA[{{https://live.staticflickr.com/65535/51244070532_2d6586c927_b.jpg}} [[https://live.staticflickr.com/65535/51244070532_2d6586c927_b.jpg|Agrandir]]]]></description><ExtendedData><Data name="comment"><value>{{https://live.staticflickr.com/65535/51244070532_2d6586c927_b.jpg}} [[https://live.staticflickr.com/65535/51244070532_2d6586c927_b.jpg|Agrandir]]</value></Data></ExtendedData><Point><coordinates>6.614923,43.183437,0</coordinates></Point></Placemark>
<Placemark><name>Poteau vers Lardier</name><description><![CDATA[{{https://live.staticflickr.com/65535/51245021393_5d00ca312f_b.jpg}} [[https://live.staticflickr.com/65535/51245021393_5d00ca312f_b.jpg|Agrandir]]]]></description><ExtendedData><Data name="comment"><value>{{https://live.staticflickr.com/65535/51245021393_5d00ca312f_b.jpg}} [[https://live.staticflickr.com/65535/51245021393_5d00ca312f_b.jpg|Agrandir]]</value></Data></ExtendedData><Point><coordinates>6.612778,43.169005,0</coordinates></Point></Placemark>
<Placemark><name>Roc tombolo de Taillat</name><description><![CDATA[{{https://live.staticflickr.com/65535/51244997678_5473800dec_b.jpg}} [[https://live.staticflickr.com/65535/51244997678_5473800dec_b.jpg|Agrandir]] Le cap Taillat, aussi appelé cap Cartaya est un cap situé au sud de la presqu'île de Saint-Tropez. Il marque la limite entre les communes de Ramatuelle et de la Croix-Valmer. Il a la particularité d’être relié à la cote par un isthme sableux (un tombolo). Le cap Taillat est un site classé et inscrit.]]></description><ExtendedData><Data name="comment"><value>{{https://live.staticflickr.com/65535/51244997678_5473800dec_b.jpg}} [[https://live.staticflickr.com/65535/51244997678_5473800dec_b.jpg|Agrandir]] Le cap Taillat, aussi appelé cap Cartaya est un cap situé au sud de la presqu'île de Saint-Tropez. Il marque la limite entre les communes de Ramatuelle et de la Croix-Valmer. Il a la particularité d’être relié à la cote par un isthme sableux (un tombolo). Le cap Taillat est un site classé et inscrit.</value></Data></ExtendedData><Point><coordinates>6.637201,43.173808,0</coordinates></Point></Placemark>
<Placemark><name>Taillat ouest</name><description><![CDATA[{{https://live.staticflickr.com/65535/51245565789_fc0ed50045_b.jpg}} [[https://live.staticflickr.com/65535/51245565789_fc0ed50045_b.jpg|Agrandir]]]]></description><ExtendedData><Data name="comment"><value>{{https://live.staticflickr.com/65535/51245565789_fc0ed50045_b.jpg}} [[https://live.staticflickr.com/65535/51245565789_fc0ed50045_b.jpg|Agrandir]]</value></Data></ExtendedData><Point><coordinates>6.626293,43.16725,0</coordinates></Point></Placemark>
<Placemark><name>Vers Lardier 1</name><description><![CDATA[{{https://live.staticflickr.com/65535/51244822041_91d6a2f0cb_b.jpg}} [[https://live.staticflickr.com/65535/51244822041_91d6a2f0cb_b.jpg|Agrandir]]]]></description><ExtendedData><Data name="comment"><value>{{https://live.staticflickr.com/65535/51244822041_91d6a2f0cb_b.jpg}} [[https://live.staticflickr.com/65535/51244822041_91d6a2f0cb_b.jpg|Agrandir]]</value></Data></ExtendedData><Point><coordinates>6.614842,43.167614,0</coordinates></Point></Placemark>
</Document></kml>