<?xml version="1.0" encoding="UTF-8"?>
<gpx version="1.1" creator="Marando" xmlns="http://www.topografix.com/GPX/1/1">
<wpt lat="43.185752" lon="6.599085"><ele>0</ele><name>Arrivée</name><desc>Nom: Segment: 1Heure de départ: 09:20 13 juin 2021Heure d'arrivée: 16:34 13 juin 2021Distance: 13,9km (07:14)Temps déplacement: 04:41Vitesse moyenne: 1,92 km/hVitesse moyenne mouv.: 2,96 km/hVitesse Max.: 5,95 km/hAltitude minimale: -4 mAltitude maximale: 164 mVitesse de montée: 196,4 m/hVitesse de descente: 196 m/hGain d'altitude: 503 mPerte d'altitude: 496 mTemps de montée: 02:33Temps de descente: 02:32</desc></wpt>
<wpt lat="43.163302" lon="6.61894"><ele>0</ele><name>Au loin Taillat 1</name></wpt>
<wpt lat="43.162344" lon="6.619446"><ele>0</ele><name>Au loin Taillat 2</name></wpt>
<wpt lat="43.169335" lon="6.62803"><ele>0</ele><name>Baie de Briande</name></wpt>
<wpt lat="43.161531" lon="6.619345"><ele>0</ele><name>Baie de Cavalaire</name></wpt>
<wpt lat="43.18264" lon="6.612849"><ele>0</ele><name>Baie de Cavalaire</name></wpt>
<wpt lat="43.173826" lon="6.606097"><ele>0</ele><name>Barbe Jupiter 1</name></wpt>
<wpt lat="43.160098" lon="6.620078"><ele>0</ele><name>Barbe Jupiter 2</name><desc>Anthyllis barba-jovis, la barbe de Jupiter, est une espèce de plantes dicotylédones de la famille des Fabaceae, sous-famille des Faboideae, originaire du bassin méditerranéen. Ce sont des plantes ligneuses vivaces, semi-halophiles.</desc></wpt>
<wpt lat="43.176227" lon="6.640137"><ele>0</ele><name>Cap Camarat</name></wpt>
<wpt lat="43.160076" lon="6.619916"><ele>0</ele><name>Cap Lardier 1</name><desc>Le cap Lardier est le premier des trois caps de la presqu’île de Saint-Tropez visible depuis la baie de Cavalaire, et le plus boisé. Situé sur la commune de La Croix Valmer, dans le Var, c’est l’un des derniers poumons verts encore non urbanisés compris entre les villes balnéaires très touristiques de Cavalaire et de Saint-Tropez.</desc></wpt>
<wpt lat="43.160618" lon="6.620949"><ele>0</ele><name>Cap Lardier Est</name></wpt>
<wpt lat="43.176224" lon="6.640122"><ele>0</ele><name>Cap Taillat Est</name></wpt>
<wpt lat="43.179126" lon="6.60294"><ele>0</ele><name>Cavalaire</name></wpt>
<wpt lat="43.165104" lon="6.618056"><ele>0</ele><name>Chenille Cucullie Scrof.</name><desc>La Cucullie de la scrofulaire ou Cucullie des scrofulaires (Shargacucullia scrophulariae ou Cucullia scrophulariae) est une espèce de lépidoptères (papillons) de la famille des Noctuidae et de la sous-famille des Cuculliinae. Comme me l'a fait remarquer Vincent Blondel, cette cucullie pourrait aussi bien être la cucullie du Bouillon-Blanc.</desc></wpt>
<wpt lat="43.188668" lon="6.614888"><ele>0</ele><name>Citerne des Gaches</name></wpt>
<wpt lat="43.185682" lon="6.599128"><ele>0</ele><name>Départ</name></wpt>
<wpt lat="43.177974" lon="6.634818"><ele>0</ele><name>Dolmen de la Briande</name><desc>Le dolmen a été édifié à flanc de coteau, à 300 m de la mer, c'est d'ailleurs le dolmen le plus méridional de tout le département. Bien que très endommagée, l'architecture générale de l'édifice est reconnaissable. La chambre sépulcrale est de forme rectangulaire. Elle est délimitée par une dalle de chevet et un orthostate côté est, tous deux en granite d'origine locale. Les autres dalles sont en gneiss, dressées sur chant et jointes par des murettes en pierres sèches.</desc></wpt>
<wpt lat="43.185922" lon="6.629141"><ele>0</ele><name>Forêt de La Tourraque</name></wpt>
<wpt lat="43.18163" lon="6.602381"><ele>0</ele><name>Gigaro 2</name></wpt>
<wpt lat="43.17856" lon="6.603428"><ele>0</ele><name>Gigaro 3</name></wpt>
<wpt lat="43.176985" lon="6.603626"><ele>0</ele><name>Gigaro 4</name></wpt>
<wpt lat="43.172747" lon="6.639172"><ele>0</ele><name>Giroflée des dunes</name></wpt>
<wpt lat="43.187526" lon="6.628518"><ele>0</ele><name>Jeune palmier (Phoenix probable)</name><desc>Ce jeune palmier poussant dans une dépression humide n'est pas le palmier nain (Chamaerops) comme je l'avais rapidement décrit, mais comme me l'a fait remarquer Marjorie Ughetto plutôt un Phoenix, avec la palme en forme de plume.</desc></wpt>
<wpt lat="43.165957" lon="6.623889"><ele>0</ele><name>Jonc</name></wpt>
<wpt lat="43.176507" lon="6.604506"><ele>0</ele><name>Jovat 1</name></wpt>
<wpt lat="43.174811" lon="6.603267"><ele>0</ele><name>Joyat 2</name></wpt>
<wpt lat="43.173882" lon="6.604491"><ele>0</ele><name>Lardier 1</name></wpt>
<wpt lat="43.165904" lon="6.623887"><ele>0</ele><name>Lardier Est 2</name></wpt>
<wpt lat="43.162994" lon="6.621331"><ele>0</ele><name>Lardier Plage</name></wpt>
<wpt lat="43.162192" lon="6.619469"><ele>0</ele><name>Lavatère</name><desc>La Mauve ou lavatère royale (Malva arborea ou Malva dendromorpha) est un arbrisseau poussant sur le littoral méditerranéen et sur les côtes atlantiques, dont les grandes fleurs pourpres ou violacées sont assez semblables à celles des mauves véritables, même si leur coloris est souvent plus vif.</desc></wpt>
<wpt lat="43.176735" lon="6.636482"><ele>0</ele><name>Lepture porte-coeur sur figuier Barbarie</name></wpt>
<wpt lat="43.160768" lon="6.621546"><ele>0</ele><name>Myrte commun</name><desc>Le Myrte commun, parfois appelé Myrte juif ou Herbe du lagui (Myrtus communis), est une espèce d'arbuste buissonnant au port dressé. Les feuilles de 2 à 5 cm de long, opposées, ovales, vernissées, de couleur vert foncé, aromatiques quand on les froisse. Les fleurs solitaires à long pédicelle et à cinq pétales, avec une touffe centrale d'étamines blanches, dégagent un parfum capiteux. Les fleurs ont un diamètre de 1 à 2 cm. La floraison a lieu de juin à octobre.</desc></wpt>
<wpt lat="43.180467" lon="6.603157"><ele>0</ele><name>Oeillet des Rochers</name></wpt>
<wpt lat="43.183688" lon="6.600632"><ele>0</ele><name>Pancarte 1</name></wpt>
<wpt lat="43.176643" lon="6.604329"><ele>0</ele><name>Pancarte 2</name></wpt>
<wpt lat="43.174976" lon="6.639787"><ele>0</ele><name>Pancarte Maison Douaniers</name></wpt>
<wpt lat="43.18072" lon="6.631919"><ele>0</ele><name>Parasols de La Bergerie</name></wpt>
<wpt lat="43.182127" lon="6.60209"><ele>0</ele><name>Plage de Gigaro</name><desc>Cette plage familiale est la dernière avant l’accès au sentier des douaniers et est considérée comme la porte d’entrée du Conservatoire du Littoral.</desc></wpt>
<wpt lat="43.172986" lon="6.60842"><ele>0</ele><name>Poteau Brouis</name></wpt>
<wpt lat="43.172955" lon="6.63928"><ele>0</ele><name>Poteau Cap Taillat</name></wpt>
<wpt lat="43.176061" lon="6.639048"><ele>0</ele><name>Poteau Douaniers</name></wpt>
<wpt lat="43.183437" lon="6.614923"><ele>0</ele><name>Poteau vers Gigaro</name></wpt>
<wpt lat="43.169005" lon="6.612778"><ele>0</ele><name>Poteau vers Lardier</name></wpt>
<wpt lat="43.173808" lon="6.637201"><ele>0</ele><name>Roc tombolo de Taillat</name><desc>Le cap Taillat, aussi appelé cap Cartaya est un cap situé au sud de la presqu'île de Saint-Tropez. Il marque la limite entre les communes de Ramatuelle et de la Croix-Valmer. Il a la particularité d’être relié à la cote par un isthme sableux (un tombolo). Le cap Taillat est un site classé et inscrit.</desc></wpt>
<wpt lat="43.16725" lon="6.626293"><ele>0</ele><name>Taillat ouest</name></wpt>
<wpt lat="43.167614" lon="6.614842"><ele>0</ele><name>Vers Lardier 1</name></wpt>
<trk><name>gigaro_lardier_taillat</name><trkseg>
<trkpt lat="43.185682" lon="6.599128"><ele>0</ele></trkpt>
<trkpt lat="43.185782" lon="6.59891"><ele>0</ele></trkpt>
<trkpt lat="43.185618" lon="6.598809"><ele>0</ele></trkpt>
<trkpt lat="43.185437" lon="6.598749"><ele>0</ele></trkpt>
<trkpt lat="43.185284" lon="6.598618"><ele>0</ele></trkpt>
<trkpt lat="43.185142" lon="6.598452"><ele>0</ele></trkpt>
<trkpt lat="43.184952" lon="6.598444"><ele>0</ele></trkpt>
<trkpt lat="43.184769" lon="6.598428"><ele>0</ele></trkpt>
<trkpt lat="43.184585" lon="6.598441"><ele>0</ele></trkpt>
<trkpt lat="43.184398" lon="6.598442"><ele>0</ele></trkpt>
<trkpt lat="43.184285" lon="6.598645"><ele>0</ele></trkpt>
<trkpt lat="43.184267" lon="6.59889"><ele>0</ele></trkpt>
<trkpt lat="43.184226" lon="6.599139"><ele>0</ele></trkpt>
<trkpt lat="43.184184" lon="6.59938"><ele>0</ele></trkpt>
<trkpt lat="43.184111" lon="6.599608"><ele>0</ele></trkpt>
<trkpt lat="43.184032" lon="6.599843"><ele>0</ele></trkpt>
<trkpt lat="43.183948" lon="6.600072"><ele>0</ele></trkpt>
<trkpt lat="43.18385" lon="6.600282"><ele>0</ele></trkpt>
<trkpt lat="43.183805" lon="6.600523"><ele>0</ele></trkpt>
<trkpt lat="43.183693" lon="6.600725"><ele>0</ele></trkpt>
<trkpt lat="43.183608" lon="6.600945"><ele>0</ele></trkpt>
<trkpt lat="43.183544" lon="6.601189"><ele>0</ele></trkpt>
<trkpt lat="43.183427" lon="6.60138"><ele>0</ele></trkpt>
<trkpt lat="43.183244" lon="6.601424"><ele>0</ele></trkpt>
<trkpt lat="43.183064" lon="6.601485"><ele>0</ele></trkpt>
<trkpt lat="43.182884" lon="6.601422"><ele>0</ele></trkpt>
<trkpt lat="43.182713" lon="6.60152"><ele>0</ele></trkpt>
<trkpt lat="43.182542" lon="6.601625"><ele>0</ele></trkpt>
<trkpt lat="43.18241" lon="6.601811"><ele>0</ele></trkpt>
<trkpt lat="43.18227" lon="6.601983"><ele>0</ele></trkpt>
<trkpt lat="43.18212" lon="6.602124"><ele>0</ele></trkpt>
<trkpt lat="43.181955" lon="6.602228"><ele>0</ele></trkpt>
<trkpt lat="43.181829" lon="6.602419"><ele>0</ele></trkpt>
<trkpt lat="43.181645" lon="6.602405"><ele>0</ele></trkpt>
<trkpt lat="43.181466" lon="6.602446"><ele>0</ele></trkpt>
<trkpt lat="43.181311" lon="6.602589"><ele>0</ele></trkpt>
<trkpt lat="43.181153" lon="6.602713"><ele>0</ele></trkpt>
<trkpt lat="43.180972" lon="6.60278"><ele>0</ele></trkpt>
<trkpt lat="43.180823" lon="6.602924"><ele>0</ele></trkpt>
<trkpt lat="43.180642" lon="6.602952"><ele>0</ele></trkpt>
<trkpt lat="43.180505" lon="6.603115"><ele>0</ele></trkpt>
<trkpt lat="43.180343" lon="6.602998"><ele>0</ele></trkpt>
<trkpt lat="43.180162" lon="6.602958"><ele>0</ele></trkpt>
<trkpt lat="43.180008" lon="6.602816"><ele>0</ele></trkpt>
<trkpt lat="43.179824" lon="6.602787"><ele>0</ele></trkpt>
<trkpt lat="43.179652" lon="6.602868"><ele>0</ele></trkpt>
<trkpt lat="43.179468" lon="6.602876"><ele>0</ele></trkpt>
<trkpt lat="43.179286" lon="6.602897"><ele>0</ele></trkpt>
<trkpt lat="43.179103" lon="6.602934"><ele>0</ele></trkpt>
<trkpt lat="43.178953" lon="6.603072"><ele>0</ele></trkpt>
<trkpt lat="43.178872" lon="6.603294"><ele>0</ele></trkpt>
<trkpt lat="43.178698" lon="6.603371"><ele>0</ele></trkpt>
<trkpt lat="43.178533" lon="6.603484"><ele>0</ele></trkpt>
<trkpt lat="43.178438" lon="6.603699"><ele>0</ele></trkpt>
<trkpt lat="43.178262" lon="6.603752"><ele>0</ele></trkpt>
<trkpt lat="43.178079" lon="6.603776"><ele>0</ele></trkpt>
<trkpt lat="43.177898" lon="6.603824"><ele>0</ele></trkpt>
<trkpt lat="43.17772" lon="6.603914"><ele>0</ele></trkpt>
<trkpt lat="43.177569" lon="6.604065"><ele>0</ele></trkpt>
<trkpt lat="43.177438" lon="6.603893"><ele>0</ele></trkpt>
<trkpt lat="43.177262" lon="6.603828"><ele>0</ele></trkpt>
<trkpt lat="43.177123" lon="6.603671"><ele>0</ele></trkpt>
<trkpt lat="43.176942" lon="6.603712"><ele>0</ele></trkpt>
<trkpt lat="43.176864" lon="6.603943"><ele>0</ele></trkpt>
<trkpt lat="43.176762" lon="6.604153"><ele>0</ele></trkpt>
<trkpt lat="43.176635" lon="6.60433"><ele>0</ele></trkpt>
<trkpt lat="43.176509" lon="6.60451"><ele>0</ele></trkpt>
<trkpt lat="43.176329" lon="6.604467"><ele>0</ele></trkpt>
<trkpt lat="43.176141" lon="6.604499"><ele>0</ele></trkpt>
<trkpt lat="43.175966" lon="6.604564"><ele>0</ele></trkpt>
<trkpt lat="43.175785" lon="6.604561"><ele>0</ele></trkpt>
<trkpt lat="43.175623" lon="6.604685"><ele>0</ele></trkpt>
<trkpt lat="43.17544" lon="6.604664"><ele>0</ele></trkpt>
<trkpt lat="43.175315" lon="6.604485"><ele>0</ele></trkpt>
<trkpt lat="43.175196" lon="6.604295"><ele>0</ele></trkpt>
<trkpt lat="43.175015" lon="6.604297"><ele>0</ele></trkpt>
<trkpt lat="43.174887" lon="6.604116"><ele>0</ele></trkpt>
<trkpt lat="43.17497" lon="6.603885"><ele>0</ele></trkpt>
<trkpt lat="43.174923" lon="6.603647"><ele>0</ele></trkpt>
<trkpt lat="43.174823" lon="6.60344"><ele>0</ele></trkpt>
<trkpt lat="43.174827" lon="6.603191"><ele>0</ele></trkpt>
<trkpt lat="43.174658" lon="6.603088"><ele>0</ele></trkpt>
<trkpt lat="43.174477" lon="6.603078"><ele>0</ele></trkpt>
<trkpt lat="43.174305" lon="6.60316"><ele>0</ele></trkpt>
<trkpt lat="43.174147" lon="6.603282"><ele>0</ele></trkpt>
<trkpt lat="43.174067" lon="6.603507"><ele>0</ele></trkpt>
<trkpt lat="43.174018" lon="6.603746"><ele>0</ele></trkpt>
<trkpt lat="43.173968" lon="6.603986"><ele>0</ele></trkpt>
<trkpt lat="43.173902" lon="6.604221"><ele>0</ele></trkpt>
<trkpt lat="43.17388" lon="6.604467"><ele>0</ele></trkpt>
<trkpt lat="43.173884" lon="6.604715"><ele>0</ele></trkpt>
<trkpt lat="43.173879" lon="6.60497"><ele>0</ele></trkpt>
<trkpt lat="43.173837" lon="6.605214"><ele>0</ele></trkpt>
<trkpt lat="43.173765" lon="6.605443"><ele>0</ele></trkpt>
<trkpt lat="43.173704" lon="6.605681"><ele>0</ele></trkpt>
<trkpt lat="43.173696" lon="6.605932"><ele>0</ele></trkpt>
<trkpt lat="43.17382" lon="6.606118"><ele>0</ele></trkpt>
<trkpt lat="43.173705" lon="6.606317"><ele>0</ele></trkpt>
<trkpt lat="43.173601" lon="6.606519"><ele>0</ele></trkpt>
<trkpt lat="43.173568" lon="6.606763"><ele>0</ele></trkpt>
<trkpt lat="43.173579" lon="6.607014"><ele>0</ele></trkpt>
<trkpt lat="43.173487" lon="6.607237"><ele>0</ele></trkpt>
<trkpt lat="43.173422" lon="6.60747"><ele>0</ele></trkpt>
<trkpt lat="43.173321" lon="6.607676"><ele>0</ele></trkpt>
<trkpt lat="43.173268" lon="6.607917"><ele>0</ele></trkpt>
<trkpt lat="43.173247" lon="6.608163"><ele>0</ele></trkpt>
<trkpt lat="43.173166" lon="6.608385"><ele>0</ele></trkpt>
<trkpt lat="43.172984" lon="6.608409"><ele>0</ele></trkpt>
<trkpt lat="43.172799" lon="6.608376"><ele>0</ele></trkpt>
<trkpt lat="43.172616" lon="6.6084"><ele>0</ele></trkpt>
<trkpt lat="43.172445" lon="6.608508"><ele>0</ele></trkpt>
<trkpt lat="43.172287" lon="6.608628"><ele>0</ele></trkpt>
<trkpt lat="43.172131" lon="6.608757"><ele>0</ele></trkpt>
<trkpt lat="43.171951" lon="6.608748"><ele>0</ele></trkpt>
<trkpt lat="43.171766" lon="6.608717"><ele>0</ele></trkpt>
<trkpt lat="43.171595" lon="6.608626"><ele>0</ele></trkpt>
<trkpt lat="43.171445" lon="6.608472"><ele>0</ele></trkpt>
<trkpt lat="43.171277" lon="6.608369"><ele>0</ele></trkpt>
<trkpt lat="43.171142" lon="6.608533"><ele>0</ele></trkpt>
<trkpt lat="43.170986" lon="6.608658"><ele>0</ele></trkpt>
<trkpt lat="43.170801" lon="6.608627"><ele>0</ele></trkpt>
<trkpt lat="43.170657" lon="6.60878"><ele>0</ele></trkpt>
<trkpt lat="43.170515" lon="6.608934"><ele>0</ele></trkpt>
<trkpt lat="43.170373" lon="6.609097"><ele>0</ele></trkpt>
<trkpt lat="43.170299" lon="6.609324"><ele>0</ele></trkpt>
<trkpt lat="43.170185" lon="6.609516"><ele>0</ele></trkpt>
<trkpt lat="43.170036" lon="6.609662"><ele>0</ele></trkpt>
<trkpt lat="43.169861" lon="6.609732"><ele>0</ele></trkpt>
<trkpt lat="43.169691" lon="6.609837"><ele>0</ele></trkpt>
<trkpt lat="43.169561" lon="6.610008"><ele>0</ele></trkpt>
<trkpt lat="43.169461" lon="6.610216"><ele>0</ele></trkpt>
<trkpt lat="43.16935" lon="6.610413"><ele>0</ele></trkpt>
<trkpt lat="43.169321" lon="6.610661"><ele>0</ele></trkpt>
<trkpt lat="43.169225" lon="6.610872"><ele>0</ele></trkpt>
<trkpt lat="43.169315" lon="6.611088"><ele>0</ele></trkpt>
<trkpt lat="43.169328" lon="6.611336"><ele>0</ele></trkpt>
<trkpt lat="43.169332" lon="6.611594"><ele>0</ele></trkpt>
<trkpt lat="43.169444" lon="6.611788"><ele>0</ele></trkpt>
<trkpt lat="43.169268" lon="6.611858"><ele>0</ele></trkpt>
<trkpt lat="43.169195" lon="6.612092"><ele>0</ele></trkpt>
<trkpt lat="43.169111" lon="6.612316"><ele>0</ele></trkpt>
<trkpt lat="43.16908" lon="6.612576"><ele>0</ele></trkpt>
<trkpt lat="43.168972" lon="6.612787"><ele>0</ele></trkpt>
<trkpt lat="43.168791" lon="6.612874"><ele>0</ele></trkpt>
<trkpt lat="43.168638" lon="6.613015"><ele>0</ele></trkpt>
<trkpt lat="43.16852" lon="6.613204"><ele>0</ele></trkpt>
<trkpt lat="43.168363" lon="6.613352"><ele>0</ele></trkpt>
<trkpt lat="43.168217" lon="6.613504"><ele>0</ele></trkpt>
<trkpt lat="43.168078" lon="6.613666"><ele>0</ele></trkpt>
<trkpt lat="43.167947" lon="6.613835"><ele>0</ele></trkpt>
<trkpt lat="43.167838" lon="6.614047"><ele>0</ele></trkpt>
<trkpt lat="43.167755" lon="6.614266"><ele>0</ele></trkpt>
<trkpt lat="43.167683" lon="6.614502"><ele>0</ele></trkpt>
<trkpt lat="43.167635" lon="6.614749"><ele>0</ele></trkpt>
<trkpt lat="43.167539" lon="6.614959"><ele>0</ele></trkpt>
<trkpt lat="43.16751" lon="6.615207"><ele>0</ele></trkpt>
<trkpt lat="43.167441" lon="6.615445"><ele>0</ele></trkpt>
<trkpt lat="43.16737" lon="6.615686"><ele>0</ele></trkpt>
<trkpt lat="43.167316" lon="6.615928"><ele>0</ele></trkpt>
<trkpt lat="43.167184" lon="6.616095"><ele>0</ele></trkpt>
<trkpt lat="43.167018" lon="6.61621"><ele>0</ele></trkpt>
<trkpt lat="43.166883" lon="6.616377"><ele>0</ele></trkpt>
<trkpt lat="43.166726" lon="6.616499"><ele>0</ele></trkpt>
<trkpt lat="43.166549" lon="6.616563"><ele>0</ele></trkpt>
<trkpt lat="43.166409" lon="6.616719"><ele>0</ele></trkpt>
<trkpt lat="43.166269" lon="6.61688"><ele>0</ele></trkpt>
<trkpt lat="43.166138" lon="6.617067"><ele>0</ele></trkpt>
<trkpt lat="43.166015" lon="6.617248"><ele>0</ele></trkpt>
<trkpt lat="43.165892" lon="6.617442"><ele>0</ele></trkpt>
<trkpt lat="43.165741" lon="6.617576"><ele>0</ele></trkpt>
<trkpt lat="43.165576" lon="6.617682"><ele>0</ele></trkpt>
<trkpt lat="43.165402" lon="6.617776"><ele>0</ele></trkpt>
<trkpt lat="43.165239" lon="6.617901"><ele>0</ele></trkpt>
<trkpt lat="43.165083" lon="6.618032"><ele>0</ele></trkpt>
<trkpt lat="43.164918" lon="6.618143"><ele>0</ele></trkpt>
<trkpt lat="43.164737" lon="6.618205"><ele>0</ele></trkpt>
<trkpt lat="43.164551" lon="6.618256"><ele>0</ele></trkpt>
<trkpt lat="43.164377" lon="6.618362"><ele>0</ele></trkpt>
<trkpt lat="43.164214" lon="6.618492"><ele>0</ele></trkpt>
<trkpt lat="43.16403" lon="6.618562"><ele>0</ele></trkpt>
<trkpt lat="43.163849" lon="6.618602"><ele>0</ele></trkpt>
<trkpt lat="43.16368" lon="6.618698"><ele>0</ele></trkpt>
<trkpt lat="43.163502" lon="6.61878"><ele>0</ele></trkpt>
<trkpt lat="43.163346" lon="6.618913"><ele>0</ele></trkpt>
<trkpt lat="43.163167" lon="6.618975"><ele>0</ele></trkpt>
<trkpt lat="43.162981" lon="6.618966"><ele>0</ele></trkpt>
<trkpt lat="43.162792" lon="6.618935"><ele>0</ele></trkpt>
<trkpt lat="43.162645" lon="6.619098"><ele>0</ele></trkpt>
<trkpt lat="43.1625" lon="6.619248"><ele>0</ele></trkpt>
<trkpt lat="43.16236" lon="6.619424"><ele>0</ele></trkpt>
<trkpt lat="43.162171" lon="6.619419"><ele>0</ele></trkpt>
<trkpt lat="43.16199" lon="6.619427"><ele>0</ele></trkpt>
<trkpt lat="43.161807" lon="6.619427"><ele>0</ele></trkpt>
<trkpt lat="43.161627" lon="6.619366"><ele>0</ele></trkpt>
<trkpt lat="43.161441" lon="6.619363"><ele>0</ele></trkpt>
<trkpt lat="43.161282" lon="6.619501"><ele>0</ele></trkpt>
<trkpt lat="43.161197" lon="6.619734"><ele>0</ele></trkpt>
<trkpt lat="43.161015" lon="6.619772"><ele>0</ele></trkpt>
<trkpt lat="43.160825" lon="6.619739"><ele>0</ele></trkpt>
<trkpt lat="43.160641" lon="6.619746"><ele>0</ele></trkpt>
<trkpt lat="43.160455" lon="6.619713"><ele>0</ele></trkpt>
<trkpt lat="43.160307" lon="6.61986"><ele>0</ele></trkpt>
<trkpt lat="43.160125" lon="6.619882"><ele>0</ele></trkpt>
<trkpt lat="43.160126" lon="6.62013"><ele>0</ele></trkpt>
<trkpt lat="43.160283" lon="6.620262"><ele>0</ele></trkpt>
<trkpt lat="43.160566" lon="6.620711"><ele>0</ele></trkpt>
<trkpt lat="43.160618" lon="6.620949"><ele>0</ele></trkpt>
<trkpt lat="43.160694" lon="6.621177"><ele>0</ele></trkpt>
<trkpt lat="43.160681" lon="6.621434"><ele>0</ele></trkpt>
<trkpt lat="43.160792" lon="6.621634"><ele>0</ele></trkpt>
<trkpt lat="43.160916" lon="6.621815"><ele>0</ele></trkpt>
<trkpt lat="43.161049" lon="6.62199"><ele>0</ele></trkpt>
<trkpt lat="43.161229" lon="6.622068"><ele>0</ele></trkpt>
<trkpt lat="43.16141" lon="6.622032"><ele>0</ele></trkpt>
<trkpt lat="43.161586" lon="6.621947"><ele>0</ele></trkpt>
<trkpt lat="43.161759" lon="6.621854"><ele>0</ele></trkpt>
<trkpt lat="43.161904" lon="6.621693"><ele>0</ele></trkpt>
<trkpt lat="43.162074" lon="6.621611"><ele>0</ele></trkpt>
<trkpt lat="43.162248" lon="6.621546"><ele>0</ele></trkpt>
<trkpt lat="43.162376" lon="6.621351"><ele>0</ele></trkpt>
<trkpt lat="43.16256" lon="6.621302"><ele>0</ele></trkpt>
<trkpt lat="43.162742" lon="6.621266"><ele>0</ele></trkpt>
<trkpt lat="43.162921" lon="6.621239"><ele>0</ele></trkpt>
<trkpt lat="43.163095" lon="6.621315"><ele>0</ele></trkpt>
<trkpt lat="43.163264" lon="6.621404"><ele>0</ele></trkpt>
<trkpt lat="43.163435" lon="6.621479"><ele>0</ele></trkpt>
<trkpt lat="43.163615" lon="6.621426"><ele>0</ele></trkpt>
<trkpt lat="43.163775" lon="6.621559"><ele>0</ele></trkpt>
<trkpt lat="43.163898" lon="6.621749"><ele>0</ele></trkpt>
<trkpt lat="43.164086" lon="6.621767"><ele>0</ele></trkpt>
<trkpt lat="43.164266" lon="6.62179"><ele>0</ele></trkpt>
<trkpt lat="43.16443" lon="6.621907"><ele>0</ele></trkpt>
<trkpt lat="43.164601" lon="6.622005"><ele>0</ele></trkpt>
<trkpt lat="43.164729" lon="6.622183"><ele>0</ele></trkpt>
<trkpt lat="43.164867" lon="6.622363"><ele>0</ele></trkpt>
<trkpt lat="43.165018" lon="6.622517"><ele>0</ele></trkpt>
<trkpt lat="43.165178" lon="6.622634"><ele>0</ele></trkpt>
<trkpt lat="43.16531" lon="6.622811"><ele>0</ele></trkpt>
<trkpt lat="43.165456" lon="6.622966"><ele>0</ele></trkpt>
<trkpt lat="43.165604" lon="6.623126"><ele>0</ele></trkpt>
<trkpt lat="43.1657" lon="6.623336"><ele>0</ele></trkpt>
<trkpt lat="43.165838" lon="6.623506"><ele>0</ele></trkpt>
<trkpt lat="43.16598" lon="6.623666"><ele>0</ele></trkpt>
<trkpt lat="43.16588" lon="6.623876"><ele>0</ele></trkpt>
<trkpt lat="43.16606" lon="6.623867"><ele>0</ele></trkpt>
<trkpt lat="43.166081" lon="6.624113"><ele>0</ele></trkpt>
<trkpt lat="43.166135" lon="6.624349"><ele>0</ele></trkpt>
<trkpt lat="43.16629" lon="6.624489"><ele>0</ele></trkpt>
<trkpt lat="43.166388" lon="6.624704"><ele>0</ele></trkpt>
<trkpt lat="43.166413" lon="6.624957"><ele>0</ele></trkpt>
<trkpt lat="43.166352" lon="6.625191"><ele>0</ele></trkpt>
<trkpt lat="43.166326" lon="6.625442"><ele>0</ele></trkpt>
<trkpt lat="43.166452" lon="6.625622"><ele>0</ele></trkpt>
<trkpt lat="43.166608" lon="6.625761"><ele>0</ele></trkpt>
<trkpt lat="43.166755" lon="6.625902"><ele>0</ele></trkpt>
<trkpt lat="43.166829" lon="6.62613"><ele>0</ele></trkpt>
<trkpt lat="43.167008" lon="6.626192"><ele>0</ele></trkpt>
<trkpt lat="43.167185" lon="6.626255"><ele>0</ele></trkpt>
<trkpt lat="43.167371" lon="6.626294"><ele>0</ele></trkpt>
<trkpt lat="43.167554" lon="6.626295"><ele>0</ele></trkpt>
<trkpt lat="43.167739" lon="6.626321"><ele>0</ele></trkpt>
<trkpt lat="43.167862" lon="6.626501"><ele>0</ele></trkpt>
<trkpt lat="43.167998" lon="6.626668"><ele>0</ele></trkpt>
<trkpt lat="43.168139" lon="6.626822"><ele>0</ele></trkpt>
<trkpt lat="43.168246" lon="6.627026"><ele>0</ele></trkpt>
<trkpt lat="43.168419" lon="6.627117"><ele>0</ele></trkpt>
<trkpt lat="43.168591" lon="6.627227"><ele>0</ele></trkpt>
<trkpt lat="43.168739" lon="6.62737"><ele>0</ele></trkpt>
<trkpt lat="43.168913" lon="6.627452"><ele>0</ele></trkpt>
<trkpt lat="43.169071" lon="6.627572"><ele>0</ele></trkpt>
<trkpt lat="43.169166" lon="6.627788"><ele>0</ele></trkpt>
<trkpt lat="43.169257" lon="6.628001"><ele>0</ele></trkpt>
<trkpt lat="43.16944" lon="6.627988"><ele>0</ele></trkpt>
<trkpt lat="43.169619" lon="6.627952"><ele>0</ele></trkpt>
<trkpt lat="43.16967" lon="6.628191"><ele>0</ele></trkpt>
<trkpt lat="43.169773" lon="6.628405"><ele>0</ele></trkpt>
<trkpt lat="43.169808" lon="6.628653"><ele>0</ele></trkpt>
<trkpt lat="43.169863" lon="6.62889"><ele>0</ele></trkpt>
<trkpt lat="43.170008" lon="6.629046"><ele>0</ele></trkpt>
<trkpt lat="43.170141" lon="6.629221"><ele>0</ele></trkpt>
<trkpt lat="43.170063" lon="6.629447"><ele>0</ele></trkpt>
<trkpt lat="43.169883" lon="6.629463"><ele>0</ele></trkpt>
<trkpt lat="43.169949" lon="6.629703"><ele>0</ele></trkpt>
<trkpt lat="43.170124" lon="6.629805"><ele>0</ele></trkpt>
<trkpt lat="43.170311" lon="6.629812"><ele>0</ele></trkpt>
<trkpt lat="43.170495" lon="6.629842"><ele>0</ele></trkpt>
<trkpt lat="43.170659" lon="6.629951"><ele>0</ele></trkpt>
<trkpt lat="43.170708" lon="6.63019"><ele>0</ele></trkpt>
<trkpt lat="43.170861" lon="6.630326"><ele>0</ele></trkpt>
<trkpt lat="43.17102" lon="6.630459"><ele>0</ele></trkpt>
<trkpt lat="43.171115" lon="6.630682"><ele>0</ele></trkpt>
<trkpt lat="43.171107" lon="6.630936"><ele>0</ele></trkpt>
<trkpt lat="43.171115" lon="6.631184"><ele>0</ele></trkpt>
<trkpt lat="43.171089" lon="6.631435"><ele>0</ele></trkpt>
<trkpt lat="43.170941" lon="6.63158"><ele>0</ele></trkpt>
<trkpt lat="43.171024" lon="6.631817"><ele>0</ele></trkpt>
<trkpt lat="43.171162" lon="6.63199"><ele>0</ele></trkpt>
<trkpt lat="43.171347" lon="6.631991"><ele>0</ele></trkpt>
<trkpt lat="43.171524" lon="6.631932"><ele>0</ele></trkpt>
<trkpt lat="43.171708" lon="6.631958"><ele>0</ele></trkpt>
<trkpt lat="43.171877" lon="6.632052"><ele>0</ele></trkpt>
<trkpt lat="43.171999" lon="6.632235"><ele>0</ele></trkpt>
<trkpt lat="43.172176" lon="6.632306"><ele>0</ele></trkpt>
<trkpt lat="43.172232" lon="6.632543"><ele>0</ele></trkpt>
<trkpt lat="43.172344" lon="6.632744"><ele>0</ele></trkpt>
<trkpt lat="43.172421" lon="6.632967"><ele>0</ele></trkpt>
<trkpt lat="43.172508" lon="6.63319"><ele>0</ele></trkpt>
<trkpt lat="43.172493" lon="6.633446"><ele>0</ele></trkpt>
<trkpt lat="43.172544" lon="6.63369"><ele>0</ele></trkpt>
<trkpt lat="43.172601" lon="6.633929"><ele>0</ele></trkpt>
<trkpt lat="43.172639" lon="6.634174"><ele>0</ele></trkpt>
<trkpt lat="43.17268" lon="6.634423"><ele>0</ele></trkpt>
<trkpt lat="43.17271" lon="6.634675"><ele>0</ele></trkpt>
<trkpt lat="43.172738" lon="6.634925"><ele>0</ele></trkpt>
<trkpt lat="43.172754" lon="6.635177"><ele>0</ele></trkpt>
<trkpt lat="43.172755" lon="6.635432"><ele>0</ele></trkpt>
<trkpt lat="43.172738" lon="6.635683"><ele>0</ele></trkpt>
<trkpt lat="43.172711" lon="6.635934"><ele>0</ele></trkpt>
<trkpt lat="43.17267" lon="6.636186"><ele>0</ele></trkpt>
<trkpt lat="43.172643" lon="6.636442"><ele>0</ele></trkpt>
<trkpt lat="43.172626" lon="6.6367"><ele>0</ele></trkpt>
<trkpt lat="43.172661" lon="6.636956"><ele>0</ele></trkpt>
<trkpt lat="43.172588" lon="6.637187"><ele>0</ele></trkpt>
<trkpt lat="43.172506" lon="6.637416"><ele>0</ele></trkpt>
<trkpt lat="43.172474" lon="6.637665"><ele>0</ele></trkpt>
<trkpt lat="43.17243" lon="6.637909"><ele>0</ele></trkpt>
<trkpt lat="43.172492" lon="6.638148"><ele>0</ele></trkpt>
<trkpt lat="43.172545" lon="6.638391"><ele>0</ele></trkpt>
<trkpt lat="43.17263" lon="6.638622"><ele>0</ele></trkpt>
<trkpt lat="43.172713" lon="6.638854"><ele>0</ele></trkpt>
<trkpt lat="43.172729" lon="6.639101"><ele>0</ele></trkpt>
<trkpt lat="43.172868" lon="6.639265"><ele>0</ele></trkpt>
<trkpt lat="43.173054" lon="6.639235"><ele>0</ele></trkpt>
<trkpt lat="43.173221" lon="6.639137"><ele>0</ele></trkpt>
<trkpt lat="43.173399" lon="6.639194"><ele>0</ele></trkpt>
<trkpt lat="43.173574" lon="6.639289"><ele>0</ele></trkpt>
<trkpt lat="43.173748" lon="6.639398"><ele>0</ele></trkpt>
<trkpt lat="43.173911" lon="6.639529"><ele>0</ele></trkpt>
<trkpt lat="43.174084" lon="6.639634"><ele>0</ele></trkpt>
<trkpt lat="43.174244" lon="6.639771"><ele>0</ele></trkpt>
<trkpt lat="43.174426" lon="6.639825"><ele>0</ele></trkpt>
<trkpt lat="43.17461" lon="6.639821"><ele>0</ele></trkpt>
<trkpt lat="43.174794" lon="6.639798"><ele>0</ele></trkpt>
<trkpt lat="43.174977" lon="6.639793"><ele>0</ele></trkpt>
<trkpt lat="43.175153" lon="6.639872"><ele>0</ele></trkpt>
<trkpt lat="43.175342" lon="6.639898"><ele>0</ele></trkpt>
<trkpt lat="43.175522" lon="6.639864"><ele>0</ele></trkpt>
<trkpt lat="43.175594" lon="6.639631"><ele>0</ele></trkpt>
<trkpt lat="43.175704" lon="6.639429"><ele>0</ele></trkpt>
<trkpt lat="43.175829" lon="6.639248"><ele>0</ele></trkpt>
<trkpt lat="43.175965" lon="6.639073"><ele>0</ele></trkpt>
<trkpt lat="43.176037" lon="6.639309"><ele>0</ele></trkpt>
<trkpt lat="43.176089" lon="6.639557"><ele>0</ele></trkpt>
<trkpt lat="43.176175" lon="6.639776"><ele>0</ele></trkpt>
<trkpt lat="43.176201" lon="6.640025"><ele>0</ele></trkpt>
<trkpt lat="43.176173" lon="6.639776"><ele>0</ele></trkpt>
<trkpt lat="43.176097" lon="6.639551"><ele>0</ele></trkpt>
<trkpt lat="43.176056" lon="6.639308"><ele>0</ele></trkpt>
<trkpt lat="43.17607" lon="6.639056"><ele>0</ele></trkpt>
<trkpt lat="43.176144" lon="6.638826"><ele>0</ele></trkpt>
<trkpt lat="43.176223" lon="6.638598"><ele>0</ele></trkpt>
<trkpt lat="43.176291" lon="6.638359"><ele>0</ele></trkpt>
<trkpt lat="43.176357" lon="6.638121"><ele>0</ele></trkpt>
<trkpt lat="43.17641" lon="6.637875"><ele>0</ele></trkpt>
<trkpt lat="43.176429" lon="6.637618"><ele>0</ele></trkpt>
<trkpt lat="43.176479" lon="6.637371"><ele>0</ele></trkpt>
<trkpt lat="43.176535" lon="6.637126"><ele>0</ele></trkpt>
<trkpt lat="43.176602" lon="6.636887"><ele>0</ele></trkpt>
<trkpt lat="43.176683" lon="6.63665"><ele>0</ele></trkpt>
<trkpt lat="43.176774" lon="6.636428"><ele>0</ele></trkpt>
<trkpt lat="43.176875" lon="6.636223"><ele>0</ele></trkpt>
<trkpt lat="43.176989" lon="6.636023"><ele>0</ele></trkpt>
<trkpt lat="43.177107" lon="6.635815"><ele>0</ele></trkpt>
<trkpt lat="43.177196" lon="6.635596"><ele>0</ele></trkpt>
<trkpt lat="43.177271" lon="6.635359"><ele>0</ele></trkpt>
<trkpt lat="43.177361" lon="6.635144"><ele>0</ele></trkpt>
<trkpt lat="43.17748" lon="6.634949"><ele>0</ele></trkpt>
<trkpt lat="43.177622" lon="6.634786"><ele>0</ele></trkpt>
<trkpt lat="43.177785" lon="6.634672"><ele>0</ele></trkpt>
<trkpt lat="43.177968" lon="6.63464"><ele>0</ele></trkpt>
<trkpt lat="43.178129" lon="6.634507"><ele>0</ele></trkpt>
<trkpt lat="43.178269" lon="6.634349"><ele>0</ele></trkpt>
<trkpt lat="43.178385" lon="6.634146"><ele>0</ele></trkpt>
<trkpt lat="43.178507" lon="6.633963"><ele>0</ele></trkpt>
<trkpt lat="43.178683" lon="6.633901"><ele>0</ele></trkpt>
<trkpt lat="43.178826" lon="6.633751"><ele>0</ele></trkpt>
<trkpt lat="43.178966" lon="6.633576"><ele>0</ele></trkpt>
<trkpt lat="43.179099" lon="6.633392"><ele>0</ele></trkpt>
<trkpt lat="43.179238" lon="6.633225"><ele>0</ele></trkpt>
<trkpt lat="43.179393" lon="6.633099"><ele>0</ele></trkpt>
<trkpt lat="43.179539" lon="6.632941"><ele>0</ele></trkpt>
<trkpt lat="43.179692" lon="6.632796"><ele>0</ele></trkpt>
<trkpt lat="43.179855" lon="6.632665"><ele>0</ele></trkpt>
<trkpt lat="43.180028" lon="6.632576"><ele>0</ele></trkpt>
<trkpt lat="43.180191" lon="6.632461"><ele>0</ele></trkpt>
<trkpt lat="43.180339" lon="6.632307"><ele>0</ele></trkpt>
<trkpt lat="43.180495" lon="6.632172"><ele>0</ele></trkpt>
<trkpt lat="43.180648" lon="6.632032"><ele>0</ele></trkpt>
<trkpt lat="43.180751" lon="6.631821"><ele>0</ele></trkpt>
<trkpt lat="43.180853" lon="6.631615"><ele>0</ele></trkpt>
<trkpt lat="43.180945" lon="6.631393"><ele>0</ele></trkpt>
<trkpt lat="43.18103" lon="6.631166"><ele>0</ele></trkpt>
<trkpt lat="43.181118" lon="6.63094"><ele>0</ele></trkpt>
<trkpt lat="43.181218" lon="6.630729"><ele>0</ele></trkpt>
<trkpt lat="43.181319" lon="6.630518"><ele>0</ele></trkpt>
<trkpt lat="43.181398" lon="6.630287"><ele>0</ele></trkpt>
<trkpt lat="43.181487" lon="6.630059"><ele>0</ele></trkpt>
<trkpt lat="43.18161" lon="6.629866"><ele>0</ele></trkpt>
<trkpt lat="43.181765" lon="6.629717"><ele>0</ele></trkpt>
<trkpt lat="43.181933" lon="6.629594"><ele>0</ele></trkpt>
<trkpt lat="43.182123" lon="6.629616"><ele>0</ele></trkpt>
<trkpt lat="43.182273" lon="6.629473"><ele>0</ele></trkpt>
<trkpt lat="43.182375" lon="6.62926"><ele>0</ele></trkpt>
<trkpt lat="43.182551" lon="6.629327"><ele>0</ele></trkpt>
<trkpt lat="43.182733" lon="6.629275"><ele>0</ele></trkpt>
<trkpt lat="43.182915" lon="6.62925"><ele>0</ele></trkpt>
<trkpt lat="43.183085" lon="6.629339"><ele>0</ele></trkpt>
<trkpt lat="43.183265" lon="6.629408"><ele>0</ele></trkpt>
<trkpt lat="43.183447" lon="6.629439"><ele>0</ele></trkpt>
<trkpt lat="43.183635" lon="6.62946"><ele>0</ele></trkpt>
<trkpt lat="43.183821" lon="6.629445"><ele>0</ele></trkpt>
<trkpt lat="43.184004" lon="6.629378"><ele>0</ele></trkpt>
<trkpt lat="43.184185" lon="6.629432"><ele>0</ele></trkpt>
<trkpt lat="43.184367" lon="6.629496"><ele>0</ele></trkpt>
<trkpt lat="43.184549" lon="6.629452"><ele>0</ele></trkpt>
<trkpt lat="43.184723" lon="6.629363"><ele>0</ele></trkpt>
<trkpt lat="43.184906" lon="6.62933"><ele>0</ele></trkpt>
<trkpt lat="43.185086" lon="6.629274"><ele>0</ele></trkpt>
<trkpt lat="43.185266" lon="6.629242"><ele>0</ele></trkpt>
<trkpt lat="43.185433" lon="6.629135"><ele>0</ele></trkpt>
<trkpt lat="43.185609" lon="6.629082"><ele>0</ele></trkpt>
<trkpt lat="43.185794" lon="6.629083"><ele>0</ele></trkpt>
<trkpt lat="43.185973" lon="6.629127"><ele>0</ele></trkpt>
<trkpt lat="43.186126" lon="6.628983"><ele>0</ele></trkpt>
<trkpt lat="43.186274" lon="6.628829"><ele>0</ele></trkpt>
<trkpt lat="43.18644" lon="6.62872"><ele>0</ele></trkpt>
<trkpt lat="43.186622" lon="6.628719"><ele>0</ele></trkpt>
<trkpt lat="43.186796" lon="6.628648"><ele>0</ele></trkpt>
<trkpt lat="43.186937" lon="6.628486"><ele>0</ele></trkpt>
<trkpt lat="43.187097" lon="6.62835"><ele>0</ele></trkpt>
<trkpt lat="43.187279" lon="6.628402"><ele>0</ele></trkpt>
<trkpt lat="43.18742" lon="6.628565"><ele>0</ele></trkpt>
<trkpt lat="43.187601" lon="6.628538"><ele>0</ele></trkpt>
<trkpt lat="43.187786" lon="6.62852"><ele>0</ele></trkpt>
<trkpt lat="43.187962" lon="6.62845"><ele>0</ele></trkpt>
<trkpt lat="43.18814" lon="6.628384"><ele>0</ele></trkpt>
<trkpt lat="43.188307" lon="6.628292"><ele>0</ele></trkpt>
<trkpt lat="43.188461" lon="6.62814"><ele>0</ele></trkpt>
<trkpt lat="43.188605" lon="6.627969"><ele>0</ele></trkpt>
<trkpt lat="43.188748" lon="6.627819"><ele>0</ele></trkpt>
<trkpt lat="43.188897" lon="6.627658"><ele>0</ele></trkpt>
<trkpt lat="43.189061" lon="6.627532"><ele>0</ele></trkpt>
<trkpt lat="43.189215" lon="6.627384"><ele>0</ele></trkpt>
<trkpt lat="43.189362" lon="6.627228"><ele>0</ele></trkpt>
<trkpt lat="43.189548" lon="6.627231"><ele>0</ele></trkpt>
<trkpt lat="43.189725" lon="6.627277"><ele>0</ele></trkpt>
<trkpt lat="43.189896" lon="6.627189"><ele>0</ele></trkpt>
<trkpt lat="43.189803" lon="6.626964"><ele>0</ele></trkpt>
<trkpt lat="43.18979" lon="6.626718"><ele>0</ele></trkpt>
<trkpt lat="43.18988" lon="6.626501"><ele>0</ele></trkpt>
<trkpt lat="43.189938" lon="6.62626"><ele>0</ele></trkpt>
<trkpt lat="43.190035" lon="6.62605"><ele>0</ele></trkpt>
<trkpt lat="43.190102" lon="6.62628"><ele>0</ele></trkpt>
<trkpt lat="43.190271" lon="6.626381"><ele>0</ele></trkpt>
<trkpt lat="43.190452" lon="6.626341"><ele>0</ele></trkpt>
<trkpt lat="43.190639" lon="6.626304"><ele>0</ele></trkpt>
<trkpt lat="43.190808" lon="6.626207"><ele>0</ele></trkpt>
<trkpt lat="43.190958" lon="6.626059"><ele>0</ele></trkpt>
<trkpt lat="43.191097" lon="6.625883"><ele>0</ele></trkpt>
<trkpt lat="43.191226" lon="6.625692"><ele>0</ele></trkpt>
<trkpt lat="43.191367" lon="6.62552"><ele>0</ele></trkpt>
<trkpt lat="43.191489" lon="6.625327"><ele>0</ele></trkpt>
<trkpt lat="43.191613" lon="6.625135"><ele>0</ele></trkpt>
<trkpt lat="43.191755" lon="6.624975"><ele>0</ele></trkpt>
<trkpt lat="43.191939" lon="6.624999"><ele>0</ele></trkpt>
<trkpt lat="43.19211" lon="6.624911"><ele>0</ele></trkpt>
<trkpt lat="43.191978" lon="6.624723"><ele>0</ele></trkpt>
<trkpt lat="43.191919" lon="6.62449"><ele>0</ele></trkpt>
<trkpt lat="43.191808" lon="6.624279"><ele>0</ele></trkpt>
<trkpt lat="43.19166" lon="6.624139"><ele>0</ele></trkpt>
<trkpt lat="43.191487" lon="6.62406"><ele>0</ele></trkpt>
<trkpt lat="43.191305" lon="6.624103"><ele>0</ele></trkpt>
<trkpt lat="43.191149" lon="6.624229"><ele>0</ele></trkpt>
<trkpt lat="43.190971" lon="6.624313"><ele>0</ele></trkpt>
<trkpt lat="43.190788" lon="6.624343"><ele>0</ele></trkpt>
<trkpt lat="43.190608" lon="6.624308"><ele>0</ele></trkpt>
<trkpt lat="43.190431" lon="6.624229"><ele>0</ele></trkpt>
<trkpt lat="43.190265" lon="6.62413"><ele>0</ele></trkpt>
<trkpt lat="43.190095" lon="6.624034"><ele>0</ele></trkpt>
<trkpt lat="43.189936" lon="6.623907"><ele>0</ele></trkpt>
<trkpt lat="43.189781" lon="6.623778"><ele>0</ele></trkpt>
<trkpt lat="43.189791" lon="6.623529"><ele>0</ele></trkpt>
<trkpt lat="43.189901" lon="6.623328"><ele>0</ele></trkpt>
<trkpt lat="43.19001" lon="6.623112"><ele>0</ele></trkpt>
<trkpt lat="43.190123" lon="6.622915"><ele>0</ele></trkpt>
<trkpt lat="43.190261" lon="6.62275"><ele>0</ele></trkpt>
<trkpt lat="43.190404" lon="6.622597"><ele>0</ele></trkpt>
<trkpt lat="43.190521" lon="6.62241"><ele>0</ele></trkpt>
<trkpt lat="43.190567" lon="6.622165"><ele>0</ele></trkpt>
<trkpt lat="43.190561" lon="6.621912"><ele>0</ele></trkpt>
<trkpt lat="43.190635" lon="6.621675"><ele>0</ele></trkpt>
<trkpt lat="43.190749" lon="6.621469"><ele>0</ele></trkpt>
<trkpt lat="43.190883" lon="6.621285"><ele>0</ele></trkpt>
<trkpt lat="43.190994" lon="6.621076"><ele>0</ele></trkpt>
<trkpt lat="43.191125" lon="6.620891"><ele>0</ele></trkpt>
<trkpt lat="43.191235" lon="6.620693"><ele>0</ele></trkpt>
<trkpt lat="43.191344" lon="6.620478"><ele>0</ele></trkpt>
<trkpt lat="43.191457" lon="6.620275"><ele>0</ele></trkpt>
<trkpt lat="43.191594" lon="6.620099"><ele>0</ele></trkpt>
<trkpt lat="43.191573" lon="6.619853"><ele>0</ele></trkpt>
<trkpt lat="43.191584" lon="6.6196"><ele>0</ele></trkpt>
<trkpt lat="43.191612" lon="6.619353"><ele>0</ele></trkpt>
<trkpt lat="43.191565" lon="6.619101"><ele>0</ele></trkpt>
<trkpt lat="43.191444" lon="6.618913"><ele>0</ele></trkpt>
<trkpt lat="43.191358" lon="6.618688"><ele>0</ele></trkpt>
<trkpt lat="43.191332" lon="6.618444"><ele>0</ele></trkpt>
<trkpt lat="43.191336" lon="6.618192"><ele>0</ele></trkpt>
<trkpt lat="43.191392" lon="6.617941"><ele>0</ele></trkpt>
<trkpt lat="43.191379" lon="6.617694"><ele>0</ele></trkpt>
<trkpt lat="43.191372" lon="6.617439"><ele>0</ele></trkpt>
<trkpt lat="43.191405" lon="6.617181"><ele>0</ele></trkpt>
<trkpt lat="43.191247" lon="6.617052"><ele>0</ele></trkpt>
<trkpt lat="43.191066" lon="6.617084"><ele>0</ele></trkpt>
<trkpt lat="43.190885" lon="6.617096"><ele>0</ele></trkpt>
<trkpt lat="43.190698" lon="6.617108"><ele>0</ele></trkpt>
<trkpt lat="43.190511" lon="6.617154"><ele>0</ele></trkpt>
<trkpt lat="43.190321" lon="6.617177"><ele>0</ele></trkpt>
<trkpt lat="43.190147" lon="6.617109"><ele>0</ele></trkpt>
<trkpt lat="43.189984" lon="6.616999"><ele>0</ele></trkpt>
<trkpt lat="43.189818" lon="6.616875"><ele>0</ele></trkpt>
<trkpt lat="43.189666" lon="6.616734"><ele>0</ele></trkpt>
<trkpt lat="43.189522" lon="6.616577"><ele>0</ele></trkpt>
<trkpt lat="43.189386" lon="6.616407"><ele>0</ele></trkpt>
<trkpt lat="43.189273" lon="6.61621"><ele>0</ele></trkpt>
<trkpt lat="43.189164" lon="6.616"><ele>0</ele></trkpt>
<trkpt lat="43.189088" lon="6.615766"><ele>0</ele></trkpt>
<trkpt lat="43.189013" lon="6.615541"><ele>0</ele></trkpt>
<trkpt lat="43.188907" lon="6.615337"><ele>0</ele></trkpt>
<trkpt lat="43.188799" lon="6.615129"><ele>0</ele></trkpt>
<trkpt lat="43.188706" lon="6.61491"><ele>0</ele></trkpt>
<trkpt lat="43.188526" lon="6.614989"><ele>0</ele></trkpt>
<trkpt lat="43.188335" lon="6.614991"><ele>0</ele></trkpt>
<trkpt lat="43.188154" lon="6.61501"><ele>0</ele></trkpt>
<trkpt lat="43.187965" lon="6.615045"><ele>0</ele></trkpt>
<trkpt lat="43.187781" lon="6.615078"><ele>0</ele></trkpt>
<trkpt lat="43.187599" lon="6.615107"><ele>0</ele></trkpt>
<trkpt lat="43.187409" lon="6.615113"><ele>0</ele></trkpt>
<trkpt lat="43.187231" lon="6.615169"><ele>0</ele></trkpt>
<trkpt lat="43.187048" lon="6.615241"><ele>0</ele></trkpt>
<trkpt lat="43.186861" lon="6.61531"><ele>0</ele></trkpt>
<trkpt lat="43.186687" lon="6.615376"><ele>0</ele></trkpt>
<trkpt lat="43.18651" lon="6.615451"><ele>0</ele></trkpt>
<trkpt lat="43.186335" lon="6.61554"><ele>0</ele></trkpt>
<trkpt lat="43.186151" lon="6.615566"><ele>0</ele></trkpt>
<trkpt lat="43.185969" lon="6.615498"><ele>0</ele></trkpt>
<trkpt lat="43.18578" lon="6.615466"><ele>0</ele></trkpt>
<trkpt lat="43.185602" lon="6.61552"><ele>0</ele></trkpt>
<trkpt lat="43.185424" lon="6.615575"><ele>0</ele></trkpt>
<trkpt lat="43.185243" lon="6.615562"><ele>0</ele></trkpt>
<trkpt lat="43.185061" lon="6.615588"><ele>0</ele></trkpt>
<trkpt lat="43.184878" lon="6.615583"><ele>0</ele></trkpt>
<trkpt lat="43.184693" lon="6.615594"><ele>0</ele></trkpt>
<trkpt lat="43.184506" lon="6.615608"><ele>0</ele></trkpt>
<trkpt lat="43.184322" lon="6.615614"><ele>0</ele></trkpt>
<trkpt lat="43.18414" lon="6.615632"><ele>0</ele></trkpt>
<trkpt lat="43.183956" lon="6.615607"><ele>0</ele></trkpt>
<trkpt lat="43.183797" lon="6.615491"><ele>0</ele></trkpt>
<trkpt lat="43.183611" lon="6.615474"><ele>0</ele></trkpt>
<trkpt lat="43.183425" lon="6.615446"><ele>0</ele></trkpt>
<trkpt lat="43.183361" lon="6.615215"><ele>0</ele></trkpt>
<trkpt lat="43.183454" lon="6.615"><ele>0</ele></trkpt>
<trkpt lat="43.183336" lon="6.614801"><ele>0</ele></trkpt>
<trkpt lat="43.183217" lon="6.614609"><ele>0</ele></trkpt>
<trkpt lat="43.18304" lon="6.614536"><ele>0</ele></trkpt>
<trkpt lat="43.182873" lon="6.61442"><ele>0</ele></trkpt>
<trkpt lat="43.182725" lon="6.614262"><ele>0</ele></trkpt>
<trkpt lat="43.182668" lon="6.614015"><ele>0</ele></trkpt>
<trkpt lat="43.182649" lon="6.613768"><ele>0</ele></trkpt>
<trkpt lat="43.18252" lon="6.613595"><ele>0</ele></trkpt>
<trkpt lat="43.182703" lon="6.613611"><ele>0</ele></trkpt>
<trkpt lat="43.182863" lon="6.613757"><ele>0</ele></trkpt>
<trkpt lat="43.183015" lon="6.613615"><ele>0</ele></trkpt>
<trkpt lat="43.183005" lon="6.613355"><ele>0</ele></trkpt>
<trkpt lat="43.182899" lon="6.613152"><ele>0</ele></trkpt>
<trkpt lat="43.18276" lon="6.61299"><ele>0</ele></trkpt>
<trkpt lat="43.182611" lon="6.612838"><ele>0</ele></trkpt>
<trkpt lat="43.182496" lon="6.612647"><ele>0</ele></trkpt>
<trkpt lat="43.182674" lon="6.612599"><ele>0</ele></trkpt>
<trkpt lat="43.182845" lon="6.612517"><ele>0</ele></trkpt>
<trkpt lat="43.182942" lon="6.612306"><ele>0</ele></trkpt>
<trkpt lat="43.183064" lon="6.612104"><ele>0</ele></trkpt>
<trkpt lat="43.18322" lon="6.611975"><ele>0</ele></trkpt>
<trkpt lat="43.183378" lon="6.611849"><ele>0</ele></trkpt>
<trkpt lat="43.183473" lon="6.611637"><ele>0</ele></trkpt>
<trkpt lat="43.183546" lon="6.611396"><ele>0</ele></trkpt>
<trkpt lat="43.183612" lon="6.611152"><ele>0</ele></trkpt>
<trkpt lat="43.183679" lon="6.610909"><ele>0</ele></trkpt>
<trkpt lat="43.183728" lon="6.610663"><ele>0</ele></trkpt>
<trkpt lat="43.18377" lon="6.610417"><ele>0</ele></trkpt>
<trkpt lat="43.1838" lon="6.610169"><ele>0</ele></trkpt>
<trkpt lat="43.18379" lon="6.609909"><ele>0</ele></trkpt>
<trkpt lat="43.183634" lon="6.609762"><ele>0</ele></trkpt>
<trkpt lat="43.18348" lon="6.609621"><ele>0</ele></trkpt>
<trkpt lat="43.183384" lon="6.609402"><ele>0</ele></trkpt>
<trkpt lat="43.183373" lon="6.609153"><ele>0</ele></trkpt>
<trkpt lat="43.183424" lon="6.60891"><ele>0</ele></trkpt>
<trkpt lat="43.183489" lon="6.608679"><ele>0</ele></trkpt>
<trkpt lat="43.183474" lon="6.608422"><ele>0</ele></trkpt>
<trkpt lat="43.183467" lon="6.608172"><ele>0</ele></trkpt>
<trkpt lat="43.183481" lon="6.607916"><ele>0</ele></trkpt>
<trkpt lat="43.183457" lon="6.607664"><ele>0</ele></trkpt>
<trkpt lat="43.183448" lon="6.607417"><ele>0</ele></trkpt>
<trkpt lat="43.183453" lon="6.607168"><ele>0</ele></trkpt>
<trkpt lat="43.18346" lon="6.606917"><ele>0</ele></trkpt>
<trkpt lat="43.183508" lon="6.606671"><ele>0</ele></trkpt>
<trkpt lat="43.183602" lon="6.606457"><ele>0</ele></trkpt>
<trkpt lat="43.183758" lon="6.60631"><ele>0</ele></trkpt>
<trkpt lat="43.183922" lon="6.606184"><ele>0</ele></trkpt>
<trkpt lat="43.184092" lon="6.60609"><ele>0</ele></trkpt>
<trkpt lat="43.184251" lon="6.605971"><ele>0</ele></trkpt>
<trkpt lat="43.184143" lon="6.605757"><ele>0</ele></trkpt>
<trkpt lat="43.183996" lon="6.605603"><ele>0</ele></trkpt>
<trkpt lat="43.183845" lon="6.605451"><ele>0</ele></trkpt>
<trkpt lat="43.183675" lon="6.605354"><ele>0</ele></trkpt>
<trkpt lat="43.183493" lon="6.605289"><ele>0</ele></trkpt>
<trkpt lat="43.183315" lon="6.605217"><ele>0</ele></trkpt>
<trkpt lat="43.183145" lon="6.605106"><ele>0</ele></trkpt>
<trkpt lat="43.183078" lon="6.604867"><ele>0</ele></trkpt>
<trkpt lat="43.183092" lon="6.604615"><ele>0</ele></trkpt>
<trkpt lat="43.183196" lon="6.604402"><ele>0</ele></trkpt>
<trkpt lat="43.183257" lon="6.604162"><ele>0</ele></trkpt>
<trkpt lat="43.183413" lon="6.604035"><ele>0</ele></trkpt>
<trkpt lat="43.183591" lon="6.604093"><ele>0</ele></trkpt>
<trkpt lat="43.183761" lon="6.604196"><ele>0</ele></trkpt>
<trkpt lat="43.183887" lon="6.604377"><ele>0</ele></trkpt>
<trkpt lat="43.184036" lon="6.604535"><ele>0</ele></trkpt>
<trkpt lat="43.184226" lon="6.604568"><ele>0</ele></trkpt>
<trkpt lat="43.184392" lon="6.604457"><ele>0</ele></trkpt>
<trkpt lat="43.184493" lon="6.604237"><ele>0</ele></trkpt>
<trkpt lat="43.184564" lon="6.604003"><ele>0</ele></trkpt>
<trkpt lat="43.184556" lon="6.60375"><ele>0</ele></trkpt>
<trkpt lat="43.184467" lon="6.603532"><ele>0</ele></trkpt>
<trkpt lat="43.184338" lon="6.60335"><ele>0</ele></trkpt>
<trkpt lat="43.184198" lon="6.603176"><ele>0</ele></trkpt>
<trkpt lat="43.184101" lon="6.602952"><ele>0</ele></trkpt>
<trkpt lat="43.18407" lon="6.602699"><ele>0</ele></trkpt>
<trkpt lat="43.184003" lon="6.602456"><ele>0</ele></trkpt>
<trkpt lat="43.183928" lon="6.602231"><ele>0</ele></trkpt>
<trkpt lat="43.183829" lon="6.602005"><ele>0</ele></trkpt>
<trkpt lat="43.18369" lon="6.601836"><ele>0</ele></trkpt>
<trkpt lat="43.183547" lon="6.601665"><ele>0</ele></trkpt>
<trkpt lat="43.183516" lon="6.601417"><ele>0</ele></trkpt>
<trkpt lat="43.183584" lon="6.601178"><ele>0</ele></trkpt>
<trkpt lat="43.183622" lon="6.600926"><ele>0</ele></trkpt>
<trkpt lat="43.183725" lon="6.600711"><ele>0</ele></trkpt>
<trkpt lat="43.183805" lon="6.600483"><ele>0</ele></trkpt>
<trkpt lat="43.183866" lon="6.600236"><ele>0</ele></trkpt>
<trkpt lat="43.183942" lon="6.599999"><ele>0</ele></trkpt>
<trkpt lat="43.184002" lon="6.599763"><ele>0</ele></trkpt>
<trkpt lat="43.184065" lon="6.599516"><ele>0</ele></trkpt>
<trkpt lat="43.184138" lon="6.599285"><ele>0</ele></trkpt>
<trkpt lat="43.184192" lon="6.599036"><ele>0</ele></trkpt>
<trkpt lat="43.184216" lon="6.598784"><ele>0</ele></trkpt>
<trkpt lat="43.184229" lon="6.598534"><ele>0</ele></trkpt>
<trkpt lat="43.184385" lon="6.598658"><ele>0</ele></trkpt>
<trkpt lat="43.184568" lon="6.598533"><ele>0</ele></trkpt>
<trkpt lat="43.184384" lon="6.598537"><ele>0</ele></trkpt>
<trkpt lat="43.184564" lon="6.598493"><ele>0</ele></trkpt>
<trkpt lat="43.184745" lon="6.598517"><ele>0</ele></trkpt>
<trkpt lat="43.184926" lon="6.598474"><ele>0</ele></trkpt>
<trkpt lat="43.1851" lon="6.598552"><ele>0</ele></trkpt>
<trkpt lat="43.185261" lon="6.598691"><ele>0</ele></trkpt>
<trkpt lat="43.185423" lon="6.598816"><ele>0</ele></trkpt>
<trkpt lat="43.185541" lon="6.599019"><ele>0</ele></trkpt>
<trkpt lat="43.185724" lon="6.599053"><ele>0</ele></trkpt>
<trkpt lat="43.185843" lon="6.598868"><ele>0</ele></trkpt>
<trkpt lat="43.185752" lon="6.599085"><ele>0</ele></trkpt>
</trkseg></trk>
</gpx>