<?xml version="1.0" encoding="UTF-8"?>
<gpx version="1.1" creator="Marando" xmlns="http://www.topografix.com/GPX/1/1">
<wpt lat="43.47040950101828" lon="5.782240011550664"><ele>0</ele><name>Départ/Arrivee</name></wpt>
<trk><name>mont_aurelien</name><trkseg>
<trkpt lat="43.470027" lon="5.782777"><ele>0</ele></trkpt>
<trkpt lat="43.469885" lon="5.782725"><ele>0</ele></trkpt>
<trkpt lat="43.469744" lon="5.782776"><ele>0</ele></trkpt>
<trkpt lat="43.469654" lon="5.782959"><ele>0</ele></trkpt>
<trkpt lat="43.469614" lon="5.783143"><ele>0</ele></trkpt>
<trkpt lat="43.469543" lon="5.783305"><ele>0</ele></trkpt>
<trkpt lat="43.469479" lon="5.783479"><ele>0</ele></trkpt>
<trkpt lat="43.469469" lon="5.783669"><ele>0</ele></trkpt>
<trkpt lat="43.469443" lon="5.78386"><ele>0</ele></trkpt>
<trkpt lat="43.469406" lon="5.784053"><ele>0</ele></trkpt>
<trkpt lat="43.469306" lon="5.784193"><ele>0</ele></trkpt>
<trkpt lat="43.46923" lon="5.784351"><ele>0</ele></trkpt>
<trkpt lat="43.469149" lon="5.784513"><ele>0</ele></trkpt>
<trkpt lat="43.469062" lon="5.784655"><ele>0</ele></trkpt>
<trkpt lat="43.468994" lon="5.784819"><ele>0</ele></trkpt>
<trkpt lat="43.468893" lon="5.784959999999999"><ele>0</ele></trkpt>
<trkpt lat="43.468844" lon="5.785140999999999"><ele>0</ele></trkpt>
<trkpt lat="43.468876" lon="5.785323000000001"><ele>0</ele></trkpt>
<trkpt lat="43.468947" lon="5.785491"><ele>0</ele></trkpt>
<trkpt lat="43.468807" lon="5.785433"><ele>0</ele></trkpt>
<trkpt lat="43.468673" lon="5.785355"><ele>0</ele></trkpt>
<trkpt lat="43.468537" lon="5.785290000000001"><ele>0</ele></trkpt>
<trkpt lat="43.468406" lon="5.785231"><ele>0</ele></trkpt>
<trkpt lat="43.468263" lon="5.785185999999999"><ele>0</ele></trkpt>
<trkpt lat="43.468134" lon="5.785114"><ele>0</ele></trkpt>
<trkpt lat="43.467997" lon="5.785117"><ele>0</ele></trkpt>
<trkpt lat="43.467854" lon="5.785"><ele>0</ele></trkpt>
<trkpt lat="43.467728" lon="5.784919"><ele>0</ele></trkpt>
<trkpt lat="43.467613" lon="5.784814"><ele>0</ele></trkpt>
<trkpt lat="43.467521" lon="5.784674999999999"><ele>0</ele></trkpt>
<trkpt lat="43.467443" lon="5.784502"><ele>0</ele></trkpt>
<trkpt lat="43.467352" lon="5.784356000000001"><ele>0</ele></trkpt>
<trkpt lat="43.467267" lon="5.784211"><ele>0</ele></trkpt>
<trkpt lat="43.467174" lon="5.784055"><ele>0</ele></trkpt>
<trkpt lat="43.46708" lon="5.783912000000001"><ele>0</ele></trkpt>
<trkpt lat="43.466987" lon="5.783761"><ele>0</ele></trkpt>
<trkpt lat="43.466907" lon="5.7836"><ele>0</ele></trkpt>
<trkpt lat="43.466826" lon="5.783436"><ele>0</ele></trkpt>
<trkpt lat="43.466766" lon="5.783262"><ele>0</ele></trkpt>
<trkpt lat="43.466771" lon="5.783074"><ele>0</ele></trkpt>
<trkpt lat="43.46678" lon="5.782881"><ele>0</ele></trkpt>
<trkpt lat="43.466762" lon="5.782691"><ele>0</ele></trkpt>
<trkpt lat="43.466717" lon="5.782508"><ele>0</ele></trkpt>
<trkpt lat="43.466598" lon="5.782403"><ele>0</ele></trkpt>
<trkpt lat="43.466481" lon="5.782305"><ele>0</ele></trkpt>
<trkpt lat="43.46634" lon="5.78229"><ele>0</ele></trkpt>
<trkpt lat="43.466236" lon="5.78241"><ele>0</ele></trkpt>
<trkpt lat="43.466164" lon="5.782567"><ele>0</ele></trkpt>
<trkpt lat="43.46608" lon="5.782717000000001"><ele>0</ele></trkpt>
<trkpt lat="43.466033" lon="5.782905"><ele>0</ele></trkpt>
<trkpt lat="43.465982" lon="5.78309"><ele>0</ele></trkpt>
<trkpt lat="43.465921" lon="5.783258"><ele>0</ele></trkpt>
<trkpt lat="43.465874" lon="5.783442"><ele>0</ele></trkpt>
<trkpt lat="43.465753" lon="5.783533"><ele>0</ele></trkpt>
<trkpt lat="43.465618" lon="5.783547"><ele>0</ele></trkpt>
<trkpt lat="43.465479" lon="5.783563"><ele>0</ele></trkpt>
<trkpt lat="43.465339" lon="5.783582999999999"><ele>0</ele></trkpt>
<trkpt lat="43.465202" lon="5.783633"><ele>0</ele></trkpt>
<trkpt lat="43.465064" lon="5.783699"><ele>0</ele></trkpt>
<trkpt lat="43.464932" lon="5.783756"><ele>0</ele></trkpt>
<trkpt lat="43.464802" lon="5.783809"><ele>0</ele></trkpt>
<trkpt lat="43.46467" lon="5.783876000000001"><ele>0</ele></trkpt>
<trkpt lat="43.464539" lon="5.78394"><ele>0</ele></trkpt>
<trkpt lat="43.464407" lon="5.783992"><ele>0</ele></trkpt>
<trkpt lat="43.464264" lon="5.783997"><ele>0</ele></trkpt>
<trkpt lat="43.464133" lon="5.783936999999999"><ele>0</ele></trkpt>
<trkpt lat="43.463999" lon="5.783867000000001"><ele>0</ele></trkpt>
<trkpt lat="43.463863" lon="5.783836"><ele>0</ele></trkpt>
<trkpt lat="43.463715" lon="5.78383"><ele>0</ele></trkpt>
<trkpt lat="43.463587" lon="5.78389"><ele>0</ele></trkpt>
<trkpt lat="43.463479" lon="5.784002999999999"><ele>0</ele></trkpt>
<trkpt lat="43.463421" lon="5.784185999999999"><ele>0</ele></trkpt>
<trkpt lat="43.463315" lon="5.784327"><ele>0</ele></trkpt>
<trkpt lat="43.46318" lon="5.784374"><ele>0</ele></trkpt>
<trkpt lat="43.463043" lon="5.784427"><ele>0</ele></trkpt>
<trkpt lat="43.462949" lon="5.784570000000001"><ele>0</ele></trkpt>
<trkpt lat="43.462851" lon="5.784715"><ele>0</ele></trkpt>
<trkpt lat="43.462727" lon="5.784817"><ele>0</ele></trkpt>
<trkpt lat="43.462597" lon="5.784871"><ele>0</ele></trkpt>
<trkpt lat="43.462428" lon="5.784890000000001"><ele>0</ele></trkpt>
<trkpt lat="43.462291" lon="5.784899"><ele>0</ele></trkpt>
<trkpt lat="43.462143" lon="5.784888"><ele>0</ele></trkpt>
<trkpt lat="43.462004" lon="5.784896"><ele>0</ele></trkpt>
<trkpt lat="43.461867" lon="5.784875"><ele>0</ele></trkpt>
<trkpt lat="43.461738" lon="5.78494"><ele>0</ele></trkpt>
<trkpt lat="43.461609" lon="5.785009"><ele>0</ele></trkpt>
<trkpt lat="43.461487" lon="5.785095000000001"><ele>0</ele></trkpt>
<trkpt lat="43.461349" lon="5.785089"><ele>0</ele></trkpt>
<trkpt lat="43.461184" lon="5.785077"><ele>0</ele></trkpt>
<trkpt lat="43.461093" lon="5.785214"><ele>0</ele></trkpt>
<trkpt lat="43.460998" lon="5.785347999999999"><ele>0</ele></trkpt>
<trkpt lat="43.460885" lon="5.785485"><ele>0</ele></trkpt>
<trkpt lat="43.460789" lon="5.785629000000001"><ele>0</ele></trkpt>
<trkpt lat="43.460708" lon="5.785785"><ele>0</ele></trkpt>
<trkpt lat="43.460664" lon="5.785962999999999"><ele>0</ele></trkpt>
<trkpt lat="43.460574" lon="5.786123"><ele>0</ele></trkpt>
<trkpt lat="43.460451" lon="5.786235999999999"><ele>0</ele></trkpt>
<trkpt lat="43.460342" lon="5.786345"><ele>0</ele></trkpt>
<trkpt lat="43.460214" lon="5.786423"><ele>0</ele></trkpt>
<trkpt lat="43.460079" lon="5.786456"><ele>0</ele></trkpt>
<trkpt lat="43.459942" lon="5.786506999999999"><ele>0</ele></trkpt>
<trkpt lat="43.45982" lon="5.786616"><ele>0</ele></trkpt>
<trkpt lat="43.459699" lon="5.786712000000001"><ele>0</ele></trkpt>
<trkpt lat="43.459568" lon="5.786776"><ele>0</ele></trkpt>
<trkpt lat="43.459435" lon="5.78685"><ele>0</ele></trkpt>
<trkpt lat="43.459343" lon="5.787018"><ele>0</ele></trkpt>
<trkpt lat="43.459333" lon="5.787208"><ele>0</ele></trkpt>
<trkpt lat="43.459308" lon="5.787402"><ele>0</ele></trkpt>
<trkpt lat="43.459272" lon="5.787586"><ele>0</ele></trkpt>
<trkpt lat="43.459215" lon="5.787765"><ele>0</ele></trkpt>
<trkpt lat="43.459127" lon="5.787912"><ele>0</ele></trkpt>
<trkpt lat="43.458987" lon="5.787969"><ele>0</ele></trkpt>
<trkpt lat="43.458844" lon="5.787967"><ele>0</ele></trkpt>
<trkpt lat="43.45871" lon="5.788"><ele>0</ele></trkpt>
<trkpt lat="43.458569" lon="5.788031000000001"><ele>0</ele></trkpt>
<trkpt lat="43.458425" lon="5.787997000000001"><ele>0</ele></trkpt>
<trkpt lat="43.458317" lon="5.787869"><ele>0</ele></trkpt>
<trkpt lat="43.458295" lon="5.787676"><ele>0</ele></trkpt>
<trkpt lat="43.458223" lon="5.787512"><ele>0</ele></trkpt>
<trkpt lat="43.458085" lon="5.787444"><ele>0</ele></trkpt>
<trkpt lat="43.457943" lon="5.787435"><ele>0</ele></trkpt>
<trkpt lat="43.457801" lon="5.787406000000001"><ele>0</ele></trkpt>
<trkpt lat="43.457658" lon="5.787402"><ele>0</ele></trkpt>
<trkpt lat="43.45752" lon="5.787399"><ele>0</ele></trkpt>
<trkpt lat="43.457385" lon="5.787444"><ele>0</ele></trkpt>
<trkpt lat="43.457255" lon="5.787511"><ele>0</ele></trkpt>
<trkpt lat="43.457118" lon="5.787499999999999"><ele>0</ele></trkpt>
<trkpt lat="43.456997" lon="5.787397"><ele>0</ele></trkpt>
<trkpt lat="43.456875" lon="5.787298"><ele>0</ele></trkpt>
<trkpt lat="43.456732" lon="5.787313000000001"><ele>0</ele></trkpt>
<trkpt lat="43.456596" lon="5.787271"><ele>0</ele></trkpt>
<trkpt lat="43.456462" lon="5.787245000000001"><ele>0</ele></trkpt>
<trkpt lat="43.456332" lon="5.787154000000001"><ele>0</ele></trkpt>
<trkpt lat="43.456197" lon="5.787107"><ele>0</ele></trkpt>
<trkpt lat="43.456064" lon="5.78707"><ele>0</ele></trkpt>
<trkpt lat="43.455918" lon="5.787071"><ele>0</ele></trkpt>
<trkpt lat="43.455778" lon="5.787064000000001"><ele>0</ele></trkpt>
<trkpt lat="43.455639" lon="5.787054999999999"><ele>0</ele></trkpt>
<trkpt lat="43.455503" lon="5.787024"><ele>0</ele></trkpt>
<trkpt lat="43.455381" lon="5.786940999999999"><ele>0</ele></trkpt>
<trkpt lat="43.455297" lon="5.786793"><ele>0</ele></trkpt>
<trkpt lat="43.455223" lon="5.786632999999999"><ele>0</ele></trkpt>
<trkpt lat="43.455161" lon="5.786467"><ele>0</ele></trkpt>
<trkpt lat="43.455022" lon="5.786446"><ele>0</ele></trkpt>
<trkpt lat="43.454898" lon="5.786553000000001"><ele>0</ele></trkpt>
<trkpt lat="43.454788" lon="5.786667"><ele>0</ele></trkpt>
<trkpt lat="43.454766" lon="5.786475"><ele>0</ele></trkpt>
<trkpt lat="43.454713" lon="5.786286"><ele>0</ele></trkpt>
<trkpt lat="43.454645" lon="5.786106"><ele>0</ele></trkpt>
<trkpt lat="43.454506" lon="5.786125"><ele>0</ele></trkpt>
<trkpt lat="43.454377" lon="5.786071"><ele>0</ele></trkpt>
<trkpt lat="43.454238" lon="5.786111"><ele>0</ele></trkpt>
<trkpt lat="43.454113" lon="5.786182"><ele>0</ele></trkpt>
<trkpt lat="43.454004" lon="5.786317"><ele>0</ele></trkpt>
<trkpt lat="43.454132" lon="5.786242"><ele>0</ele></trkpt>
<trkpt lat="43.454268" lon="5.78622"><ele>0</ele></trkpt>
<trkpt lat="43.454405" lon="5.786145999999999"><ele>0</ele></trkpt>
<trkpt lat="43.454533" lon="5.786223999999999"><ele>0</ele></trkpt>
<trkpt lat="43.454657" lon="5.786144"><ele>0</ele></trkpt>
<trkpt lat="43.454767" lon="5.786026"><ele>0</ele></trkpt>
<trkpt lat="43.454875" lon="5.785901"><ele>0</ele></trkpt>
<trkpt lat="43.454853" lon="5.785704"><ele>0</ele></trkpt>
<trkpt lat="43.454878" lon="5.785505"><ele>0</ele></trkpt>
<trkpt lat="43.454762" lon="5.785374"><ele>0</ele></trkpt>
<trkpt lat="43.454713" lon="5.785185000000001"><ele>0</ele></trkpt>
<trkpt lat="43.454679" lon="5.78499"><ele>0</ele></trkpt>
<trkpt lat="43.454628" lon="5.784803"><ele>0</ele></trkpt>
<trkpt lat="43.454575" lon="5.784618999999999"><ele>0</ele></trkpt>
<trkpt lat="43.454499" lon="5.78446"><ele>0</ele></trkpt>
<trkpt lat="43.454443" lon="5.78428"><ele>0</ele></trkpt>
<trkpt lat="43.454377" lon="5.784111"><ele>0</ele></trkpt>
<trkpt lat="43.454373" lon="5.783923"><ele>0</ele></trkpt>
<trkpt lat="43.454326" lon="5.783749"><ele>0</ele></trkpt>
<trkpt lat="43.454382" lon="5.783572999999999"><ele>0</ele></trkpt>
<trkpt lat="43.454454" lon="5.783408"><ele>0</ele></trkpt>
<trkpt lat="43.454402" lon="5.783230999999999"><ele>0</ele></trkpt>
<trkpt lat="43.454347" lon="5.783026999999999"><ele>0</ele></trkpt>
<trkpt lat="43.454413" lon="5.782848"><ele>0</ele></trkpt>
<trkpt lat="43.45441" lon="5.782662"><ele>0</ele></trkpt>
<trkpt lat="43.454431" lon="5.782471"><ele>0</ele></trkpt>
<trkpt lat="43.454497" lon="5.782308"><ele>0</ele></trkpt>
<trkpt lat="43.454472" lon="5.7821"><ele>0</ele></trkpt>
<trkpt lat="43.454598" lon="5.782018"><ele>0</ele></trkpt>
<trkpt lat="43.45461" lon="5.781822"><ele>0</ele></trkpt>
<trkpt lat="43.454514" lon="5.781686"><ele>0</ele></trkpt>
<trkpt lat="43.454509" lon="5.781497"><ele>0</ele></trkpt>
<trkpt lat="43.454596" lon="5.781321"><ele>0</ele></trkpt>
<trkpt lat="43.45459" lon="5.781102999999999"><ele>0</ele></trkpt>
<trkpt lat="43.454537" lon="5.78093"><ele>0</ele></trkpt>
<trkpt lat="43.454419" lon="5.780817000000001"><ele>0</ele></trkpt>
<trkpt lat="43.454373" lon="5.780628"><ele>0</ele></trkpt>
<trkpt lat="43.454244" lon="5.780555000000001"><ele>0</ele></trkpt>
<trkpt lat="43.454121" lon="5.780475999999999"><ele>0</ele></trkpt>
<trkpt lat="43.453985" lon="5.780501"><ele>0</ele></trkpt>
<trkpt lat="43.453909" lon="5.780344"><ele>0</ele></trkpt>
<trkpt lat="43.453852" lon="5.780172"><ele>0</ele></trkpt>
<trkpt lat="43.453862" lon="5.779946"><ele>0</ele></trkpt>
<trkpt lat="43.453739" lon="5.780026"><ele>0</ele></trkpt>
<trkpt lat="43.453611" lon="5.780178000000001"><ele>0</ele></trkpt>
<trkpt lat="43.453478" lon="5.780145999999999"><ele>0</ele></trkpt>
<trkpt lat="43.453507" lon="5.780349999999999"><ele>0</ele></trkpt>
<trkpt lat="43.453528" lon="5.78054"><ele>0</ele></trkpt>
<trkpt lat="43.45357" lon="5.780719"><ele>0</ele></trkpt>
<trkpt lat="43.453626" lon="5.780895999999999"><ele>0</ele></trkpt>
<trkpt lat="43.45359" lon="5.781082"><ele>0</ele></trkpt>
<trkpt lat="43.453527" lon="5.781255"><ele>0</ele></trkpt>
<trkpt lat="43.453459" lon="5.781423"><ele>0</ele></trkpt>
<trkpt lat="43.453356" lon="5.781551"><ele>0</ele></trkpt>
<trkpt lat="43.45323" lon="5.781655"><ele>0</ele></trkpt>
<trkpt lat="43.453116" lon="5.781766"><ele>0</ele></trkpt>
<trkpt lat="43.452963" lon="5.781759"><ele>0</ele></trkpt>
<trkpt lat="43.452806" lon="5.781748000000001"><ele>0</ele></trkpt>
<trkpt lat="43.452665" lon="5.781774"><ele>0</ele></trkpt>
<trkpt lat="43.452527" lon="5.781812"><ele>0</ele></trkpt>
<trkpt lat="43.452391" lon="5.781859"><ele>0</ele></trkpt>
<trkpt lat="43.452364" lon="5.782053"><ele>0</ele></trkpt>
<trkpt lat="43.452415" lon="5.782227"><ele>0</ele></trkpt>
<trkpt lat="43.452481" lon="5.782389"><ele>0</ele></trkpt>
<trkpt lat="43.452516" lon="5.782585"><ele>0</ele></trkpt>
<trkpt lat="43.452534" lon="5.782791"><ele>0</ele></trkpt>
<trkpt lat="43.452586" lon="5.782976"><ele>0</ele></trkpt>
<trkpt lat="43.452543" lon="5.783156"><ele>0</ele></trkpt>
<trkpt lat="43.452498" lon="5.78336"><ele>0</ele></trkpt>
<trkpt lat="43.4526" lon="5.783483"><ele>0</ele></trkpt>
<trkpt lat="43.452547" lon="5.78368"><ele>0</ele></trkpt>
<trkpt lat="43.452448" lon="5.783809"><ele>0</ele></trkpt>
<trkpt lat="43.452315" lon="5.783851"><ele>0</ele></trkpt>
<trkpt lat="43.45218" lon="5.783831000000001"><ele>0</ele></trkpt>
<trkpt lat="43.452039" lon="5.783822999999999"><ele>0</ele></trkpt>
<trkpt lat="43.451914" lon="5.783731"><ele>0</ele></trkpt>
<trkpt lat="43.451771" lon="5.783721"><ele>0</ele></trkpt>
<trkpt lat="43.451683" lon="5.783864000000001"><ele>0</ele></trkpt>
<trkpt lat="43.451722" lon="5.784042"><ele>0</ele></trkpt>
<trkpt lat="43.451683" lon="5.78424"><ele>0</ele></trkpt>
<trkpt lat="43.451544" lon="5.784283"><ele>0</ele></trkpt>
<trkpt lat="43.451536" lon="5.784503000000001"><ele>0</ele></trkpt>
<trkpt lat="43.451613" lon="5.784657"><ele>0</ele></trkpt>
<trkpt lat="43.45154" lon="5.784822000000001"><ele>0</ele></trkpt>
<trkpt lat="43.451528" lon="5.785014000000001"><ele>0</ele></trkpt>
<trkpt lat="43.451559" lon="5.785211"><ele>0</ele></trkpt>
<trkpt lat="43.451593" lon="5.785411"><ele>0</ele></trkpt>
<trkpt lat="43.451609" lon="5.785608000000001"><ele>0</ele></trkpt>
<trkpt lat="43.451562" lon="5.785815"><ele>0</ele></trkpt>
<trkpt lat="43.451501" lon="5.785983000000001"><ele>0</ele></trkpt>
<trkpt lat="43.451473" lon="5.786171"><ele>0</ele></trkpt>
<trkpt lat="43.451473" lon="5.786361"><ele>0</ele></trkpt>
<trkpt lat="43.451362" lon="5.786548"><ele>0</ele></trkpt>
<trkpt lat="43.451354" lon="5.786734000000001"><ele>0</ele></trkpt>
<trkpt lat="43.451419" lon="5.786904"><ele>0</ele></trkpt>
<trkpt lat="43.451481" lon="5.787078"><ele>0</ele></trkpt>
<trkpt lat="43.451434" lon="5.787275"><ele>0</ele></trkpt>
<trkpt lat="43.451398" lon="5.787455"><ele>0</ele></trkpt>
<trkpt lat="43.451354" lon="5.787651"><ele>0</ele></trkpt>
<trkpt lat="43.451269" lon="5.787796"><ele>0</ele></trkpt>
<trkpt lat="43.451175" lon="5.787934"><ele>0</ele></trkpt>
<trkpt lat="43.451068" lon="5.788063"><ele>0</ele></trkpt>
<trkpt lat="43.450959" lon="5.788177"><ele>0</ele></trkpt>
<trkpt lat="43.450878" lon="5.788389"><ele>0</ele></trkpt>
<trkpt lat="43.450778" lon="5.788515"><ele>0</ele></trkpt>
<trkpt lat="43.450685" lon="5.788649"><ele>0</ele></trkpt>
<trkpt lat="43.450579" lon="5.788778"><ele>0</ele></trkpt>
<trkpt lat="43.450462" lon="5.78888"><ele>0</ele></trkpt>
<trkpt lat="43.45036" lon="5.789038"><ele>0</ele></trkpt>
<trkpt lat="43.450294" lon="5.7892"><ele>0</ele></trkpt>
<trkpt lat="43.450256" lon="5.789385000000001"><ele>0</ele></trkpt>
<trkpt lat="43.450161" lon="5.78957"><ele>0</ele></trkpt>
<trkpt lat="43.45003" lon="5.789637999999999"><ele>0</ele></trkpt>
<trkpt lat="43.449894" lon="5.789580999999999"><ele>0</ele></trkpt>
<trkpt lat="43.449757" lon="5.78956"><ele>0</ele></trkpt>
<trkpt lat="43.449658" lon="5.789686"><ele>0</ele></trkpt>
<trkpt lat="43.449658" lon="5.789873"><ele>0</ele></trkpt>
<trkpt lat="43.449668" lon="5.790061"><ele>0</ele></trkpt>
<trkpt lat="43.449698" lon="5.790242"><ele>0</ele></trkpt>
<trkpt lat="43.449687" lon="5.790429"><ele>0</ele></trkpt>
<trkpt lat="43.449684" lon="5.790619"><ele>0</ele></trkpt>
<trkpt lat="43.449564" lon="5.790705000000001"><ele>0</ele></trkpt>
<trkpt lat="43.449438" lon="5.790623"><ele>0</ele></trkpt>
<trkpt lat="43.44931" lon="5.790682000000001"><ele>0</ele></trkpt>
<trkpt lat="43.449282" lon="5.790876000000001"><ele>0</ele></trkpt>
<trkpt lat="43.4493" lon="5.791097"><ele>0</ele></trkpt>
<trkpt lat="43.449297" lon="5.791283"><ele>0</ele></trkpt>
<trkpt lat="43.449186" lon="5.791417"><ele>0</ele></trkpt>
<trkpt lat="43.449048" lon="5.791443"><ele>0</ele></trkpt>
<trkpt lat="43.449046" lon="5.791647"><ele>0</ele></trkpt>
<trkpt lat="43.449036" lon="5.791837"><ele>0</ele></trkpt>
<trkpt lat="43.4489" lon="5.791810999999999"><ele>0</ele></trkpt>
<trkpt lat="43.448764" lon="5.791776"><ele>0</ele></trkpt>
<trkpt lat="43.448669" lon="5.791932"><ele>0</ele></trkpt>
<trkpt lat="43.448684" lon="5.792125"><ele>0</ele></trkpt>
<trkpt lat="43.448724" lon="5.792318"><ele>0</ele></trkpt>
<trkpt lat="43.448734" lon="5.792515"><ele>0</ele></trkpt>
<trkpt lat="43.448785" lon="5.792689"><ele>0</ele></trkpt>
<trkpt lat="43.448871" lon="5.792841"><ele>0</ele></trkpt>
<trkpt lat="43.448959" lon="5.792987"><ele>0</ele></trkpt>
<trkpt lat="43.448896" lon="5.793192"><ele>0</ele></trkpt>
<trkpt lat="43.4489" lon="5.793388"><ele>0</ele></trkpt>
<trkpt lat="43.449035" lon="5.793411"><ele>0</ele></trkpt>
<trkpt lat="43.449191" lon="5.793428999999999"><ele>0</ele></trkpt>
<trkpt lat="43.449231" lon="5.793622"><ele>0</ele></trkpt>
<trkpt lat="43.449261" lon="5.793809"><ele>0</ele></trkpt>
<trkpt lat="43.449263" lon="5.794005000000001"><ele>0</ele></trkpt>
<trkpt lat="43.449248" lon="5.794212999999999"><ele>0</ele></trkpt>
<trkpt lat="43.44923" lon="5.794402"><ele>0</ele></trkpt>
<trkpt lat="43.449181" lon="5.794577999999999"><ele>0</ele></trkpt>
<trkpt lat="43.449152" lon="5.794768000000001"><ele>0</ele></trkpt>
<trkpt lat="43.449142" lon="5.795046"><ele>0</ele></trkpt>
<trkpt lat="43.449069" lon="5.795242"><ele>0</ele></trkpt>
<trkpt lat="43.449045" lon="5.795440999999999"><ele>0</ele></trkpt>
<trkpt lat="43.448962" lon="5.795634999999999"><ele>0</ele></trkpt>
<trkpt lat="43.449086" lon="5.795746000000001"><ele>0</ele></trkpt>
<trkpt lat="43.449095" lon="5.795950000000001"><ele>0</ele></trkpt>
<trkpt lat="43.449058" lon="5.796135"><ele>0</ele></trkpt>
<trkpt lat="43.44904" lon="5.796323"><ele>0</ele></trkpt>
<trkpt lat="43.449006" lon="5.796531"><ele>0</ele></trkpt>
<trkpt lat="43.448978" lon="5.796715999999999"><ele>0</ele></trkpt>
<trkpt lat="43.448882" lon="5.796888"><ele>0</ele></trkpt>
<trkpt lat="43.448811" lon="5.797046999999999"><ele>0</ele></trkpt>
<trkpt lat="43.448804" lon="5.797244"><ele>0</ele></trkpt>
<trkpt lat="43.448754" lon="5.797416"><ele>0</ele></trkpt>
<trkpt lat="43.448721" lon="5.79763"><ele>0</ele></trkpt>
<trkpt lat="43.448651" lon="5.797813"><ele>0</ele></trkpt>
<trkpt lat="43.448592" lon="5.798021"><ele>0</ele></trkpt>
<trkpt lat="43.44855" lon="5.798239"><ele>0</ele></trkpt>
<trkpt lat="43.448498" lon="5.79841"><ele>0</ele></trkpt>
<trkpt lat="43.448496" lon="5.798606999999999"><ele>0</ele></trkpt>
<trkpt lat="43.448497" lon="5.798795"><ele>0</ele></trkpt>
<trkpt lat="43.448415" lon="5.798946999999999"><ele>0</ele></trkpt>
<trkpt lat="43.448285" lon="5.798898000000001"><ele>0</ele></trkpt>
<trkpt lat="43.44815" lon="5.798949"><ele>0</ele></trkpt>
<trkpt lat="43.448021" lon="5.799014"><ele>0</ele></trkpt>
<trkpt lat="43.447883" lon="5.798979000000001"><ele>0</ele></trkpt>
<trkpt lat="43.447747" lon="5.798910999999999"><ele>0</ele></trkpt>
<trkpt lat="43.447619" lon="5.798839"><ele>0</ele></trkpt>
<trkpt lat="43.44749" lon="5.798755"><ele>0</ele></trkpt>
<trkpt lat="43.44742" lon="5.798592000000001"><ele>0</ele></trkpt>
<trkpt lat="43.447347" lon="5.798415"><ele>0</ele></trkpt>
<trkpt lat="43.447259" lon="5.798274000000001"><ele>0</ele></trkpt>
<trkpt lat="43.447163" lon="5.798126000000001"><ele>0</ele></trkpt>
<trkpt lat="43.44706" lon="5.797991000000001"><ele>0</ele></trkpt>
<trkpt lat="43.446923" lon="5.797965"><ele>0</ele></trkpt>
<trkpt lat="43.446803" lon="5.797867"><ele>0</ele></trkpt>
<trkpt lat="43.446665" lon="5.797844999999999"><ele>0</ele></trkpt>
<trkpt lat="43.446537" lon="5.797781"><ele>0</ele></trkpt>
<trkpt lat="43.446401" lon="5.797736"><ele>0</ele></trkpt>
<trkpt lat="43.446268" lon="5.797668"><ele>0</ele></trkpt>
<trkpt lat="43.446136" lon="5.797597"><ele>0</ele></trkpt>
<trkpt lat="43.446017" lon="5.797499000000001"><ele>0</ele></trkpt>
<trkpt lat="43.445914" lon="5.797376000000001"><ele>0</ele></trkpt>
<trkpt lat="43.445798" lon="5.797262999999999"><ele>0</ele></trkpt>
<trkpt lat="43.445743" lon="5.797093"><ele>0</ele></trkpt>
<trkpt lat="43.445699" lon="5.796914"><ele>0</ele></trkpt>
<trkpt lat="43.445669" lon="5.79673"><ele>0</ele></trkpt>
<trkpt lat="43.445582" lon="5.796578999999999"><ele>0</ele></trkpt>
<trkpt lat="43.445597" lon="5.796389"><ele>0</ele></trkpt>
<trkpt lat="43.445581" lon="5.796204"><ele>0</ele></trkpt>
<trkpt lat="43.445485" lon="5.796065"><ele>0</ele></trkpt>
<trkpt lat="43.445478" lon="5.795871"><ele>0</ele></trkpt>
<trkpt lat="43.445502" lon="5.795686"><ele>0</ele></trkpt>
<trkpt lat="43.44552" lon="5.795495"><ele>0</ele></trkpt>
<trkpt lat="43.445408" lon="5.79538"><ele>0</ele></trkpt>
<trkpt lat="43.445335" lon="5.795218"><ele>0</ele></trkpt>
<trkpt lat="43.445199" lon="5.795172"><ele>0</ele></trkpt>
<trkpt lat="43.445234" lon="5.794992"><ele>0</ele></trkpt>
<trkpt lat="43.445162" lon="5.79483"><ele>0</ele></trkpt>
<trkpt lat="43.445127" lon="5.794636"><ele>0</ele></trkpt>
<trkpt lat="43.445124" lon="5.794428999999999"><ele>0</ele></trkpt>
<trkpt lat="43.445078" lon="5.794254"><ele>0</ele></trkpt>
<trkpt lat="43.445024" lon="5.794079"><ele>0</ele></trkpt>
<trkpt lat="43.444895" lon="5.794026"><ele>0</ele></trkpt>
<trkpt lat="43.444906" lon="5.79384"><ele>0</ele></trkpt>
<trkpt lat="43.444959" lon="5.793668"><ele>0</ele></trkpt>
<trkpt lat="43.444864" lon="5.793526"><ele>0</ele></trkpt>
<trkpt lat="43.444769" lon="5.793369999999999"><ele>0</ele></trkpt>
<trkpt lat="43.444732" lon="5.793183"><ele>0</ele></trkpt>
<trkpt lat="43.444684" lon="5.793005999999999"><ele>0</ele></trkpt>
<trkpt lat="43.444669" lon="5.792817"><ele>0</ele></trkpt>
<trkpt lat="43.444714" lon="5.79264"><ele>0</ele></trkpt>
<trkpt lat="43.444769" lon="5.792467"><ele>0</ele></trkpt>
<trkpt lat="43.444824" lon="5.792281"><ele>0</ele></trkpt>
<trkpt lat="43.44478" lon="5.792095000000001"><ele>0</ele></trkpt>
<trkpt lat="43.444691" lon="5.79195"><ele>0</ele></trkpt>
<trkpt lat="43.444705" lon="5.791765000000001"><ele>0</ele></trkpt>
<trkpt lat="43.44476" lon="5.791592"><ele>0</ele></trkpt>
<trkpt lat="43.444778" lon="5.791397"><ele>0</ele></trkpt>
<trkpt lat="43.444821" lon="5.791211"><ele>0</ele></trkpt>
<trkpt lat="43.44486" lon="5.791026999999999"><ele>0</ele></trkpt>
<trkpt lat="43.4449" lon="5.790832999999999"><ele>0</ele></trkpt>
<trkpt lat="43.444947" lon="5.790655"><ele>0</ele></trkpt>
<trkpt lat="43.445051" lon="5.79053"><ele>0</ele></trkpt>
<trkpt lat="43.445205" lon="5.790495"><ele>0</ele></trkpt>
<trkpt lat="43.445305" lon="5.790366999999999"><ele>0</ele></trkpt>
<trkpt lat="43.44541" lon="5.790237"><ele>0</ele></trkpt>
<trkpt lat="43.445508" lon="5.790083"><ele>0</ele></trkpt>
<trkpt lat="43.445546" lon="5.789893"><ele>0</ele></trkpt>
<trkpt lat="43.445626" lon="5.789739000000001"><ele>0</ele></trkpt>
<trkpt lat="43.445673" lon="5.789563"><ele>0</ele></trkpt>
<trkpt lat="43.445776" lon="5.789439"><ele>0</ele></trkpt>
<trkpt lat="43.445842" lon="5.789275"><ele>0</ele></trkpt>
<trkpt lat="43.445895" lon="5.789102999999999"><ele>0</ele></trkpt>
<trkpt lat="43.445971" lon="5.788948"><ele>0</ele></trkpt>
<trkpt lat="43.446021" lon="5.788756"><ele>0</ele></trkpt>
<trkpt lat="43.446022" lon="5.788551"><ele>0</ele></trkpt>
<trkpt lat="43.446107" lon="5.788397000000001"><ele>0</ele></trkpt>
<trkpt lat="43.44617" lon="5.788218"><ele>0</ele></trkpt>
<trkpt lat="43.446226" lon="5.78804"><ele>0</ele></trkpt>
<trkpt lat="43.446305" lon="5.787856"><ele>0</ele></trkpt>
<trkpt lat="43.446349" lon="5.787678"><ele>0</ele></trkpt>
<trkpt lat="43.446419" lon="5.787517"><ele>0</ele></trkpt>
<trkpt lat="43.446558" lon="5.787432"><ele>0</ele></trkpt>
<trkpt lat="43.446646" lon="5.787268999999999"><ele>0</ele></trkpt>
<trkpt lat="43.446675" lon="5.787078"><ele>0</ele></trkpt>
<trkpt lat="43.44675" lon="5.786919"><ele>0</ele></trkpt>
<trkpt lat="43.446818" lon="5.786734000000001"><ele>0</ele></trkpt>
<trkpt lat="43.446912" lon="5.78659"><ele>0</ele></trkpt>
<trkpt lat="43.446911" lon="5.786361"><ele>0</ele></trkpt>
<trkpt lat="43.446954" lon="5.786176000000001"><ele>0</ele></trkpt>
<trkpt lat="43.447034" lon="5.786022"><ele>0</ele></trkpt>
<trkpt lat="43.447109" lon="5.785848000000001"><ele>0</ele></trkpt>
<trkpt lat="43.447201" lon="5.785698999999999"><ele>0</ele></trkpt>
<trkpt lat="43.447272" lon="5.785525"><ele>0</ele></trkpt>
<trkpt lat="43.447375" lon="5.785392999999999"><ele>0</ele></trkpt>
<trkpt lat="43.44746" lon="5.785233999999999"><ele>0</ele></trkpt>
<trkpt lat="43.447566" lon="5.785116000000001"><ele>0</ele></trkpt>
<trkpt lat="43.447692" lon="5.785009"><ele>0</ele></trkpt>
<trkpt lat="43.447745" lon="5.784834999999999"><ele>0</ele></trkpt>
<trkpt lat="43.447778" lon="5.784641999999999"><ele>0</ele></trkpt>
<trkpt lat="43.447787" lon="5.784449"><ele>0</ele></trkpt>
<trkpt lat="43.447761" lon="5.784256"><ele>0</ele></trkpt>
<trkpt lat="43.447818" lon="5.78408"><ele>0</ele></trkpt>
<trkpt lat="43.447898" lon="5.783929"><ele>0</ele></trkpt>
<trkpt lat="43.447987" lon="5.783776999999999"><ele>0</ele></trkpt>
<trkpt lat="43.448063" lon="5.783613"><ele>0</ele></trkpt>
<trkpt lat="43.448107" lon="5.783421"><ele>0</ele></trkpt>
<trkpt lat="43.448191" lon="5.783275999999999"><ele>0</ele></trkpt>
<trkpt lat="43.448311" lon="5.783173000000001"><ele>0</ele></trkpt>
<trkpt lat="43.448365" lon="5.782989"><ele>0</ele></trkpt>
<trkpt lat="43.448458" lon="5.782845"><ele>0</ele></trkpt>
<trkpt lat="43.448519" lon="5.782672000000001"><ele>0</ele></trkpt>
<trkpt lat="43.44857" lon="5.782491"><ele>0</ele></trkpt>
<trkpt lat="43.448626" lon="5.782316"><ele>0</ele></trkpt>
<trkpt lat="43.448602" lon="5.782501999999999"><ele>0</ele></trkpt>
<trkpt lat="43.448573" lon="5.782318000000001"><ele>0</ele></trkpt>
<trkpt lat="43.448634" lon="5.782135999999999"><ele>0</ele></trkpt>
<trkpt lat="43.448708" lon="5.781974"><ele>0</ele></trkpt>
<trkpt lat="43.448768" lon="5.7818"><ele>0</ele></trkpt>
<trkpt lat="43.448815" lon="5.781582"><ele>0</ele></trkpt>
<trkpt lat="43.448848" lon="5.781399999999999"><ele>0</ele></trkpt>
<trkpt lat="43.448971" lon="5.781285"><ele>0</ele></trkpt>
<trkpt lat="43.449054" lon="5.781138"><ele>0</ele></trkpt>
<trkpt lat="43.449119" lon="5.780968"><ele>0</ele></trkpt>
<trkpt lat="43.449199" lon="5.780760000000001"><ele>0</ele></trkpt>
<trkpt lat="43.449191" lon="5.780571"><ele>0</ele></trkpt>
<trkpt lat="43.449249" lon="5.780363"><ele>0</ele></trkpt>
<trkpt lat="43.449326" lon="5.780194"><ele>0</ele></trkpt>
<trkpt lat="43.44943" lon="5.780061"><ele>0</ele></trkpt>
<trkpt lat="43.449489" lon="5.779854"><ele>0</ele></trkpt>
<trkpt lat="43.449569" lon="5.779699"><ele>0</ele></trkpt>
<trkpt lat="43.449755" lon="5.779574"><ele>0</ele></trkpt>
<trkpt lat="43.449871" lon="5.779437"><ele>0</ele></trkpt>
<trkpt lat="43.449847" lon="5.779244000000001"><ele>0</ele></trkpt>
<trkpt lat="43.450027" lon="5.779117"><ele>0</ele></trkpt>
<trkpt lat="43.450116" lon="5.778964"><ele>0</ele></trkpt>
<trkpt lat="43.450113" lon="5.778773"><ele>0</ele></trkpt>
<trkpt lat="43.450133" lon="5.778563999999999"><ele>0</ele></trkpt>
<trkpt lat="43.450237" lon="5.778411"><ele>0</ele></trkpt>
<trkpt lat="43.450332" lon="5.778265"><ele>0</ele></trkpt>
<trkpt lat="43.450456" lon="5.778138"><ele>0</ele></trkpt>
<trkpt lat="43.450416" lon="5.777955"><ele>0</ele></trkpt>
<trkpt lat="43.450427" lon="5.77777"><ele>0</ele></trkpt>
<trkpt lat="43.450495" lon="5.777608999999999"><ele>0</ele></trkpt>
<trkpt lat="43.450539" lon="5.77742"><ele>0</ele></trkpt>
<trkpt lat="43.450571" lon="5.777238"><ele>0</ele></trkpt>
<trkpt lat="43.450576" lon="5.777035"><ele>0</ele></trkpt>
<trkpt lat="43.450602" lon="5.776833999999999"><ele>0</ele></trkpt>
<trkpt lat="43.450656" lon="5.776658"><ele>0</ele></trkpt>
<trkpt lat="43.450711" lon="5.776485"><ele>0</ele></trkpt>
<trkpt lat="43.450778" lon="5.776306"><ele>0</ele></trkpt>
<trkpt lat="43.450827" lon="5.776131"><ele>0</ele></trkpt>
<trkpt lat="43.450904" lon="5.77595"><ele>0</ele></trkpt>
<trkpt lat="43.450882" lon="5.775741000000001"><ele>0</ele></trkpt>
<trkpt lat="43.450889" lon="5.775552"><ele>0</ele></trkpt>
<trkpt lat="43.450873" lon="5.775356999999999"><ele>0</ele></trkpt>
<trkpt lat="43.4509" lon="5.775168"><ele>0</ele></trkpt>
<trkpt lat="43.45097" lon="5.775001"><ele>0</ele></trkpt>
<trkpt lat="43.450966" lon="5.774815"><ele>0</ele></trkpt>
<trkpt lat="43.450975" lon="5.774626999999999"><ele>0</ele></trkpt>
<trkpt lat="43.451014" lon="5.774443"><ele>0</ele></trkpt>
<trkpt lat="43.451062" lon="5.774232"><ele>0</ele></trkpt>
<trkpt lat="43.451067" lon="5.774042"><ele>0</ele></trkpt>
<trkpt lat="43.451062" lon="5.773852999999999"><ele>0</ele></trkpt>
<trkpt lat="43.451079" lon="5.773664"><ele>0</ele></trkpt>
<trkpt lat="43.451061" lon="5.773471"><ele>0</ele></trkpt>
<trkpt lat="43.451063" lon="5.773281"><ele>0</ele></trkpt>
<trkpt lat="43.451085" lon="5.773089000000001"><ele>0</ele></trkpt>
<trkpt lat="43.451119" lon="5.772897999999999"><ele>0</ele></trkpt>
<trkpt lat="43.451112" lon="5.772699"><ele>0</ele></trkpt>
<trkpt lat="43.451174" lon="5.772525"><ele>0</ele></trkpt>
<trkpt lat="43.451142" lon="5.772332"><ele>0</ele></trkpt>
<trkpt lat="43.451144" lon="5.772133999999999"><ele>0</ele></trkpt>
<trkpt lat="43.451166" lon="5.771936"><ele>0</ele></trkpt>
<trkpt lat="43.45124" lon="5.771779000000001"><ele>0</ele></trkpt>
<trkpt lat="43.451228" lon="5.771583"><ele>0</ele></trkpt>
<trkpt lat="43.451198" lon="5.771376"><ele>0</ele></trkpt>
<trkpt lat="43.451202" lon="5.771189000000001"><ele>0</ele></trkpt>
<trkpt lat="43.451181" lon="5.771003"><ele>0</ele></trkpt>
<trkpt lat="43.451183" lon="5.770805"><ele>0</ele></trkpt>
<trkpt lat="43.45114" lon="5.770624"><ele>0</ele></trkpt>
<trkpt lat="43.45112" lon="5.770431"><ele>0</ele></trkpt>
<trkpt lat="43.451057" lon="5.770255"><ele>0</ele></trkpt>
<trkpt lat="43.451014" lon="5.770065"><ele>0</ele></trkpt>
<trkpt lat="43.450984" lon="5.769872"><ele>0</ele></trkpt>
<trkpt lat="43.450942" lon="5.769692"><ele>0</ele></trkpt>
<trkpt lat="43.450985" lon="5.769505999999999"><ele>0</ele></trkpt>
<trkpt lat="43.450971" lon="5.769321"><ele>0</ele></trkpt>
<trkpt lat="43.450915" lon="5.769139999999999"><ele>0</ele></trkpt>
<trkpt lat="43.450856" lon="5.768971999999999"><ele>0</ele></trkpt>
<trkpt lat="43.450842" lon="5.768769"><ele>0</ele></trkpt>
<trkpt lat="43.450838" lon="5.768572000000001"><ele>0</ele></trkpt>
<trkpt lat="43.45087" lon="5.768364"><ele>0</ele></trkpt>
<trkpt lat="43.450849" lon="5.768167"><ele>0</ele></trkpt>
<trkpt lat="43.450835" lon="5.767979"><ele>0</ele></trkpt>
<trkpt lat="43.450817" lon="5.767776999999999"><ele>0</ele></trkpt>
<trkpt lat="43.450853" lon="5.767592"><ele>0</ele></trkpt>
<trkpt lat="43.450949" lon="5.767454"><ele>0</ele></trkpt>
<trkpt lat="43.450833" lon="5.767336"><ele>0</ele></trkpt>
<trkpt lat="43.450804" lon="5.76714"><ele>0</ele></trkpt>
<trkpt lat="43.450799" lon="5.766942999999999"><ele>0</ele></trkpt>
<trkpt lat="43.45078" lon="5.766756"><ele>0</ele></trkpt>
<trkpt lat="43.450839" lon="5.766925"><ele>0</ele></trkpt>
<trkpt lat="43.450945" lon="5.767044000000001"><ele>0</ele></trkpt>
<trkpt lat="43.451021" lon="5.767199"><ele>0</ele></trkpt>
<trkpt lat="43.450922" lon="5.767062"><ele>0</ele></trkpt>
<trkpt lat="43.450849" lon="5.766902"><ele>0</ele></trkpt>
<trkpt lat="43.450831" lon="5.766716999999999"><ele>0</ele></trkpt>
<trkpt lat="43.450774" lon="5.766534999999999"><ele>0</ele></trkpt>
<trkpt lat="43.45075" lon="5.766346"><ele>0</ele></trkpt>
<trkpt lat="43.450731" lon="5.766156"><ele>0</ele></trkpt>
<trkpt lat="43.450748" lon="5.76597"><ele>0</ele></trkpt>
<trkpt lat="43.450681" lon="5.765807000000001"><ele>0</ele></trkpt>
<trkpt lat="43.450636" lon="5.765619"><ele>0</ele></trkpt>
<trkpt lat="43.450652" lon="5.765429000000001"><ele>0</ele></trkpt>
<trkpt lat="43.450527" lon="5.765297"><ele>0</ele></trkpt>
<trkpt lat="43.45047" lon="5.765129"><ele>0</ele></trkpt>
<trkpt lat="43.450463" lon="5.764915"><ele>0</ele></trkpt>
<trkpt lat="43.450391" lon="5.764756"><ele>0</ele></trkpt>
<trkpt lat="43.450311" lon="5.764595"><ele>0</ele></trkpt>
<trkpt lat="43.450259" lon="5.764417999999999"><ele>0</ele></trkpt>
<trkpt lat="43.450193" lon="5.764242"><ele>0</ele></trkpt>
<trkpt lat="43.450129" lon="5.764073"><ele>0</ele></trkpt>
<trkpt lat="43.450003" lon="5.763940000000001"><ele>0</ele></trkpt>
<trkpt lat="43.449876" lon="5.763802000000001"><ele>0</ele></trkpt>
<trkpt lat="43.449759" lon="5.763696"><ele>0</ele></trkpt>
<trkpt lat="43.449732" lon="5.763514"><ele>0</ele></trkpt>
<trkpt lat="43.4496" lon="5.763458"><ele>0</ele></trkpt>
<trkpt lat="43.449523" lon="5.7633"><ele>0</ele></trkpt>
<trkpt lat="43.449421" lon="5.763177999999999"><ele>0</ele></trkpt>
<trkpt lat="43.449377" lon="5.763001"><ele>0</ele></trkpt>
<trkpt lat="43.449239" lon="5.762916999999999"><ele>0</ele></trkpt>
<trkpt lat="43.449115" lon="5.762811000000001"><ele>0</ele></trkpt>
<trkpt lat="43.448996" lon="5.762711"><ele>0</ele></trkpt>
<trkpt lat="43.448858" lon="5.762640999999999"><ele>0</ele></trkpt>
<trkpt lat="43.448717" lon="5.762536"><ele>0</ele></trkpt>
<trkpt lat="43.448593" lon="5.762460999999999"><ele>0</ele></trkpt>
<trkpt lat="43.448455" lon="5.762419"><ele>0</ele></trkpt>
<trkpt lat="43.448333" lon="5.762329"><ele>0</ele></trkpt>
<trkpt lat="43.4482" lon="5.762279"><ele>0</ele></trkpt>
<trkpt lat="43.44807" lon="5.762181"><ele>0</ele></trkpt>
<trkpt lat="43.44795" lon="5.762083"><ele>0</ele></trkpt>
<trkpt lat="43.447857" lon="5.761949"><ele>0</ele></trkpt>
<trkpt lat="43.447742" lon="5.761828"><ele>0</ele></trkpt>
<trkpt lat="43.447639" lon="5.761696"><ele>0</ele></trkpt>
<trkpt lat="43.447518" lon="5.761601"><ele>0</ele></trkpt>
<trkpt lat="43.447415" lon="5.761475"><ele>0</ele></trkpt>
<trkpt lat="43.447301" lon="5.761346999999999"><ele>0</ele></trkpt>
<trkpt lat="43.447171" lon="5.76127"><ele>0</ele></trkpt>
<trkpt lat="43.447032" lon="5.761226"><ele>0</ele></trkpt>
<trkpt lat="43.446886" lon="5.761212"><ele>0</ele></trkpt>
<trkpt lat="43.446748" lon="5.76116"><ele>0</ele></trkpt>
<trkpt lat="43.44661" lon="5.761169"><ele>0</ele></trkpt>
<trkpt lat="43.446469" lon="5.761134"><ele>0</ele></trkpt>
<trkpt lat="43.446336" lon="5.761098"><ele>0</ele></trkpt>
<trkpt lat="43.446197" lon="5.761106999999999"><ele>0</ele></trkpt>
<trkpt lat="43.446066" lon="5.76117"><ele>0</ele></trkpt>
<trkpt lat="43.445926" lon="5.761226"><ele>0</ele></trkpt>
<trkpt lat="43.44579" lon="5.761252"><ele>0</ele></trkpt>
<trkpt lat="43.445649" lon="5.761212"><ele>0</ele></trkpt>
<trkpt lat="43.445514" lon="5.761227"><ele>0</ele></trkpt>
<trkpt lat="43.445378" lon="5.761216"><ele>0</ele></trkpt>
<trkpt lat="43.445239" lon="5.761159"><ele>0</ele></trkpt>
<trkpt lat="43.445115" lon="5.761077"><ele>0</ele></trkpt>
<trkpt lat="43.44498" lon="5.761084"><ele>0</ele></trkpt>
<trkpt lat="43.444859" lon="5.760982"><ele>0</ele></trkpt>
<trkpt lat="43.444718" lon="5.76097"><ele>0</ele></trkpt>
<trkpt lat="43.444612" lon="5.76085"><ele>0</ele></trkpt>
<trkpt lat="43.444504" lon="5.760724"><ele>0</ele></trkpt>
<trkpt lat="43.444394" lon="5.760613"><ele>0</ele></trkpt>
<trkpt lat="43.444283" lon="5.760502999999999"><ele>0</ele></trkpt>
<trkpt lat="43.444167" lon="5.760384"><ele>0</ele></trkpt>
<trkpt lat="43.444032" lon="5.760329"><ele>0</ele></trkpt>
<trkpt lat="43.443944" lon="5.760178"><ele>0</ele></trkpt>
<trkpt lat="43.443847" lon="5.760316"><ele>0</ele></trkpt>
<trkpt lat="43.443767" lon="5.760477"><ele>0</ele></trkpt>
<trkpt lat="43.443624" lon="5.760486"><ele>0</ele></trkpt>
<trkpt lat="43.443529" lon="5.760635"><ele>0</ele></trkpt>
<trkpt lat="43.443415" lon="5.76075"><ele>0</ele></trkpt>
<trkpt lat="43.443347" lon="5.760586"><ele>0</ele></trkpt>
<trkpt lat="43.443231" lon="5.76046"><ele>0</ele></trkpt>
<trkpt lat="43.443132" lon="5.760326"><ele>0</ele></trkpt>
<trkpt lat="43.443028" lon="5.760201"><ele>0</ele></trkpt>
<trkpt lat="43.442902" lon="5.76013"><ele>0</ele></trkpt>
<trkpt lat="43.442788" lon="5.760007"><ele>0</ele></trkpt>
<trkpt lat="43.442711" lon="5.759845"><ele>0</ele></trkpt>
<trkpt lat="43.442647" lon="5.759645"><ele>0</ele></trkpt>
<trkpt lat="43.442538" lon="5.759512999999999"><ele>0</ele></trkpt>
<trkpt lat="43.44242" lon="5.759402"><ele>0</ele></trkpt>
<trkpt lat="43.442319" lon="5.759260000000001"><ele>0</ele></trkpt>
<trkpt lat="43.44219" lon="5.759196"><ele>0</ele></trkpt>
<trkpt lat="43.442093" lon="5.759056999999999"><ele>0</ele></trkpt>
<trkpt lat="43.442088" lon="5.758844"><ele>0</ele></trkpt>
<trkpt lat="43.441957" lon="5.758785999999999"><ele>0</ele></trkpt>
<trkpt lat="43.441847" lon="5.758669000000001"><ele>0</ele></trkpt>
<trkpt lat="43.44174" lon="5.758545000000001"><ele>0</ele></trkpt>
<trkpt lat="43.441627" lon="5.758428"><ele>0</ele></trkpt>
<trkpt lat="43.441501" lon="5.758333"><ele>0</ele></trkpt>
<trkpt lat="43.441368" lon="5.758275"><ele>0</ele></trkpt>
<trkpt lat="43.441235" lon="5.758243"><ele>0</ele></trkpt>
<trkpt lat="43.44111" lon="5.758169"><ele>0</ele></trkpt>
<trkpt lat="43.441019" lon="5.758031"><ele>0</ele></trkpt>
<trkpt lat="43.440917" lon="5.757905"><ele>0</ele></trkpt>
<trkpt lat="43.440793" lon="5.757821"><ele>0</ele></trkpt>
<trkpt lat="43.440655" lon="5.757816999999999"><ele>0</ele></trkpt>
<trkpt lat="43.440519" lon="5.757787"><ele>0</ele></trkpt>
<trkpt lat="43.44038" lon="5.757761999999999"><ele>0</ele></trkpt>
<trkpt lat="43.440233" lon="5.757744"><ele>0</ele></trkpt>
<trkpt lat="43.440099" lon="5.757783999999999"><ele>0</ele></trkpt>
<trkpt lat="43.439967" lon="5.757743"><ele>0</ele></trkpt>
<trkpt lat="43.439873" lon="5.757605"><ele>0</ele></trkpt>
<trkpt lat="43.4399" lon="5.75741"><ele>0</ele></trkpt>
<trkpt lat="43.439999" lon="5.757281000000001"><ele>0</ele></trkpt>
<trkpt lat="43.440107" lon="5.757167000000001"><ele>0</ele></trkpt>
<trkpt lat="43.440238" lon="5.757103"><ele>0</ele></trkpt>
<trkpt lat="43.440337" lon="5.756974"><ele>0</ele></trkpt>
<trkpt lat="43.440462" lon="5.756887"><ele>0</ele></trkpt>
<trkpt lat="43.440595" lon="5.756811"><ele>0</ele></trkpt>
<trkpt lat="43.440719" lon="5.756738"><ele>0</ele></trkpt>
<trkpt lat="43.440835" lon="5.756633000000001"><ele>0</ele></trkpt>
<trkpt lat="43.440965" lon="5.756576000000001"><ele>0</ele></trkpt>
<trkpt lat="43.441109" lon="5.75663"><ele>0</ele></trkpt>
<trkpt lat="43.441243" lon="5.756698"><ele>0</ele></trkpt>
<trkpt lat="43.441372" lon="5.756763"><ele>0</ele></trkpt>
<trkpt lat="43.441507" lon="5.756816000000001"><ele>0</ele></trkpt>
<trkpt lat="43.441639" lon="5.756873999999999"><ele>0</ele></trkpt>
<trkpt lat="43.441767" lon="5.756795"><ele>0</ele></trkpt>
<trkpt lat="43.441899" lon="5.756707"><ele>0</ele></trkpt>
<trkpt lat="43.442016" lon="5.756613"><ele>0</ele></trkpt>
<trkpt lat="43.442138" lon="5.75653"><ele>0</ele></trkpt>
<trkpt lat="43.442282" lon="5.756531000000001"><ele>0</ele></trkpt>
<trkpt lat="43.44239" lon="5.756641"><ele>0</ele></trkpt>
<trkpt lat="43.442485" lon="5.756804999999999"><ele>0</ele></trkpt>
<trkpt lat="43.442592" lon="5.756966"><ele>0</ele></trkpt>
<trkpt lat="43.442726" lon="5.756996999999999"><ele>0</ele></trkpt>
<trkpt lat="43.44284" lon="5.756887"><ele>0</ele></trkpt>
<trkpt lat="43.44297" lon="5.7568"><ele>0</ele></trkpt>
<trkpt lat="43.443107" lon="5.756828000000001"><ele>0</ele></trkpt>
<trkpt lat="43.443246" lon="5.756858"><ele>0</ele></trkpt>
<trkpt lat="43.443382" lon="5.756885"><ele>0</ele></trkpt>
<trkpt lat="43.443505" lon="5.756807"><ele>0</ele></trkpt>
<trkpt lat="43.44361" lon="5.756664"><ele>0</ele></trkpt>
<trkpt lat="43.443726" lon="5.756561"><ele>0</ele></trkpt>
<trkpt lat="43.443858" lon="5.756514"><ele>0</ele></trkpt>
<trkpt lat="43.443996" lon="5.756540000000001"><ele>0</ele></trkpt>
<trkpt lat="43.444161" lon="5.756584"><ele>0</ele></trkpt>
<trkpt lat="43.444295" lon="5.756645000000001"><ele>0</ele></trkpt>
<trkpt lat="43.444403" lon="5.756759000000001"><ele>0</ele></trkpt>
<trkpt lat="43.444535" lon="5.756834"><ele>0</ele></trkpt>
<trkpt lat="43.444667" lon="5.756788"><ele>0</ele></trkpt>
<trkpt lat="43.444795" lon="5.756727"><ele>0</ele></trkpt>
<trkpt lat="43.444946" lon="5.756806"><ele>0</ele></trkpt>
<trkpt lat="43.445107" lon="5.756801"><ele>0</ele></trkpt>
<trkpt lat="43.445231" lon="5.75672"><ele>0</ele></trkpt>
<trkpt lat="43.445364" lon="5.756763"><ele>0</ele></trkpt>
<trkpt lat="43.445491" lon="5.756689"><ele>0</ele></trkpt>
<trkpt lat="43.445634" lon="5.756642000000001"><ele>0</ele></trkpt>
<trkpt lat="43.445763" lon="5.756708"><ele>0</ele></trkpt>
<trkpt lat="43.445896" lon="5.756765"><ele>0</ele></trkpt>
<trkpt lat="43.446035" lon="5.756688"><ele>0</ele></trkpt>
<trkpt lat="43.446123" lon="5.756545"><ele>0</ele></trkpt>
<trkpt lat="43.446241" lon="5.756405999999999"><ele>0</ele></trkpt>
<trkpt lat="43.446374" lon="5.756326999999999"><ele>0</ele></trkpt>
<trkpt lat="43.446509" lon="5.756319"><ele>0</ele></trkpt>
<trkpt lat="43.44663" lon="5.756201000000001"><ele>0</ele></trkpt>
<trkpt lat="43.446771" lon="5.75617"><ele>0</ele></trkpt>
<trkpt lat="43.446877" lon="5.756005"><ele>0</ele></trkpt>
<trkpt lat="43.447014" lon="5.755961999999999"><ele>0</ele></trkpt>
<trkpt lat="43.447153" lon="5.755944"><ele>0</ele></trkpt>
<trkpt lat="43.447291" lon="5.755878"><ele>0</ele></trkpt>
<trkpt lat="43.447432" lon="5.755891"><ele>0</ele></trkpt>
<trkpt lat="43.447574" lon="5.755906999999999"><ele>0</ele></trkpt>
<trkpt lat="43.44773" lon="5.755837999999999"><ele>0</ele></trkpt>
<trkpt lat="43.447856" lon="5.755911"><ele>0</ele></trkpt>
<trkpt lat="43.447989" lon="5.755870999999999"><ele>0</ele></trkpt>
<trkpt lat="43.448118" lon="5.755809"><ele>0</ele></trkpt>
<trkpt lat="43.448244" lon="5.755719"><ele>0</ele></trkpt>
<trkpt lat="43.44839" lon="5.755744"><ele>0</ele></trkpt>
<trkpt lat="43.448511" lon="5.755849999999999"><ele>0</ele></trkpt>
<trkpt lat="43.448646" lon="5.755867"><ele>0</ele></trkpt>
<trkpt lat="43.448796" lon="5.755918999999999"><ele>0</ele></trkpt>
<trkpt lat="43.448928" lon="5.756023"><ele>0</ele></trkpt>
<trkpt lat="43.449037" lon="5.756167"><ele>0</ele></trkpt>
<trkpt lat="43.44917" lon="5.75626"><ele>0</ele></trkpt>
<trkpt lat="43.449246" lon="5.756423"><ele>0</ele></trkpt>
<trkpt lat="43.449322" lon="5.756600000000001"><ele>0</ele></trkpt>
<trkpt lat="43.44945" lon="5.756683"><ele>0</ele></trkpt>
<trkpt lat="43.449551" lon="5.756823"><ele>0</ele></trkpt>
<trkpt lat="43.449656" lon="5.756975999999999"><ele>0</ele></trkpt>
<trkpt lat="43.449688" lon="5.757172"><ele>0</ele></trkpt>
<trkpt lat="43.449727" lon="5.757350999999999"><ele>0</ele></trkpt>
<trkpt lat="43.449789" lon="5.757525"><ele>0</ele></trkpt>
<trkpt lat="43.4499" lon="5.757656"><ele>0</ele></trkpt>
<trkpt lat="43.450016" lon="5.757771000000001"><ele>0</ele></trkpt>
<trkpt lat="43.450144" lon="5.757884"><ele>0</ele></trkpt>
<trkpt lat="43.450192" lon="5.758111000000001"><ele>0</ele></trkpt>
<trkpt lat="43.450288" lon="5.758295"><ele>0</ele></trkpt>
<trkpt lat="43.450301" lon="5.758487"><ele>0</ele></trkpt>
<trkpt lat="43.450271" lon="5.758703"><ele>0</ele></trkpt>
<trkpt lat="43.450288" lon="5.758895"><ele>0</ele></trkpt>
<trkpt lat="43.450375" lon="5.759056999999999"><ele>0</ele></trkpt>
<trkpt lat="43.4505" lon="5.759137999999999"><ele>0</ele></trkpt>
<trkpt lat="43.450639" lon="5.759148999999999"><ele>0</ele></trkpt>
<trkpt lat="43.450798" lon="5.759194000000001"><ele>0</ele></trkpt>
<trkpt lat="43.450938" lon="5.759260000000001"><ele>0</ele></trkpt>
<trkpt lat="43.451061" lon="5.759361"><ele>0</ele></trkpt>
<trkpt lat="43.451142" lon="5.75952"><ele>0</ele></trkpt>
<trkpt lat="43.451234" lon="5.759701"><ele>0</ele></trkpt>
<trkpt lat="43.451367" lon="5.759736"><ele>0</ele></trkpt>
<trkpt lat="43.451504" lon="5.759796"><ele>0</ele></trkpt>
<trkpt lat="43.451612" lon="5.759916"><ele>0</ele></trkpt>
<trkpt lat="43.451651" lon="5.760103000000001"><ele>0</ele></trkpt>
<trkpt lat="43.451656" lon="5.760298999999999"><ele>0</ele></trkpt>
<trkpt lat="43.451699" lon="5.760479000000001"><ele>0</ele></trkpt>
<trkpt lat="43.451696" lon="5.76067"><ele>0</ele></trkpt>
<trkpt lat="43.451706" lon="5.760856"><ele>0</ele></trkpt>
<trkpt lat="43.451738" lon="5.76104"><ele>0</ele></trkpt>
<trkpt lat="43.451864" lon="5.761137"><ele>0</ele></trkpt>
<trkpt lat="43.451904" lon="5.761318"><ele>0</ele></trkpt>
<trkpt lat="43.451963" lon="5.761511"><ele>0</ele></trkpt>
<trkpt lat="43.452072" lon="5.761645"><ele>0</ele></trkpt>
<trkpt lat="43.452162" lon="5.761819"><ele>0</ele></trkpt>
<trkpt lat="43.452283" lon="5.761917"><ele>0</ele></trkpt>
<trkpt lat="43.452403" lon="5.762016999999999"><ele>0</ele></trkpt>
<trkpt lat="43.452506" lon="5.762202"><ele>0</ele></trkpt>
<trkpt lat="43.452647" lon="5.762129"><ele>0</ele></trkpt>
<trkpt lat="43.452759" lon="5.762242"><ele>0</ele></trkpt>
<trkpt lat="43.452807" lon="5.762423"><ele>0</ele></trkpt>
<trkpt lat="43.452806" lon="5.762609999999999"><ele>0</ele></trkpt>
<trkpt lat="43.452831" lon="5.762795"><ele>0</ele></trkpt>
<trkpt lat="43.452915" lon="5.762942"><ele>0</ele></trkpt>
<trkpt lat="43.453024" lon="5.763077"><ele>0</ele></trkpt>
<trkpt lat="43.453142" lon="5.763209"><ele>0</ele></trkpt>
<trkpt lat="43.453135" lon="5.763366"><ele>0</ele></trkpt>
<trkpt lat="43.45319" lon="5.763419"><ele>0</ele></trkpt>
<trkpt lat="43.453255" lon="5.763584"><ele>0</ele></trkpt>
<trkpt lat="43.453339" lon="5.763735999999999"><ele>0</ele></trkpt>
<trkpt lat="43.453418" lon="5.763891"><ele>0</ele></trkpt>
<trkpt lat="43.453524" lon="5.764030000000001"><ele>0</ele></trkpt>
<trkpt lat="43.453544" lon="5.764216"><ele>0</ele></trkpt>
<trkpt lat="43.45369" lon="5.76426"><ele>0</ele></trkpt>
<trkpt lat="43.453825" lon="5.764296"><ele>0</ele></trkpt>
<trkpt lat="43.453957" lon="5.764339000000001"><ele>0</ele></trkpt>
<trkpt lat="43.454003" lon="5.764138"><ele>0</ele></trkpt>
<trkpt lat="43.45416" lon="5.764039"><ele>0</ele></trkpt>
<trkpt lat="43.454068" lon="5.763891"><ele>0</ele></trkpt>
<trkpt lat="43.454214" lon="5.763859999999999"><ele>0</ele></trkpt>
<trkpt lat="43.454314" lon="5.763712000000001"><ele>0</ele></trkpt>
<trkpt lat="43.454451" lon="5.763655000000001"><ele>0</ele></trkpt>
<trkpt lat="43.454568" lon="5.763747999999999"><ele>0</ele></trkpt>
<trkpt lat="43.454631" lon="5.763569"><ele>0</ele></trkpt>
<trkpt lat="43.454589" lon="5.763759"><ele>0</ele></trkpt>
<trkpt lat="43.454472" lon="5.763856"><ele>0</ele></trkpt>
<trkpt lat="43.454353" lon="5.763973000000001"><ele>0</ele></trkpt>
<trkpt lat="43.454214" lon="5.763924"><ele>0</ele></trkpt>
<trkpt lat="43.454152" lon="5.76409"><ele>0</ele></trkpt>
<trkpt lat="43.454024" lon="5.76416"><ele>0</ele></trkpt>
<trkpt lat="43.453914" lon="5.764279999999999"><ele>0</ele></trkpt>
<trkpt lat="43.453877" lon="5.764459"><ele>0</ele></trkpt>
<trkpt lat="43.453798" lon="5.764615"><ele>0</ele></trkpt>
<trkpt lat="43.453787" lon="5.764804000000001"><ele>0</ele></trkpt>
<trkpt lat="43.453803" lon="5.764997000000001"><ele>0</ele></trkpt>
<trkpt lat="43.453827" lon="5.765195"><ele>0</ele></trkpt>
<trkpt lat="43.453844" lon="5.765381"><ele>0</ele></trkpt>
<trkpt lat="43.453922" lon="5.765551"><ele>0</ele></trkpt>
<trkpt lat="43.453951" lon="5.765738999999999"><ele>0</ele></trkpt>
<trkpt lat="43.453953" lon="5.765930000000001"><ele>0</ele></trkpt>
<trkpt lat="43.453923" lon="5.766134000000001"><ele>0</ele></trkpt>
<trkpt lat="43.45392" lon="5.766322"><ele>0</ele></trkpt>
<trkpt lat="43.453894" lon="5.766507"><ele>0</ele></trkpt>
<trkpt lat="43.453842" lon="5.766683999999999"><ele>0</ele></trkpt>
<trkpt lat="43.453816" lon="5.766872"><ele>0</ele></trkpt>
<trkpt lat="43.453824" lon="5.767070999999999"><ele>0</ele></trkpt>
<trkpt lat="43.453899" lon="5.767248"><ele>0</ele></trkpt>
<trkpt lat="43.45397" lon="5.767425"><ele>0</ele></trkpt>
<trkpt lat="43.454092" lon="5.76753"><ele>0</ele></trkpt>
<trkpt lat="43.454096" lon="5.767716"><ele>0</ele></trkpt>
<trkpt lat="43.454037" lon="5.767888999999999"><ele>0</ele></trkpt>
<trkpt lat="43.454065" lon="5.768080000000001"><ele>0</ele></trkpt>
<trkpt lat="43.454109" lon="5.768261"><ele>0</ele></trkpt>
<trkpt lat="43.454166" lon="5.768436999999999"><ele>0</ele></trkpt>
<trkpt lat="43.45428" lon="5.76854"><ele>0</ele></trkpt>
<trkpt lat="43.454376" lon="5.768683000000001"><ele>0</ele></trkpt>
<trkpt lat="43.454417" lon="5.768868999999999"><ele>0</ele></trkpt>
<trkpt lat="43.454412" lon="5.769055"><ele>0</ele></trkpt>
<trkpt lat="43.454335" lon="5.769227"><ele>0</ele></trkpt>
<trkpt lat="43.454242" lon="5.769381"><ele>0</ele></trkpt>
<trkpt lat="43.454164" lon="5.769534"><ele>0</ele></trkpt>
<trkpt lat="43.454111" lon="5.769709000000001"><ele>0</ele></trkpt>
<trkpt lat="43.454156" lon="5.769888"><ele>0</ele></trkpt>
<trkpt lat="43.454259" lon="5.770024"><ele>0</ele></trkpt>
<trkpt lat="43.454381" lon="5.770147"><ele>0</ele></trkpt>
<trkpt lat="43.454339" lon="5.77035"><ele>0</ele></trkpt>
<trkpt lat="43.454293" lon="5.770526"><ele>0</ele></trkpt>
<trkpt lat="43.454302" lon="5.770761"><ele>0</ele></trkpt>
<trkpt lat="43.454405" lon="5.770887"><ele>0</ele></trkpt>
<trkpt lat="43.454471" lon="5.771052999999999"><ele>0</ele></trkpt>
<trkpt lat="43.4546" lon="5.771132999999999"><ele>0</ele></trkpt>
<trkpt lat="43.454593" lon="5.771319"><ele>0</ele></trkpt>
<trkpt lat="43.454508" lon="5.771465"><ele>0</ele></trkpt>
<trkpt lat="43.454596" lon="5.771615"><ele>0</ele></trkpt>
<trkpt lat="43.454635" lon="5.771801"><ele>0</ele></trkpt>
<trkpt lat="43.454758" lon="5.77188"><ele>0</ele></trkpt>
<trkpt lat="43.454909" lon="5.771956"><ele>0</ele></trkpt>
<trkpt lat="43.455046" lon="5.771961999999999"><ele>0</ele></trkpt>
<trkpt lat="43.455009" lon="5.77216"><ele>0</ele></trkpt>
<trkpt lat="43.45495" lon="5.772331"><ele>0</ele></trkpt>
<trkpt lat="43.454912" lon="5.772513"><ele>0</ele></trkpt>
<trkpt lat="43.454947" lon="5.772701"><ele>0</ele></trkpt>
<trkpt lat="43.454987" lon="5.772885"><ele>0</ele></trkpt>
<trkpt lat="43.454992" lon="5.773087000000001"><ele>0</ele></trkpt>
<trkpt lat="43.455049" lon="5.773261999999999"><ele>0</ele></trkpt>
<trkpt lat="43.455094" lon="5.773443999999999"><ele>0</ele></trkpt>
<trkpt lat="43.455137" lon="5.773628"><ele>0</ele></trkpt>
<trkpt lat="43.455186" lon="5.773854"><ele>0</ele></trkpt>
<trkpt lat="43.455159" lon="5.774051"><ele>0</ele></trkpt>
<trkpt lat="43.455058" lon="5.774189"><ele>0</ele></trkpt>
<trkpt lat="43.455028" lon="5.774374"><ele>0</ele></trkpt>
<trkpt lat="43.454949" lon="5.774524"><ele>0</ele></trkpt>
<trkpt lat="43.454932" lon="5.774723"><ele>0</ele></trkpt>
<trkpt lat="43.455009" lon="5.774886000000001"><ele>0</ele></trkpt>
<trkpt lat="43.455077" lon="5.775053"><ele>0</ele></trkpt>
<trkpt lat="43.455027" lon="5.775242999999999"><ele>0</ele></trkpt>
<trkpt lat="43.454962" lon="5.775418"><ele>0</ele></trkpt>
<trkpt lat="43.454975" lon="5.775639999999999"><ele>0</ele></trkpt>
<trkpt lat="43.455027" lon="5.775815"><ele>0</ele></trkpt>
<trkpt lat="43.45502" lon="5.776002000000001"><ele>0</ele></trkpt>
<trkpt lat="43.454959" lon="5.77618"><ele>0</ele></trkpt>
<trkpt lat="43.454906" lon="5.776354000000001"><ele>0</ele></trkpt>
<trkpt lat="43.455046" lon="5.776353"><ele>0</ele></trkpt>
<trkpt lat="43.455124" lon="5.776511"><ele>0</ele></trkpt>
<trkpt lat="43.455226" lon="5.776383"><ele>0</ele></trkpt>
<trkpt lat="43.455205" lon="5.776185000000001"><ele>0</ele></trkpt>
<trkpt lat="43.455254" lon="5.776008"><ele>0</ele></trkpt>
<trkpt lat="43.455347" lon="5.775873"><ele>0</ele></trkpt>
<trkpt lat="43.455488" lon="5.775804"><ele>0</ele></trkpt>
<trkpt lat="43.455609" lon="5.775719"><ele>0</ele></trkpt>
<trkpt lat="43.455728" lon="5.775623"><ele>0</ele></trkpt>
<trkpt lat="43.455869" lon="5.775584"><ele>0</ele></trkpt>
<trkpt lat="43.455991" lon="5.775491000000001"><ele>0</ele></trkpt>
<trkpt lat="43.456137" lon="5.775464"><ele>0</ele></trkpt>
<trkpt lat="43.456272" lon="5.775383"><ele>0</ele></trkpt>
<trkpt lat="43.45641" lon="5.775388"><ele>0</ele></trkpt>
<trkpt lat="43.456546" lon="5.775362"><ele>0</ele></trkpt>
<trkpt lat="43.456671" lon="5.775444000000001"><ele>0</ele></trkpt>
<trkpt lat="43.456794" lon="5.775523"><ele>0</ele></trkpt>
<trkpt lat="43.456922" lon="5.775643"><ele>0</ele></trkpt>
<trkpt lat="43.457041" lon="5.775756"><ele>0</ele></trkpt>
<trkpt lat="43.457143" lon="5.77588"><ele>0</ele></trkpt>
<trkpt lat="43.45722" lon="5.776061999999999"><ele>0</ele></trkpt>
<trkpt lat="43.457305" lon="5.77627"><ele>0</ele></trkpt>
<trkpt lat="43.457354" lon="5.776453"><ele>0</ele></trkpt>
<trkpt lat="43.457461" lon="5.776593999999999"><ele>0</ele></trkpt>
<trkpt lat="43.457596" lon="5.776605999999999"><ele>0</ele></trkpt>
<trkpt lat="43.45764" lon="5.77642"><ele>0</ele></trkpt>
<trkpt lat="43.457697" lon="5.776246"><ele>0</ele></trkpt>
<trkpt lat="43.457769" lon="5.776079"><ele>0</ele></trkpt>
<trkpt lat="43.457797" lon="5.775878000000001"><ele>0</ele></trkpt>
<trkpt lat="43.457787" lon="5.775686"><ele>0</ele></trkpt>
<trkpt lat="43.457835" lon="5.775493"><ele>0</ele></trkpt>
<trkpt lat="43.45792" lon="5.775347"><ele>0</ele></trkpt>
<trkpt lat="43.458037" lon="5.775237"><ele>0</ele></trkpt>
<trkpt lat="43.458153" lon="5.775103"><ele>0</ele></trkpt>
<trkpt lat="43.458219" lon="5.774931"><ele>0</ele></trkpt>
<trkpt lat="43.458341" lon="5.774807999999999"><ele>0</ele></trkpt>
<trkpt lat="43.458428" lon="5.774631"><ele>0</ele></trkpt>
<trkpt lat="43.458507" lon="5.774479"><ele>0</ele></trkpt>
<trkpt lat="43.458567" lon="5.774311"><ele>0</ele></trkpt>
<trkpt lat="43.458636" lon="5.774149"><ele>0</ele></trkpt>
<trkpt lat="43.45867" lon="5.773965"><ele>0</ele></trkpt>
<trkpt lat="43.458691" lon="5.773771999999999"><ele>0</ele></trkpt>
<trkpt lat="43.458705" lon="5.773588"><ele>0</ele></trkpt>
<trkpt lat="43.458724" lon="5.773391"><ele>0</ele></trkpt>
<trkpt lat="43.458738" lon="5.773197"><ele>0</ele></trkpt>
<trkpt lat="43.458724" lon="5.772994"><ele>0</ele></trkpt>
<trkpt lat="43.458721" lon="5.772808"><ele>0</ele></trkpt>
<trkpt lat="43.458709" lon="5.772617"><ele>0</ele></trkpt>
<trkpt lat="43.458688" lon="5.772429000000001"><ele>0</ele></trkpt>
<trkpt lat="43.45869" lon="5.772213999999999"><ele>0</ele></trkpt>
<trkpt lat="43.458642" lon="5.772016"><ele>0</ele></trkpt>
<trkpt lat="43.458649" lon="5.771825"><ele>0</ele></trkpt>
<trkpt lat="43.458712" lon="5.771648"><ele>0</ele></trkpt>
<trkpt lat="43.458833" lon="5.771519999999999"><ele>0</ele></trkpt>
<trkpt lat="43.458949" lon="5.771409"><ele>0</ele></trkpt>
<trkpt lat="43.459028" lon="5.771241"><ele>0</ele></trkpt>
<trkpt lat="43.459134" lon="5.771386"><ele>0</ele></trkpt>
<trkpt lat="43.45919" lon="5.771610999999999"><ele>0</ele></trkpt>
<trkpt lat="43.459284" lon="5.771749"><ele>0</ele></trkpt>
<trkpt lat="43.459335" lon="5.771950000000001"><ele>0</ele></trkpt>
<trkpt lat="43.459361" lon="5.772142"><ele>0</ele></trkpt>
<trkpt lat="43.459434" lon="5.772302"><ele>0</ele></trkpt>
<trkpt lat="43.459541" lon="5.772437"><ele>0</ele></trkpt>
<trkpt lat="43.459631" lon="5.772608"><ele>0</ele></trkpt>
<trkpt lat="43.45968" lon="5.772828000000001"><ele>0</ele></trkpt>
<trkpt lat="43.459772" lon="5.773024"><ele>0</ele></trkpt>
<trkpt lat="43.459927" lon="5.773088"><ele>0</ele></trkpt>
<trkpt lat="43.459972" lon="5.773282000000001"><ele>0</ele></trkpt>
<trkpt lat="43.460026" lon="5.773489000000001"><ele>0</ele></trkpt>
<trkpt lat="43.460082" lon="5.773662"><ele>0</ele></trkpt>
<trkpt lat="43.460145" lon="5.773852000000001"><ele>0</ele></trkpt>
<trkpt lat="43.460227" lon="5.774013"><ele>0</ele></trkpt>
<trkpt lat="43.46028" lon="5.774191"><ele>0</ele></trkpt>
<trkpt lat="43.460354" lon="5.774351999999999"><ele>0</ele></trkpt>
<trkpt lat="43.460464" lon="5.774465000000001"><ele>0</ele></trkpt>
<trkpt lat="43.460605" lon="5.774541"><ele>0</ele></trkpt>
<trkpt lat="43.460726" lon="5.774676"><ele>0</ele></trkpt>
<trkpt lat="43.460835" lon="5.774797999999999"><ele>0</ele></trkpt>
<trkpt lat="43.460908" lon="5.774965"><ele>0</ele></trkpt>
<trkpt lat="43.461059" lon="5.774945999999999"><ele>0</ele></trkpt>
<trkpt lat="43.46119" lon="5.774878"><ele>0</ele></trkpt>
<trkpt lat="43.46134" lon="5.774917"><ele>0</ele></trkpt>
<trkpt lat="43.461475" lon="5.774968999999999"><ele>0</ele></trkpt>
<trkpt lat="43.461518" lon="5.775149999999999"><ele>0</ele></trkpt>
<trkpt lat="43.461567" lon="5.775335"><ele>0</ele></trkpt>
<trkpt lat="43.461565" lon="5.775542"><ele>0</ele></trkpt>
<trkpt lat="43.46153" lon="5.775746"><ele>0</ele></trkpt>
<trkpt lat="43.461452" lon="5.775909000000001"><ele>0</ele></trkpt>
<trkpt lat="43.461424" lon="5.776101"><ele>0</ele></trkpt>
<trkpt lat="43.461443" lon="5.776296"><ele>0</ele></trkpt>
<trkpt lat="43.461455" lon="5.776502"><ele>0</ele></trkpt>
<trkpt lat="43.461469" lon="5.776707000000001"><ele>0</ele></trkpt>
<trkpt lat="43.461426" lon="5.776899"><ele>0</ele></trkpt>
<trkpt lat="43.461358" lon="5.777071000000001"><ele>0</ele></trkpt>
<trkpt lat="43.461291" lon="5.77724"><ele>0</ele></trkpt>
<trkpt lat="43.461315" lon="5.777442"><ele>0</ele></trkpt>
<trkpt lat="43.461326" lon="5.777629999999999"><ele>0</ele></trkpt>
<trkpt lat="43.461327" lon="5.777817"><ele>0</ele></trkpt>
<trkpt lat="43.461301" lon="5.778040999999999"><ele>0</ele></trkpt>
<trkpt lat="43.461308" lon="5.778253"><ele>0</ele></trkpt>
<trkpt lat="43.46139" lon="5.778403000000001"><ele>0</ele></trkpt>
<trkpt lat="43.461323" lon="5.778586999999999"><ele>0</ele></trkpt>
<trkpt lat="43.461256" lon="5.778778"><ele>0</ele></trkpt>
<trkpt lat="43.461317" lon="5.778959000000001"><ele>0</ele></trkpt>
<trkpt lat="43.461356" lon="5.779161"><ele>0</ele></trkpt>
<trkpt lat="43.461421" lon="5.779329"><ele>0</ele></trkpt>
<trkpt lat="43.461359" lon="5.779504"><ele>0</ele></trkpt>
<trkpt lat="43.46128" lon="5.779669"><ele>0</ele></trkpt>
<trkpt lat="43.461166" lon="5.779792"><ele>0</ele></trkpt>
<trkpt lat="43.461077" lon="5.779955"><ele>0</ele></trkpt>
<trkpt lat="43.461052" lon="5.780138"><ele>0</ele></trkpt>
<trkpt lat="43.461022" lon="5.780326"><ele>0</ele></trkpt>
<trkpt lat="43.461027" lon="5.780512"><ele>0</ele></trkpt>
<trkpt lat="43.460982" lon="5.780697"><ele>0</ele></trkpt>
<trkpt lat="43.461109" lon="5.780607"><ele>0</ele></trkpt>
<trkpt lat="43.461099" lon="5.780795999999999"><ele>0</ele></trkpt>
<trkpt lat="43.461171" lon="5.780962"><ele>0</ele></trkpt>
<trkpt lat="43.461284" lon="5.781074"><ele>0</ele></trkpt>
<trkpt lat="43.461391" lon="5.781186"><ele>0</ele></trkpt>
<trkpt lat="43.46152" lon="5.781255"><ele>0</ele></trkpt>
<trkpt lat="43.461644" lon="5.781327000000001"><ele>0</ele></trkpt>
<trkpt lat="43.46179" lon="5.7813"><ele>0</ele></trkpt>
<trkpt lat="43.461922" lon="5.781244"><ele>0</ele></trkpt>
<trkpt lat="43.461977" lon="5.781049"><ele>0</ele></trkpt>
<trkpt lat="43.462107" lon="5.780994"><ele>0</ele></trkpt>
<trkpt lat="43.462231" lon="5.781078000000001"><ele>0</ele></trkpt>
<trkpt lat="43.462333" lon="5.781207"><ele>0</ele></trkpt>
<trkpt lat="43.462467" lon="5.781246"><ele>0</ele></trkpt>
<trkpt lat="43.462587" lon="5.781134"><ele>0</ele></trkpt>
<trkpt lat="43.462715" lon="5.781066000000001"><ele>0</ele></trkpt>
<trkpt lat="43.462843" lon="5.780986000000001"><ele>0</ele></trkpt>
<trkpt lat="43.462977" lon="5.781072"><ele>0</ele></trkpt>
<trkpt lat="43.463117" lon="5.781145000000001"><ele>0</ele></trkpt>
<trkpt lat="43.463199" lon="5.781299"><ele>0</ele></trkpt>
<trkpt lat="43.463302" lon="5.781428"><ele>0</ele></trkpt>
<trkpt lat="43.463437" lon="5.781439"><ele>0</ele></trkpt>
<trkpt lat="43.463563" lon="5.781338"><ele>0</ele></trkpt>
<trkpt lat="43.463654" lon="5.781197"><ele>0</ele></trkpt>
<trkpt lat="43.463786" lon="5.781122"><ele>0</ele></trkpt>
<trkpt lat="43.463911" lon="5.781032"><ele>0</ele></trkpt>
<trkpt lat="43.464033" lon="5.780949"><ele>0</ele></trkpt>
<trkpt lat="43.464148" lon="5.78082"><ele>0</ele></trkpt>
<trkpt lat="43.464282" lon="5.780748000000001"><ele>0</ele></trkpt>
<trkpt lat="43.464419" lon="5.780606"><ele>0</ele></trkpt>
<trkpt lat="43.464557" lon="5.780512"><ele>0</ele></trkpt>
<trkpt lat="43.464611" lon="5.780334"><ele>0</ele></trkpt>
<trkpt lat="43.464706" lon="5.780194"><ele>0</ele></trkpt>
<trkpt lat="43.464825" lon="5.780068"><ele>0</ele></trkpt>
<trkpt lat="43.464934" lon="5.779952000000001"><ele>0</ele></trkpt>
<trkpt lat="43.465082" lon="5.779967"><ele>0</ele></trkpt>
<trkpt lat="43.465275" lon="5.77999"><ele>0</ele></trkpt>
<trkpt lat="43.465398" lon="5.780090999999999"><ele>0</ele></trkpt>
<trkpt lat="43.465486" lon="5.780245"><ele>0</ele></trkpt>
<trkpt lat="43.46554" lon="5.780418000000001"><ele>0</ele></trkpt>
<trkpt lat="43.465611" lon="5.780581"><ele>0</ele></trkpt>
<trkpt lat="43.465646" lon="5.780775"><ele>0</ele></trkpt>
<trkpt lat="43.465752" lon="5.780926"><ele>0</ele></trkpt>
<trkpt lat="43.465825" lon="5.781086"><ele>0</ele></trkpt>
<trkpt lat="43.465899" lon="5.781244"><ele>0</ele></trkpt>
<trkpt lat="43.466031" lon="5.781293"><ele>0</ele></trkpt>
<trkpt lat="43.4661" lon="5.781465999999999"><ele>0</ele></trkpt>
<trkpt lat="43.466146" lon="5.781663"><ele>0</ele></trkpt>
<trkpt lat="43.466179" lon="5.781859"><ele>0</ele></trkpt>
<trkpt lat="43.466302" lon="5.781952000000001"><ele>0</ele></trkpt>
<trkpt lat="43.466371" lon="5.782155"><ele>0</ele></trkpt>
<trkpt lat="43.466463" lon="5.782297000000001"><ele>0</ele></trkpt>
<trkpt lat="43.466562" lon="5.782456000000001"><ele>0</ele></trkpt>
<trkpt lat="43.466689" lon="5.782613"><ele>0</ele></trkpt>
<trkpt lat="43.466743" lon="5.782819999999999"><ele>0</ele></trkpt>
<trkpt lat="43.466726" lon="5.783011"><ele>0</ele></trkpt>
<trkpt lat="43.466716" lon="5.783214"><ele>0</ele></trkpt>
<trkpt lat="43.466759" lon="5.783401"><ele>0</ele></trkpt>
<trkpt lat="43.466866" lon="5.783564"><ele>0</ele></trkpt>
<trkpt lat="43.466947" lon="5.783736"><ele>0</ele></trkpt>
<trkpt lat="43.467045" lon="5.783888000000001"><ele>0</ele></trkpt>
<trkpt lat="43.467132" lon="5.784036000000001"><ele>0</ele></trkpt>
<trkpt lat="43.467215" lon="5.784182"><ele>0</ele></trkpt>
<trkpt lat="43.467289" lon="5.784344999999999"><ele>0</ele></trkpt>
<trkpt lat="43.467372" lon="5.784498"><ele>0</ele></trkpt>
<trkpt lat="43.46745" lon="5.784651999999999"><ele>0</ele></trkpt>
<trkpt lat="43.467538" lon="5.784804"><ele>0</ele></trkpt>
<trkpt lat="43.46765" lon="5.784913"><ele>0</ele></trkpt>
<trkpt lat="43.46775" lon="5.785044"><ele>0</ele></trkpt>
<trkpt lat="43.467888" lon="5.785034"><ele>0</ele></trkpt>
<trkpt lat="43.468017" lon="5.785107999999999"><ele>0</ele></trkpt>
<trkpt lat="43.468139" lon="5.785211"><ele>0</ele></trkpt>
<trkpt lat="43.468272" lon="5.785251"><ele>0</ele></trkpt>
<trkpt lat="43.468421" lon="5.78525"><ele>0</ele></trkpt>
<trkpt lat="43.468557" lon="5.785317"><ele>0</ele></trkpt>
<trkpt lat="43.468677" lon="5.785406"><ele>0</ele></trkpt>
<trkpt lat="43.468813" lon="5.785444"><ele>0</ele></trkpt>
<trkpt lat="43.468958" lon="5.785482000000001"><ele>0</ele></trkpt>
<trkpt lat="43.468948" lon="5.785273"><ele>0</ele></trkpt>
<trkpt lat="43.468931" lon="5.785083999999999"><ele>0</ele></trkpt>
<trkpt lat="43.469006" lon="5.784917"><ele>0</ele></trkpt>
<trkpt lat="43.469089" lon="5.784758"><ele>0</ele></trkpt>
<trkpt lat="43.469149" lon="5.784583"><ele>0</ele></trkpt>
<trkpt lat="43.469248" lon="5.784454"><ele>0</ele></trkpt>
<trkpt lat="43.469305" lon="5.784278"><ele>0</ele></trkpt>
<trkpt lat="43.469385" lon="5.784125"><ele>0</ele></trkpt>
<trkpt lat="43.469463" lon="5.783968"><ele>0</ele></trkpt>
<trkpt lat="43.469472" lon="5.783767"><ele>0</ele></trkpt>
<trkpt lat="43.4695" lon="5.783578"><ele>0</ele></trkpt>
<trkpt lat="43.469531" lon="5.783391"><ele>0</ele></trkpt>
<trkpt lat="43.46959" lon="5.783212"><ele>0</ele></trkpt>
<trkpt lat="43.469654" lon="5.783038"><ele>0</ele></trkpt>
<trkpt lat="43.469705" lon="5.782855000000001"><ele>0</ele></trkpt>
<trkpt lat="43.469807" lon="5.782713"><ele>0</ele></trkpt>
<trkpt lat="43.46995" lon="5.782715"><ele>0</ele></trkpt>
<trkpt lat="43.470085" lon="5.782851"><ele>0</ele></trkpt>
<trkpt lat="43.470206" lon="5.78276"><ele>0</ele></trkpt>
<trkpt lat="43.47028" lon="5.782591000000001"><ele>0</ele></trkpt>
<trkpt lat="43.470359" lon="5.782425"><ele>0</ele></trkpt>
</trkseg></trk>
</gpx>