<?xml version="1.0" encoding="UTF-8"?>
<gpx version="1.1" creator="Marando" xmlns="http://www.topografix.com/GPX/1/1">
<wpt lat="43.532537" lon="6.192782"><ele>0</ele><name>Amélanchier</name><desc>https://live.staticflickr.com/65535/51821023930_92cc8d10d2_b.jpg</desc></wpt>
<wpt lat="43.535307" lon="6.18693"><ele>0</ele><name>Arrivée</name><desc>Nom: Segment: 1Heure de départ: 14:06 14 janv. 2022Heure d'arrivée: 16:05 14 janv. 2022Distance: 4,7km (01:58)Temps déplacement: 01:43Vitesse moyenne: 2,4 km/hVitesse moyenne mouv.: 2,76 km/hVitesse Max.: 5,34 km/hAltitude minimale: 284 mAltitude maximale: 362 mVitesse de montée: 116,9 m/hVitesse de descente: 141,1 m/hGain d'altitude: 120 mPerte d'altitude: 122 mTemps de montée: 01:02Temps de descente: 00:52</desc></wpt>
<wpt lat="43.53219" lon="6.19835"><ele>0</ele><name>Chapelle</name><desc>https://live.staticflickr.com/65535/51820629654_cc8372636d_b.jpg</desc></wpt>
<wpt lat="43.532018" lon="6.195769"><ele>0</ele><name>Château de Riforan 1</name><desc>https://live.staticflickr.com/65535/51820635029_884fc518d8_b.jpg</desc></wpt>
<wpt lat="43.531752" lon="6.198225"><ele>0</ele><name>Chêne</name><desc>https://live.staticflickr.com/65535/51820398093_9cb8a4c66d_b.jpg</desc></wpt>
<wpt lat="43.535247" lon="6.187123"><ele>0</ele><name>Départ</name></wpt>
<wpt lat="43.532981" lon="6.196754"><ele>0</ele><name>Platanes</name><desc>https://live.staticflickr.com/65535/51821006520_80422de1f6_b.jpg</desc></wpt>
<wpt lat="43.532039" lon="6.196532"><ele>0</ele><name>Riforan 2</name><desc>https://live.staticflickr.com/65535/51820633819_b30b22a6c1_b.jpg</desc></wpt>
<wpt lat="43.532738" lon="6.196417"><ele>0</ele><name>Riforan 3</name><desc>https://live.staticflickr.com/65535/51820288686_6ab760d591_b.jpg</desc></wpt>
<wpt lat="43.531694" lon="6.197949"><ele>0</ele><name>Riforan 4</name></wpt>
<wpt lat="43.531694" lon="6.197949"><ele>0</ele><name>Riforan 5</name><desc>https://live.staticflickr.com/65535/51820397388_f9d9a8109c_b.jpg</desc></wpt>
<wpt lat="43.531977" lon="6.197844"><ele>0</ele><name>Station météo</name><desc>https://live.staticflickr.com/65535/51819335247_e61ca806e5_b.jpg</desc></wpt>
<wpt lat="43.532389" lon="6.192857"><ele>0</ele><name>Vipérine d'Italie</name><desc>https://live.staticflickr.com/65535/51820306536_3f3d6b515b_b.jpg</desc></wpt>
<trk><name>riforan</name><trkseg>
<trkpt lat="43.535247" lon="6.187123"><ele>0</ele></trkpt>
<trkpt lat="43.535388" lon="6.18728"><ele>0</ele></trkpt>
<trkpt lat="43.535509" lon="6.187484"><ele>0</ele></trkpt>
<trkpt lat="43.535651" lon="6.187651"><ele>0</ele></trkpt>
<trkpt lat="43.535764" lon="6.187856"><ele>0</ele></trkpt>
<trkpt lat="43.535877" lon="6.188064"><ele>0</ele></trkpt>
<trkpt lat="43.535996" lon="6.188252"><ele>0</ele></trkpt>
<trkpt lat="43.536109" lon="6.18846"><ele>0</ele></trkpt>
<trkpt lat="43.536251" lon="6.188616"><ele>0</ele></trkpt>
<trkpt lat="43.53638" lon="6.1888"><ele>0</ele></trkpt>
<trkpt lat="43.536522" lon="6.188967"><ele>0</ele></trkpt>
<trkpt lat="43.536671" lon="6.189125"><ele>0</ele></trkpt>
<trkpt lat="43.536825" lon="6.189277"><ele>0</ele></trkpt>
<trkpt lat="43.536899" lon="6.18951"><ele>0</ele></trkpt>
<trkpt lat="43.536916" lon="6.189763"><ele>0</ele></trkpt>
<trkpt lat="43.536897" lon="6.190024"><ele>0</ele></trkpt>
<trkpt lat="43.536855" lon="6.190281"><ele>0</ele></trkpt>
<trkpt lat="43.536792" lon="6.19053"><ele>0</ele></trkpt>
<trkpt lat="43.536804" lon="6.190785"><ele>0</ele></trkpt>
<trkpt lat="43.536969" lon="6.1909"><ele>0</ele></trkpt>
<trkpt lat="43.537158" lon="6.190914"><ele>0</ele></trkpt>
<trkpt lat="43.537355" lon="6.19089"><ele>0</ele></trkpt>
<trkpt lat="43.537541" lon="6.190867"><ele>0</ele></trkpt>
<trkpt lat="43.537727" lon="6.190825"><ele>0</ele></trkpt>
<trkpt lat="43.537907" lon="6.190785"><ele>0</ele></trkpt>
<trkpt lat="43.538092" lon="6.190751"><ele>0</ele></trkpt>
<trkpt lat="43.538273" lon="6.190704"><ele>0</ele></trkpt>
<trkpt lat="43.538459" lon="6.190717"><ele>0</ele></trkpt>
<trkpt lat="43.538645" lon="6.190759"><ele>0</ele></trkpt>
<trkpt lat="43.538828" lon="6.190794"><ele>0</ele></trkpt>
<trkpt lat="43.539003" lon="6.190868"><ele>0</ele></trkpt>
<trkpt lat="43.539177" lon="6.190942"><ele>0</ele></trkpt>
<trkpt lat="43.539362" lon="6.191002"><ele>0</ele></trkpt>
<trkpt lat="43.539546" lon="6.191026"><ele>0</ele></trkpt>
<trkpt lat="43.539728" lon="6.19106"><ele>0</ele></trkpt>
<trkpt lat="43.539901" lon="6.191147"><ele>0</ele></trkpt>
<trkpt lat="43.540075" lon="6.19123"><ele>0</ele></trkpt>
<trkpt lat="43.540247" lon="6.191323"><ele>0</ele></trkpt>
<trkpt lat="43.54022" lon="6.19157"><ele>0</ele></trkpt>
<trkpt lat="43.540069" lon="6.19171"><ele>0</ele></trkpt>
<trkpt lat="43.539924" lon="6.191862"><ele>0</ele></trkpt>
<trkpt lat="43.539779" lon="6.192016"><ele>0</ele></trkpt>
<trkpt lat="43.539634" lon="6.192173"><ele>0</ele></trkpt>
<trkpt lat="43.539478" lon="6.192311"><ele>0</ele></trkpt>
<trkpt lat="43.539331" lon="6.192456"><ele>0</ele></trkpt>
<trkpt lat="43.53918" lon="6.192595"><ele>0</ele></trkpt>
<trkpt lat="43.539006" lon="6.192684"><ele>0</ele></trkpt>
<trkpt lat="43.538821" lon="6.192639"><ele>0</ele></trkpt>
<trkpt lat="43.53864" lon="6.192587"><ele>0</ele></trkpt>
<trkpt lat="43.538455" lon="6.192534"><ele>0</ele></trkpt>
<trkpt lat="43.538273" lon="6.19249"><ele>0</ele></trkpt>
<trkpt lat="43.538089" lon="6.192483"><ele>0</ele></trkpt>
<trkpt lat="43.537913" lon="6.192563"><ele>0</ele></trkpt>
<trkpt lat="43.537738" lon="6.192632"><ele>0</ele></trkpt>
<trkpt lat="43.537571" lon="6.19274"><ele>0</ele></trkpt>
<trkpt lat="43.537399" lon="6.192836"><ele>0</ele></trkpt>
<trkpt lat="43.537222" lon="6.19292"><ele>0</ele></trkpt>
<trkpt lat="43.537064" lon="6.193047"><ele>0</ele></trkpt>
<trkpt lat="43.5369" lon="6.193168"><ele>0</ele></trkpt>
<trkpt lat="43.536741" lon="6.193297"><ele>0</ele></trkpt>
<trkpt lat="43.536577" lon="6.193397"><ele>0</ele></trkpt>
<trkpt lat="43.536408" lon="6.19351"><ele>0</ele></trkpt>
<trkpt lat="43.536238" lon="6.193597"><ele>0</ele></trkpt>
<trkpt lat="43.536066" lon="6.1937"><ele>0</ele></trkpt>
<trkpt lat="43.535893" lon="6.193778"><ele>0</ele></trkpt>
<trkpt lat="43.535716" lon="6.193867"><ele>0</ele></trkpt>
<trkpt lat="43.535536" lon="6.193919"><ele>0</ele></trkpt>
<trkpt lat="43.535359" lon="6.193839"><ele>0</ele></trkpt>
<trkpt lat="43.535206" lon="6.193688"><ele>0</ele></trkpt>
<trkpt lat="43.535061" lon="6.193532"><ele>0</ele></trkpt>
<trkpt lat="43.534982" lon="6.193305"><ele>0</ele></trkpt>
<trkpt lat="43.534933" lon="6.193062"><ele>0</ele></trkpt>
<trkpt lat="43.534876" lon="6.19282"><ele>0</ele></trkpt>
<trkpt lat="43.534818" lon="6.192582"><ele>0</ele></trkpt>
<trkpt lat="43.534713" lon="6.192376"><ele>0</ele></trkpt>
<trkpt lat="43.534599" lon="6.192179"><ele>0</ele></trkpt>
<trkpt lat="43.53449" lon="6.191971"><ele>0</ele></trkpt>
<trkpt lat="43.534425" lon="6.191734"><ele>0</ele></trkpt>
<trkpt lat="43.534362" lon="6.191496"><ele>0</ele></trkpt>
<trkpt lat="43.534248" lon="6.191293"><ele>0</ele></trkpt>
<trkpt lat="43.534117" lon="6.191121"><ele>0</ele></trkpt>
<trkpt lat="43.534007" lon="6.190915"><ele>0</ele></trkpt>
<trkpt lat="43.533827" lon="6.190869"><ele>0</ele></trkpt>
<trkpt lat="43.533648" lon="6.190934"><ele>0</ele></trkpt>
<trkpt lat="43.533477" lon="6.191017"><ele>0</ele></trkpt>
<trkpt lat="43.533293" lon="6.190985"><ele>0</ele></trkpt>
<trkpt lat="43.533117" lon="6.190914"><ele>0</ele></trkpt>
<trkpt lat="43.53296" lon="6.190794"><ele>0</ele></trkpt>
<trkpt lat="43.532956" lon="6.190542"><ele>0</ele></trkpt>
<trkpt lat="43.532916" lon="6.190296"><ele>0</ele></trkpt>
<trkpt lat="43.532882" lon="6.190052"><ele>0</ele></trkpt>
<trkpt lat="43.532735" lon="6.189904"><ele>0</ele></trkpt>
<trkpt lat="43.532557" lon="6.189959"><ele>0</ele></trkpt>
<trkpt lat="43.532388" lon="6.190065"><ele>0</ele></trkpt>
<trkpt lat="43.532304" lon="6.190293"><ele>0</ele></trkpt>
<trkpt lat="43.532303" lon="6.190544"><ele>0</ele></trkpt>
<trkpt lat="43.532374" lon="6.190775"><ele>0</ele></trkpt>
<trkpt lat="43.532414" lon="6.191018"><ele>0</ele></trkpt>
<trkpt lat="43.532483" lon="6.191258"><ele>0</ele></trkpt>
<trkpt lat="43.532562" lon="6.191483"><ele>0</ele></trkpt>
<trkpt lat="43.532617" lon="6.19172"><ele>0</ele></trkpt>
<trkpt lat="43.532624" lon="6.191982"><ele>0</ele></trkpt>
<trkpt lat="43.532587" lon="6.192235"><ele>0</ele></trkpt>
<trkpt lat="43.532645" lon="6.192473"><ele>0</ele></trkpt>
<trkpt lat="43.532583" lon="6.19271"><ele>0</ele></trkpt>
<trkpt lat="43.53243" lon="6.192844"><ele>0</ele></trkpt>
<trkpt lat="43.532543" lon="6.19265"><ele>0</ele></trkpt>
<trkpt lat="43.532354" lon="6.192651"><ele>0</ele></trkpt>
<trkpt lat="43.53217" lon="6.192689"><ele>0</ele></trkpt>
<trkpt lat="43.532009" lon="6.192802"><ele>0</ele></trkpt>
<trkpt lat="43.532006" lon="6.193063"><ele>0</ele></trkpt>
<trkpt lat="43.532021" lon="6.193317"><ele>0</ele></trkpt>
<trkpt lat="43.532073" lon="6.193564"><ele>0</ele></trkpt>
<trkpt lat="43.532105" lon="6.193813"><ele>0</ele></trkpt>
<trkpt lat="43.532047" lon="6.194052"><ele>0</ele></trkpt>
<trkpt lat="43.532054" lon="6.194308"><ele>0</ele></trkpt>
<trkpt lat="43.532077" lon="6.19456"><ele>0</ele></trkpt>
<trkpt lat="43.532104" lon="6.194809"><ele>0</ele></trkpt>
<trkpt lat="43.532111" lon="6.195058"><ele>0</ele></trkpt>
<trkpt lat="43.532088" lon="6.195315"><ele>0</ele></trkpt>
<trkpt lat="43.532037" lon="6.195558"><ele>0</ele></trkpt>
<trkpt lat="43.531999" lon="6.195817"><ele>0</ele></trkpt>
<trkpt lat="43.531891" lon="6.196025"><ele>0</ele></trkpt>
<trkpt lat="43.531823" lon="6.196263"><ele>0</ele></trkpt>
<trkpt lat="43.531798" lon="6.196521"><ele>0</ele></trkpt>
<trkpt lat="43.53198" lon="6.196496"><ele>0</ele></trkpt>
<trkpt lat="43.532154" lon="6.19641"><ele>0</ele></trkpt>
<trkpt lat="43.532323" lon="6.196299"><ele>0</ele></trkpt>
<trkpt lat="43.53251" lon="6.196298"><ele>0</ele></trkpt>
<trkpt lat="43.532673" lon="6.196409"><ele>0</ele></trkpt>
<trkpt lat="43.532751" lon="6.196639"><ele>0</ele></trkpt>
<trkpt lat="43.532925" lon="6.196719"><ele>0</ele></trkpt>
<trkpt lat="43.532738" lon="6.196734"><ele>0</ele></trkpt>
<trkpt lat="43.532592" lon="6.196892"><ele>0</ele></trkpt>
<trkpt lat="43.532586" lon="6.197149"><ele>0</ele></trkpt>
<trkpt lat="43.532579" lon="6.197399"><ele>0</ele></trkpt>
<trkpt lat="43.53275" lon="6.197508"><ele>0</ele></trkpt>
<trkpt lat="43.53293" lon="6.197542"><ele>0</ele></trkpt>
<trkpt lat="43.533094" lon="6.197662"><ele>0</ele></trkpt>
<trkpt lat="43.532924" lon="6.197569"><ele>0</ele></trkpt>
<trkpt lat="43.532786" lon="6.197748"><ele>0</ele></trkpt>
<trkpt lat="43.532651" lon="6.197926"><ele>0</ele></trkpt>
<trkpt lat="43.532551" lon="6.198135"><ele>0</ele></trkpt>
<trkpt lat="43.532439" lon="6.198343"><ele>0</ele></trkpt>
<trkpt lat="43.532257" lon="6.198402"><ele>0</ele></trkpt>
<trkpt lat="43.532101" lon="6.19827"><ele>0</ele></trkpt>
<trkpt lat="43.532133" lon="6.198517"><ele>0</ele></trkpt>
<trkpt lat="43.531955" lon="6.198473"><ele>0</ele></trkpt>
<trkpt lat="43.531794" lon="6.19833"><ele>0</ele></trkpt>
<trkpt lat="43.53181" lon="6.198079"><ele>0</ele></trkpt>
<trkpt lat="43.531913" lon="6.197874"><ele>0</ele></trkpt>
<trkpt lat="43.531729" lon="6.197938"><ele>0</ele></trkpt>
<trkpt lat="43.531541" lon="6.197984"><ele>0</ele></trkpt>
<trkpt lat="43.531495" lon="6.19774"><ele>0</ele></trkpt>
<trkpt lat="43.531442" lon="6.197492"><ele>0</ele></trkpt>
<trkpt lat="43.531525" lon="6.197264"><ele>0</ele></trkpt>
<trkpt lat="43.531629" lon="6.197048"><ele>0</ele></trkpt>
<trkpt lat="43.531693" lon="6.196803"><ele>0</ele></trkpt>
<trkpt lat="43.531757" lon="6.196562"><ele>0</ele></trkpt>
<trkpt lat="43.531701" lon="6.196325"><ele>0</ele></trkpt>
<trkpt lat="43.53169" lon="6.196074"><ele>0</ele></trkpt>
<trkpt lat="43.531825" lon="6.195899"><ele>0</ele></trkpt>
<trkpt lat="43.531965" lon="6.195736"><ele>0</ele></trkpt>
<trkpt lat="43.532045" lon="6.195513"><ele>0</ele></trkpt>
<trkpt lat="43.532099" lon="6.195273"><ele>0</ele></trkpt>
<trkpt lat="43.532135" lon="6.195027"><ele>0</ele></trkpt>
<trkpt lat="43.532115" lon="6.194774"><ele>0</ele></trkpt>
<trkpt lat="43.532095" lon="6.194525"><ele>0</ele></trkpt>
<trkpt lat="43.532059" lon="6.194277"><ele>0</ele></trkpt>
<trkpt lat="43.532071" lon="6.194017"><ele>0</ele></trkpt>
<trkpt lat="43.532108" lon="6.193772"><ele>0</ele></trkpt>
<trkpt lat="43.532074" lon="6.193525"><ele>0</ele></trkpt>
<trkpt lat="43.532016" lon="6.193279"><ele>0</ele></trkpt>
<trkpt lat="43.53201" lon="6.193022"><ele>0</ele></trkpt>
<trkpt lat="43.532023" lon="6.19277"><ele>0</ele></trkpt>
<trkpt lat="43.532194" lon="6.192671"><ele>0</ele></trkpt>
<trkpt lat="43.532375" lon="6.192645"><ele>0</ele></trkpt>
<trkpt lat="43.532556" lon="6.192601"><ele>0</ele></trkpt>
<trkpt lat="43.532711" lon="6.192472"><ele>0</ele></trkpt>
<trkpt lat="43.532683" lon="6.192221"><ele>0</ele></trkpt>
<trkpt lat="43.532667" lon="6.191974"><ele>0</ele></trkpt>
<trkpt lat="43.532636" lon="6.191727"><ele>0</ele></trkpt>
<trkpt lat="43.532587" lon="6.191477"><ele>0</ele></trkpt>
<trkpt lat="43.532495" lon="6.191253"><ele>0</ele></trkpt>
<trkpt lat="43.532435" lon="6.191013"><ele>0</ele></trkpt>
<trkpt lat="43.532389" lon="6.190763"><ele>0</ele></trkpt>
<trkpt lat="43.532352" lon="6.190508"><ele>0</ele></trkpt>
<trkpt lat="43.532264" lon="6.190291"><ele>0</ele></trkpt>
<trkpt lat="43.532261" lon="6.190036"><ele>0</ele></trkpt>
<trkpt lat="43.532368" lon="6.189835"><ele>0</ele></trkpt>
<trkpt lat="43.532522" lon="6.189697"><ele>0</ele></trkpt>
<trkpt lat="43.532666" lon="6.189534"><ele>0</ele></trkpt>
<trkpt lat="43.532752" lon="6.189314"><ele>0</ele></trkpt>
<trkpt lat="43.532692" lon="6.189077"><ele>0</ele></trkpt>
<trkpt lat="43.532668" lon="6.188817"><ele>0</ele></trkpt>
<trkpt lat="43.532642" lon="6.188563"><ele>0</ele></trkpt>
<trkpt lat="43.532597" lon="6.188318"><ele>0</ele></trkpt>
<trkpt lat="43.532539" lon="6.188078"><ele>0</ele></trkpt>
<trkpt lat="43.532458" lon="6.187847"><ele>0</ele></trkpt>
<trkpt lat="43.532409" lon="6.1876"><ele>0</ele></trkpt>
<trkpt lat="43.532413" lon="6.187349"><ele>0</ele></trkpt>
<trkpt lat="43.532349" lon="6.187111"><ele>0</ele></trkpt>
<trkpt lat="43.532476" lon="6.187293"><ele>0</ele></trkpt>
<trkpt lat="43.532359" lon="6.187097"><ele>0</ele></trkpt>
<trkpt lat="43.532263" lon="6.186874"><ele>0</ele></trkpt>
<trkpt lat="43.532322" lon="6.186632"><ele>0</ele></trkpt>
<trkpt lat="43.532448" lon="6.186452"><ele>0</ele></trkpt>
<trkpt lat="43.532481" lon="6.186197"><ele>0</ele></trkpt>
<trkpt lat="43.532557" lon="6.185971"><ele>0</ele></trkpt>
<trkpt lat="43.532685" lon="6.185788"><ele>0</ele></trkpt>
<trkpt lat="43.532823" lon="6.185627"><ele>0</ele></trkpt>
<trkpt lat="43.532907" lon="6.18539"><ele>0</ele></trkpt>
<trkpt lat="43.532949" lon="6.185139"><ele>0</ele></trkpt>
<trkpt lat="43.533035" lon="6.184909"><ele>0</ele></trkpt>
<trkpt lat="43.533134" lon="6.184686"><ele>0</ele></trkpt>
<trkpt lat="43.533229" lon="6.184463"><ele>0</ele></trkpt>
<trkpt lat="43.53334" lon="6.184264"><ele>0</ele></trkpt>
<trkpt lat="43.533457" lon="6.184458"><ele>0</ele></trkpt>
<trkpt lat="43.533573" lon="6.184654"><ele>0</ele></trkpt>
<trkpt lat="43.533697" lon="6.184841"><ele>0</ele></trkpt>
<trkpt lat="43.533815" lon="6.185038"><ele>0</ele></trkpt>
<trkpt lat="43.533935" lon="6.185234"><ele>0</ele></trkpt>
<trkpt lat="43.534054" lon="6.185436"><ele>0</ele></trkpt>
<trkpt lat="43.534166" lon="6.185637"><ele>0</ele></trkpt>
<trkpt lat="43.534294" lon="6.185822"><ele>0</ele></trkpt>
<trkpt lat="43.534451" lon="6.185964"><ele>0</ele></trkpt>
<trkpt lat="43.534599" lon="6.186117"><ele>0</ele></trkpt>
<trkpt lat="43.534745" lon="6.186287"><ele>0</ele></trkpt>
<trkpt lat="43.534902" lon="6.186421"><ele>0</ele></trkpt>
<trkpt lat="43.535046" lon="6.186573"><ele>0</ele></trkpt>
<trkpt lat="43.535171" lon="6.186762"><ele>0</ele></trkpt>
<trkpt lat="43.535307" lon="6.18693"><ele>0</ele></trkpt>
</trkseg></trk>
</gpx>