<?xml version="1.0" encoding="UTF-8"?>
<kml xmlns="http://www.opengis.net/kml/2.2"><Document><name>riforan_entrecasteaux</name>
<Placemark><name>Tracé</name><Style><LineStyle><color>ff5aad7a</color><width>3</width></LineStyle></Style><LineString><altitudeMode>clampToGround</altitudeMode><coordinates>6.187123,43.535247,0
6.18728,43.535388,0
6.187484,43.535509,0
6.187651,43.535651,0
6.187856,43.535764,0
6.188064,43.535877,0
6.188252,43.535996,0
6.18846,43.536109,0
6.188616,43.536251,0
6.1888,43.53638,0
6.188967,43.536522,0
6.189125,43.536671,0
6.189277,43.536825,0
6.18951,43.536899,0
6.189763,43.536916,0
6.190024,43.536897,0
6.190281,43.536855,0
6.19053,43.536792,0
6.190785,43.536804,0
6.1909,43.536969,0
6.190914,43.537158,0
6.19089,43.537355,0
6.190867,43.537541,0
6.190825,43.537727,0
6.190785,43.537907,0
6.190751,43.538092,0
6.190704,43.538273,0
6.190717,43.538459,0
6.190759,43.538645,0
6.190794,43.538828,0
6.190868,43.539003,0
6.190942,43.539177,0
6.191002,43.539362,0
6.191026,43.539546,0
6.19106,43.539728,0
6.191147,43.539901,0
6.19123,43.540075,0
6.191323,43.540247,0
6.19157,43.54022,0
6.19171,43.540069,0
6.191862,43.539924,0
6.192016,43.539779,0
6.192173,43.539634,0
6.192311,43.539478,0
6.192456,43.539331,0
6.192595,43.53918,0
6.192684,43.539006,0
6.192639,43.538821,0
6.192587,43.53864,0
6.192534,43.538455,0
6.19249,43.538273,0
6.192483,43.538089,0
6.192563,43.537913,0
6.192632,43.537738,0
6.19274,43.537571,0
6.192836,43.537399,0
6.19292,43.537222,0
6.193047,43.537064,0
6.193168,43.5369,0
6.193297,43.536741,0
6.193397,43.536577,0
6.19351,43.536408,0
6.193597,43.536238,0
6.1937,43.536066,0
6.193778,43.535893,0
6.193867,43.535716,0
6.193919,43.535536,0
6.193839,43.535359,0
6.193688,43.535206,0
6.193532,43.535061,0
6.193305,43.534982,0
6.193062,43.534933,0
6.19282,43.534876,0
6.192582,43.534818,0
6.192376,43.534713,0
6.192179,43.534599,0
6.191971,43.53449,0
6.191734,43.534425,0
6.191496,43.534362,0
6.191293,43.534248,0
6.191121,43.534117,0
6.190915,43.534007,0
6.190869,43.533827,0
6.190934,43.533648,0
6.191017,43.533477,0
6.190985,43.533293,0
6.190914,43.533117,0
6.190794,43.53296,0
6.190542,43.532956,0
6.190296,43.532916,0
6.190052,43.532882,0
6.189904,43.532735,0
6.189959,43.532557,0
6.190065,43.532388,0
6.190293,43.532304,0
6.190544,43.532303,0
6.190775,43.532374,0
6.191018,43.532414,0
6.191258,43.532483,0
6.191483,43.532562,0
6.19172,43.532617,0
6.191982,43.532624,0
6.192235,43.532587,0
6.192473,43.532645,0
6.19271,43.532583,0
6.192844,43.53243,0
6.19265,43.532543,0
6.192651,43.532354,0
6.192689,43.53217,0
6.192802,43.532009,0
6.193063,43.532006,0
6.193317,43.532021,0
6.193564,43.532073,0
6.193813,43.532105,0
6.194052,43.532047,0
6.194308,43.532054,0
6.19456,43.532077,0
6.194809,43.532104,0
6.195058,43.532111,0
6.195315,43.532088,0
6.195558,43.532037,0
6.195817,43.531999,0
6.196025,43.531891,0
6.196263,43.531823,0
6.196521,43.531798,0
6.196496,43.53198,0
6.19641,43.532154,0
6.196299,43.532323,0
6.196298,43.53251,0
6.196409,43.532673,0
6.196639,43.532751,0
6.196719,43.532925,0
6.196734,43.532738,0
6.196892,43.532592,0
6.197149,43.532586,0
6.197399,43.532579,0
6.197508,43.53275,0
6.197542,43.53293,0
6.197662,43.533094,0
6.197569,43.532924,0
6.197748,43.532786,0
6.197926,43.532651,0
6.198135,43.532551,0
6.198343,43.532439,0
6.198402,43.532257,0
6.19827,43.532101,0
6.198517,43.532133,0
6.198473,43.531955,0
6.19833,43.531794,0
6.198079,43.53181,0
6.197874,43.531913,0
6.197938,43.531729,0
6.197984,43.531541,0
6.19774,43.531495,0
6.197492,43.531442,0
6.197264,43.531525,0
6.197048,43.531629,0
6.196803,43.531693,0
6.196562,43.531757,0
6.196325,43.531701,0
6.196074,43.53169,0
6.195899,43.531825,0
6.195736,43.531965,0
6.195513,43.532045,0
6.195273,43.532099,0
6.195027,43.532135,0
6.194774,43.532115,0
6.194525,43.532095,0
6.194277,43.532059,0
6.194017,43.532071,0
6.193772,43.532108,0
6.193525,43.532074,0
6.193279,43.532016,0
6.193022,43.53201,0
6.19277,43.532023,0
6.192671,43.532194,0
6.192645,43.532375,0
6.192601,43.532556,0
6.192472,43.532711,0
6.192221,43.532683,0
6.191974,43.532667,0
6.191727,43.532636,0
6.191477,43.532587,0
6.191253,43.532495,0
6.191013,43.532435,0
6.190763,43.532389,0
6.190508,43.532352,0
6.190291,43.532264,0
6.190036,43.532261,0
6.189835,43.532368,0
6.189697,43.532522,0
6.189534,43.532666,0
6.189314,43.532752,0
6.189077,43.532692,0
6.188817,43.532668,0
6.188563,43.532642,0
6.188318,43.532597,0
6.188078,43.532539,0
6.187847,43.532458,0
6.1876,43.532409,0
6.187349,43.532413,0
6.187111,43.532349,0
6.187293,43.532476,0
6.187097,43.532359,0
6.186874,43.532263,0
6.186632,43.532322,0
6.186452,43.532448,0
6.186197,43.532481,0
6.185971,43.532557,0
6.185788,43.532685,0
6.185627,43.532823,0
6.18539,43.532907,0
6.185139,43.532949,0
6.184909,43.533035,0
6.184686,43.533134,0
6.184463,43.533229,0
6.184264,43.53334,0
6.184458,43.533457,0
6.184654,43.533573,0
6.184841,43.533697,0
6.185038,43.533815,0
6.185234,43.533935,0
6.185436,43.534054,0
6.185637,43.534166,0
6.185822,43.534294,0
6.185964,43.534451,0
6.186117,43.534599,0
6.186287,43.534745,0
6.186421,43.534902,0
6.186573,43.535046,0
6.186762,43.535171,0
6.18693,43.535307,0</coordinates></LineString></Placemark>
<Placemark><name>Amélanchier</name><description><![CDATA[https://live.staticflickr.com/65535/51821023930_92cc8d10d2_b.jpg]]></description><ExtendedData><Data name="comment"><value>https://live.staticflickr.com/65535/51821023930_92cc8d10d2_b.jpg</value></Data></ExtendedData><Point><coordinates>6.192782,43.532537,0</coordinates></Point></Placemark>
<Placemark><name>Arrivée</name><description><![CDATA[Nom: Segment: 1Heure de départ: 14:06 14 janv. 2022Heure d'arrivée: 16:05 14 janv. 2022Distance: 4,7km (01:58)Temps déplacement: 01:43Vitesse moyenne: 2,4 km/hVitesse moyenne mouv.: 2,76 km/hVitesse Max.: 5,34 km/hAltitude minimale: 284 mAltitude maximale: 362 mVitesse de montée: 116,9 m/hVitesse de descente: 141,1 m/hGain d'altitude: 120 mPerte d'altitude: 122 mTemps de montée: 01:02Temps de descente: 00:52]]></description><ExtendedData><Data name="comment"><value>Nom: Segment: 1Heure de départ: 14:06 14 janv. 2022Heure d'arrivée: 16:05 14 janv. 2022Distance: 4,7km (01:58)Temps déplacement: 01:43Vitesse moyenne: 2,4 km/hVitesse moyenne mouv.: 2,76 km/hVitesse Max.: 5,34 km/hAltitude minimale: 284 mAltitude maximale: 362 mVitesse de montée: 116,9 m/hVitesse de descente: 141,1 m/hGain d'altitude: 120 mPerte d'altitude: 122 mTemps de montée: 01:02Temps de descente: 00:52</value></Data></ExtendedData><Point><coordinates>6.18693,43.535307,0</coordinates></Point></Placemark>
<Placemark><name>Chapelle</name><description><![CDATA[https://live.staticflickr.com/65535/51820629654_cc8372636d_b.jpg]]></description><ExtendedData><Data name="comment"><value>https://live.staticflickr.com/65535/51820629654_cc8372636d_b.jpg</value></Data></ExtendedData><Point><coordinates>6.19835,43.53219,0</coordinates></Point></Placemark>
<Placemark><name>Château de Riforan 1</name><description><![CDATA[https://live.staticflickr.com/65535/51820635029_884fc518d8_b.jpg]]></description><ExtendedData><Data name="comment"><value>https://live.staticflickr.com/65535/51820635029_884fc518d8_b.jpg</value></Data></ExtendedData><Point><coordinates>6.195769,43.532018,0</coordinates></Point></Placemark>
<Placemark><name>Chêne</name><description><![CDATA[https://live.staticflickr.com/65535/51820398093_9cb8a4c66d_b.jpg]]></description><ExtendedData><Data name="comment"><value>https://live.staticflickr.com/65535/51820398093_9cb8a4c66d_b.jpg</value></Data></ExtendedData><Point><coordinates>6.198225,43.531752,0</coordinates></Point></Placemark>
<Placemark><name>Départ</name><Point><coordinates>6.187123,43.535247,0</coordinates></Point></Placemark>
<Placemark><name>Platanes</name><description><![CDATA[https://live.staticflickr.com/65535/51821006520_80422de1f6_b.jpg]]></description><ExtendedData><Data name="comment"><value>https://live.staticflickr.com/65535/51821006520_80422de1f6_b.jpg</value></Data></ExtendedData><Point><coordinates>6.196754,43.532981,0</coordinates></Point></Placemark>
<Placemark><name>Riforan 2</name><description><![CDATA[https://live.staticflickr.com/65535/51820633819_b30b22a6c1_b.jpg]]></description><ExtendedData><Data name="comment"><value>https://live.staticflickr.com/65535/51820633819_b30b22a6c1_b.jpg</value></Data></ExtendedData><Point><coordinates>6.196532,43.532039,0</coordinates></Point></Placemark>
<Placemark><name>Riforan 3</name><description><![CDATA[https://live.staticflickr.com/65535/51820288686_6ab760d591_b.jpg]]></description><ExtendedData><Data name="comment"><value>https://live.staticflickr.com/65535/51820288686_6ab760d591_b.jpg</value></Data></ExtendedData><Point><coordinates>6.196417,43.532738,0</coordinates></Point></Placemark>
<Placemark><name>Riforan 4</name><Point><coordinates>6.197949,43.531694,0</coordinates></Point></Placemark>
<Placemark><name>Riforan 5</name><description><![CDATA[https://live.staticflickr.com/65535/51820397388_f9d9a8109c_b.jpg]]></description><ExtendedData><Data name="comment"><value>https://live.staticflickr.com/65535/51820397388_f9d9a8109c_b.jpg</value></Data></ExtendedData><Point><coordinates>6.197949,43.531694,0</coordinates></Point></Placemark>
<Placemark><name>Station météo</name><description><![CDATA[https://live.staticflickr.com/65535/51819335247_e61ca806e5_b.jpg]]></description><ExtendedData><Data name="comment"><value>https://live.staticflickr.com/65535/51819335247_e61ca806e5_b.jpg</value></Data></ExtendedData><Point><coordinates>6.197844,43.531977,0</coordinates></Point></Placemark>
<Placemark><name>Vipérine d'Italie</name><description><![CDATA[https://live.staticflickr.com/65535/51820306536_3f3d6b515b_b.jpg]]></description><ExtendedData><Data name="comment"><value>https://live.staticflickr.com/65535/51820306536_3f3d6b515b_b.jpg</value></Data></ExtendedData><Point><coordinates>6.192857,43.532389,0</coordinates></Point></Placemark>
</Document></kml>