<?xml version="1.0" encoding="UTF-8"?>
<kml xmlns="http://www.opengis.net/kml/2.2"><Document><name>aiguines_aiguines</name>
<Placemark><name>Tracé</name><Style><LineStyle><color>ff5aad7a</color><width>3</width></LineStyle></Style><LineString><altitudeMode>clampToGround</altitudeMode><coordinates>6.218558000000001,43.773944,506.77
6.217613999999999,43.774105,502.24
6.219098,43.774039,502.38
6.219347,43.774066,498.53
6.219586,43.774118,494.74
6.219839,43.774155,494.31
6.220074,43.774217,493.45
6.220318,43.774294,494.23
6.220546,43.774375,497.7799999999999
6.220747,43.7745,498.07
6.2209,43.774645,501.43
6.221093,43.774772,502.49
6.221263,43.774926,504.1399999999999
6.221359000000001,43.7751,506.6900000000001
6.22146,43.775266,499.86
6.221575999999999,43.775426,506.6900000000001
6.221748,43.775558,504.9999999999999
6.22188,43.775718,504.91
6.221988,43.775886,512.89
6.222163,43.776029,505.4
6.222367,43.776146,510.37
6.222485999999999,43.776304,511.6100000000001
6.222631,43.776454,514.44
6.222703,43.776634,513.84
6.222784,43.77681,518.26
6.222963999999999,43.776935,518.98
6.223202000000001,43.776991,529.13
6.223389,43.777118,531.27
6.223542000000001,43.77727,540.2
6.223698,43.777411,558.91
6.223917000000001,43.777539,561.6
6.224145999999999,43.777673,539.28
6.224334,43.77782,548.16
6.224495,43.777971,538.2
6.224708,43.778067,539.81
6.22494,43.778148,543.82
6.225112000000001,43.778279,547.24
6.225265,43.778422,545.31
6.225439,43.778566,543.18
6.225712,43.778623,539.39
6.22597,43.778585,566.59
6.226229000000001,43.778612,566.93
6.226457999999999,43.778689,572.04
6.226708,43.778696,566.83
6.226952,43.778652,568.03
6.227228,43.778669,570.23
6.227479,43.778692,574.45
6.227734,43.778697,569.6
6.227989,43.778698,573.15
6.228231999999999,43.778739,561.63
6.228459000000001,43.77884,571.2
6.228673,43.778952,569.74
6.228882,43.77907,577
6.229098999999999,43.779189,575.48
6.229295,43.779302,584.03
6.229469,43.779435,588.49
6.229675000000001,43.779555,575.71
6.229906000000001,43.779631,567.56
6.230152,43.779676,571.86
6.230401,43.779735,589.12
6.23065,43.779748,583.09
6.230870000000001,43.779645,592.44
6.231008000000001,43.779485,614.92
6.231243,43.779411,610.85
6.231358,43.77925,611.41
6.23152,43.779108,613.17
6.231657999999999,43.778935,613.17
6.231785,43.778776,616.25
6.231806000000001,43.778596,611.73
6.231771999999999,43.778411,617.2
6.231767,43.778226,620.1
6.231749000000001,43.778039,621.87
6.2317,43.77786,614.93
6.231687,43.777676,614.68
6.231707,43.777491,621.47
6.231668999999999,43.777313,619.78
6.231559,43.777144,621.9
6.231497999999999,43.776956,617.12
6.231563,43.776778,622.72
6.231668999999999,43.776612,625.87
6.231816000000001,43.776466,624.62
6.232066,43.776426,627.39
6.232209,43.776577,631.64
6.232416,43.776705,625.68
6.232656,43.776765,635.27
6.232905,43.776761,629.85
6.233164,43.776764,633.51
6.23342,43.776782,635.82
6.233685,43.776768,635.79
6.233925,43.776709,628.18
6.234134,43.77659,629.8
6.234262000000001,43.77643,638.66
6.234452,43.776305,634.64
6.234635,43.77618,643.3
6.234872,43.776261,643.78
6.235076,43.776365,648.42
6.235094999999999,43.776184,638.03
6.234985,43.776011,637.65
6.234999,43.77583,630.85
6.235026,43.775648,645.06
6.235168,43.775498,644.47
6.235302,43.775333,643.55
6.235518,43.775425,620.37
6.235709999999999,43.775544,628.74
6.235917,43.775647,612.2
6.23616,43.775707,633.67
6.236413,43.775698,646.53
6.236663,43.775653,612.14
6.236912,43.775614,651.68
6.237165000000001,43.775603,654
6.237388,43.775699,641.56
6.237581,43.775823,642.29
6.237767,43.775959,676.43
6.237922,43.776109,657.29
6.238075000000001,43.776258,655.16
6.238201000000001,43.776415,651.25
6.238324000000001,43.776582,632
6.23855,43.77666,647.93
6.238806,43.776625,652.97
6.239052,43.776595,653.36
6.239323,43.776583,667.4899999999999
6.239559,43.776516,633.38
6.239806000000001,43.776492,658.65
6.240054,43.776568,575.11
6.240278,43.776648,589.89
6.240528,43.776676,629.4
6.240785000000001,43.77673,619.07
6.240818999999999,43.776544,747.95
6.240747,43.776369,750.92
6.240816,43.776194,752.58
6.240872,43.776017,755.28
6.240926,43.775835,755.13
6.241157,43.775746,761.29
6.241455999999999,43.775874,758.63
6.241707999999999,43.775894,757.24
6.241962,43.775887,673.34
6.242244,43.775948,718.06
6.242512,43.775892,759.77
6.242688,43.775667,767.2
6.242766,43.775495,769.84
6.242719999999999,43.775307,762.98
6.24284,43.775113,760.3
6.242838,43.774932,766.12
6.242815,43.77475,768.29
6.242974,43.774607,774.25
6.242961,43.774425,764.51
6.242966,43.77424,779.5999999999999
6.242937,43.774059,769.2599999999999
6.242994999999999,43.773884,768.04
6.243036,43.773663,769.41
6.243133,43.773484,784.86
6.242897,43.773552,757.68
6.242634,43.773567,772.33
6.242384,43.773582,784.58
6.242123,43.773647,768.26
6.241844,43.77363,760.61
6.242880999999999,43.773508,779.34
6.241892,43.773574,765.73
6.242862,43.773498,780.92
6.24192,43.773604,788.38
6.241671000000001,43.77351,772.04
6.241512000000001,43.773361,778.95
6.241511,43.773169,772.1
6.241504,43.773352,768.56
6.243096,43.773456,757.11
6.241633,43.773466,774.84
6.241691,43.773643,707.83
6.24173,43.773839,723.12
6.241424999999999,43.773797,686.65
6.241177,43.773817,729.67
6.240977000000001,43.773936,778.92
6.240954000000001,43.774122,763.57
6.241004,43.774299,764.93
6.241085,43.774478,759.88
6.241162,43.774657,759.21
6.241082999999999,43.774831,758.64
6.241151999999999,43.775011,757.29
6.241109,43.77519,760.42
6.240895,43.775056,758.7399999999999
6.240659999999999,43.774974,772.3199999999999
6.240398999999999,43.774939,780.3699999999999
6.240164,43.775001,776.05
6.240003,43.77514,780.0399999999998
6.239754,43.775187,654.92
6.239638,43.775023,709.27
6.239609,43.774841,726.28
6.23952,43.774663,676.58
6.2394,43.774503,742.82
6.239174,43.77442,711.54
6.238963000000001,43.774324,749.14
6.238737,43.774243,752.43
6.238543999999999,43.77412,752.62
6.238488,43.773944,678.38
6.238513,43.773763,749.21
6.238657999999999,43.773609,745.36
6.238754,43.773434,745.39
6.238944,43.773308,744.31
6.238951999999999,43.773125,742.16
6.238894000000001,43.772946,622.6
6.238851999999999,43.772769,645.51
6.238866,43.772589,635.02
6.238802,43.772408,652.81
6.238706,43.772241,644.22
6.238594,43.772075,735.74
6.238489,43.771909,737.32
6.238365,43.77175,737.66
6.238337,43.77148,181.16
6.23807,43.771496,663.85
6.23784,43.771422,674.35
6.237607,43.771352,640.93
6.237479,43.771189,622.4
6.237335,43.771041,640.82
6.237253,43.77086,644.05
6.237193,43.770683,619.89
6.237110999999999,43.770512,612.37
6.23699,43.770353,635.68
6.236817,43.77022,614.23
6.236637,43.770068,725.09
6.236458,43.769935,725.18
6.236275,43.769811,726.97
6.236144,43.76965,723.62
6.236013,43.769496,720.83
6.235911,43.76933,728.22
6.235736,43.769199,718.81
6.235526000000001,43.769094,710.56
6.235253999999999,43.769037,714.87
6.235001,43.768988,713.14
6.234764999999999,43.768924,710.15
6.234621,43.768754,621.11
6.234512,43.768574,612.11
6.23452,43.768393,598.58
6.234557,43.768193,559.33
6.23457,43.768012,583.98
6.234673999999999,43.767842,574.09
6.234748,43.767659,583.77
6.234801,43.767479,578.37
6.234772,43.767297,583.79
6.234602,43.767164,560.63
6.23442,43.767017,600.54
6.234224,43.766896,635.2
6.234075,43.766741,622.95
6.233989000000001,43.766571,636.93
6.234184000000001,43.766456,614.25
6.234355999999999,43.766323,585.82
6.234331999999999,43.766126,542.06
6.234317,43.765944,516.89
6.234378999999999,43.765758,532.06
6.234478000000001,43.765583,550.18
6.234467000000001,43.765401,549.42
6.234400999999999,43.765224,556.81
6.234392,43.765038,560.01
6.234357,43.764857,661.3
6.234196999999999,43.764713,707.36
6.233942,43.764707,715.65
6.233702,43.764636,707.45
6.233457,43.764586,581.41
6.233324,43.764421,564.5
6.233259,43.764245,576.79
6.233136999999999,43.764084,585.92
6.232942000000001,43.763972,569.8
6.232737999999999,43.763865,564.28
6.232511999999999,43.763788,592.78
6.232293000000001,43.763686,595.34
6.232055000000001,43.763624,593.05
6.231813,43.763566,589.84
6.231547,43.763582,580.15
6.231312,43.763652,587.05
6.231058,43.763632,535.07
6.230804999999999,43.763668,546.96
6.230598,43.763774,538.48
6.230371000000001,43.763869,527.41
6.230166,43.763976,537.28
6.229974999999999,43.764095,512.55
6.229815999999999,43.763941,520.31
6.229630000000001,43.76382,511.08
6.229367,43.763788,507.5699999999999
6.229119999999999,43.763735,515.58
6.228865,43.763689,689.2
6.228623,43.763746,710.43
6.228414999999999,43.763856,697.58
6.228198000000001,43.763756,699.31
6.227941,43.763721,686.67
6.227677,43.763697,684.44
6.227423999999999,43.763724,673.97
6.22717,43.763739,671.15
6.226266,43.764532,164.41
6.227093999999999,43.763719,452.2799999999999
6.226842000000001,43.763707,647.69
6.226586,43.763748,649.07
6.226335,43.763756,652.47
6.226001999999999,43.764574,156.3
6.226312,43.763747,435.39
6.225946,43.764534,154.34
6.226244,43.763733,441.68
6.226166,43.763561,684.52
6.2263,43.763403,648.57
6.226375,43.763225,557.18
6.226490000000001,43.763056,555.62
6.22659,43.762881,555.94
6.226687,43.762714,546.21
6.226814,43.762548,541.37
6.226922000000001,43.762379,535.46
6.227008,43.762202,543.93
6.227096,43.762031,550.65
6.227205,43.761868,528.8
6.227335,43.761712,549.68
6.227447000000001,43.761543,556.33
6.22753,43.761371,553.99
6.227735,43.761263,511.09
6.227958999999999,43.761184,527.36
6.228169,43.761063,544.72
6.228372,43.76095,558.38
6.228568,43.760822,547.58
6.228545,43.760642,533.6
6.228591,43.760464,518.09
6.228666999999999,43.76029,666.25
6.228625,43.760111,636.68
6.228504000000001,43.759947,582.52
6.22836,43.75979,581.58
6.228188,43.759647,581.05
6.227982000000001,43.759535,581.39
6.227759,43.759448,580.15
6.227708999999999,43.759267,530.48
6.227531,43.759134,543.79
6.227274000000001,43.759102,530.93
6.22702,43.759087,514.28
6.226757,43.759067,512.78
6.226504,43.759058,537.37
6.22626,43.759015,523.79
6.226026,43.75895,519.17
6.225816,43.758838,518.59
6.225648,43.758703,508.66
6.225497,43.758554,515.59
6.225328000000001,43.758417,512.78
6.225081999999999,43.758377,510.83
6.224829000000001,43.75835,509.43
6.224608,43.758261,511.05
6.224451,43.758406,510.34
6.22429,43.75855,516.66
6.224067000000001,43.758647,509.98
6.223963000000001,43.758836,518.91
6.223744,43.758925,524.52
6.22364,43.758756,538.61
6.223523,43.758586,539.72
6.22349,43.758404,549.04
6.223489,43.758211,549.15
6.223361000000001,43.758053,549.97
6.223437,43.757879,549.59
6.223271,43.757742,503.44
6.223036,43.757676,503.44
6.222791999999999,43.757638,501.6199999999999
6.222541,43.757574,503.13
6.222399,43.757724,547.3
6.222379,43.757911,544.74
6.222297,43.758082,553.18
6.222355,43.758263,551.54
6.222367,43.758453,545.85
6.222427,43.758635,530.95
6.222343,43.758811,517.26
6.222093,43.758815,538.1
6.221925,43.75867,535.82
6.221739,43.758549,534.07
6.221636,43.758372,522.21
6.221592,43.758181,527.06
6.221577,43.757992,521.81
6.221651,43.757818,521.88
6.221477,43.757683,494.81
6.221323999999999,43.75784,494.5
6.221219,43.758004,493.8199999999999
6.221135,43.758174,493.09
6.221176000000001,43.758358,490.49
6.221154,43.758556,491.2699999999999
6.220912,43.758612,492.25
6.220657,43.758634,489.8699999999999
6.220398,43.758674,494.26
6.220137,43.758656,492.9499999999999
6.219874,43.758665,492.27
6.219621,43.758685,492.52
6.219366999999999,43.758683,495.89
6.219124,43.758625,495.34
6.219204,43.75845,496.83
6.219384,43.758313,495.63
6.219557,43.758175,495.99
6.219695,43.758022,497.36
6.219794,43.75785,495.33
6.219879999999999,43.757675,495.99
6.219966,43.7575,522.8
6.220001,43.757314,536.06
6.219989,43.757132,550.07
6.219970999999999,43.756949,554.66
6.219938,43.756766,666.84
6.219715,43.756678,639.62
6.219464,43.756708,623.15
6.219212,43.756703,678.13
6.218979999999999,43.756775,575.78
6.218739000000001,43.756823,573.4
6.218473,43.756809,538.16
6.218212,43.756826,565.02
6.217988999999999,43.756918,560.5
6.217757,43.756998,563.67
6.217494,43.757062,568.01
6.217242,43.757096,554.81
6.216985,43.757144,577.93
6.216733,43.757166,576.88
6.216482,43.757187,585.3
6.216226999999999,43.757166,567.41
6.215996,43.757244,570.33
6.215770000000001,43.757352,560.18
6.215538,43.757436,582.62
6.215307,43.757514,627.71
6.215116,43.757642,625.34
6.214916,43.757755,609.44
6.214695,43.757862,629.76
6.21447,43.757957,487.94
6.21447,43.75815,521.84
6.2144,43.758327,532.27
6.214143999999999,43.758341,529.47
6.213888,43.758354,496.2
6.213658,43.758284,510.57
6.213872,43.75839,528.17
6.214051,43.758518,532.53
6.21418,43.758672,533.63
6.214274,43.758843,524.27
6.214373,43.759016,537.05
6.214445,43.759191,526.07
6.214424,43.759385,522.24
6.214211999999999,43.759508,513.91
6.213986,43.759586,524.69
6.213744000000001,43.759648,511.14
6.213523,43.759743,510.3
6.21327,43.759742,504.92
6.213017000000001,43.75973,512.74
6.212791,43.759818,498.6900000000001
6.212568,43.759906,500.4399999999999
6.212332,43.759963,502.31
6.212134,43.760076,501.2699999999999
6.212364,43.75998,507.8699999999999
6.212563,43.75986,498.81
6.212800000000001,43.759798,492.6499999999999
6.21303,43.759877,520.64
6.212777000000001,43.759926,512.93
6.212572999999999,43.760029,500.1799999999999
6.212367,43.760133,498.03
6.212161,43.760247,498.83
6.21198,43.760374,506.84
6.211882,43.76054,498.26
6.211699,43.760663,506.02
6.211554,43.760816,504.88
6.211527,43.761003,501.9
6.211496,43.761186,501.47
6.211545,43.761367,504.3399999999999
6.211674,43.761531,515.54
6.211831999999999,43.761677,531.24
6.211984,43.761823,529.86
6.212046,43.761998,533.5
6.212152000000001,43.76217,510.86
6.212257,43.762343,525.58
6.212335999999999,43.76252,514.92
6.212417,43.762697,519.42
6.212465,43.762874,512.45
6.212405,43.763051,499.73
6.212192,43.763146,505.75
6.211952,43.763195,503.97
6.211707,43.763262,494.6499999999999
6.21149,43.763358,494.9599999999999
6.211363,43.763512,515.62
6.211330000000001,43.763692,498.2
6.211389999999999,43.763877,498.49
6.211395,43.764066,497.37
6.211299,43.764237,495.35
6.211194,43.764403,500.02
6.211131,43.76458,519.67
6.211219999999999,43.764759,544.45
6.211421,43.764883,554.5
6.211635,43.764984,479.2599999999999
6.211768,43.765142,534.63
6.211819,43.765323,538.41
6.211971,43.76547,552.22
6.212076,43.765635,563.75
6.212102,43.765819,548.58
6.212294,43.76594,547.15
6.212513000000001,43.766027,574.76
6.212678,43.766174,542.43
6.212861,43.766304,545.29
6.213062000000001,43.766415,569.82
6.213213,43.766561,595.31
6.213397,43.766705,550.63
6.213573999999999,43.766843,557.05
6.213675000000001,43.767016,564.89
6.213721,43.767196,500.53
6.213685,43.767381,466.74
6.213829,43.767536,468.3399999999999
6.213987,43.767682,481.41
6.213995999999999,43.767865,477.29
6.213972000000001,43.768053,482.76
6.213937,43.768245,484
6.213774,43.768398,485.79
6.213641999999999,43.768565,483.9299999999999
6.213538,43.768732,484.42
6.213318,43.768834,482.63
6.213062999999999,43.768865,482.37
6.212810000000001,43.76886,487.22
6.212579,43.768777,484.82
6.212362,43.768686,483.95
6.212116000000001,43.768713,482.77
6.211869,43.768747,483.5199999999999
6.21162,43.768776,486.0799999999999
6.211374,43.768844,484.3999999999999
6.211113,43.768862,483.95
6.210853999999999,43.768899,479.63
6.210626,43.768972,477.5699999999999
6.210414,43.769081,503.77
6.210209,43.7692,531.76
6.209994,43.769293,524.55
6.209760000000001,43.769364,524.2
6.209526,43.769429,495.0099999999999
6.209283000000001,43.769482,503.03
6.209037,43.769541,505.8200000000001
6.208942,43.769714,515.68
6.208874000000001,43.769898,512.6
6.208928,43.770078,506.3
6.208822,43.770247,493.7799999999999
6.208739999999999,43.770417,516.9
6.208850999999999,43.770586,530.64
6.208985,43.770749,550.04
6.209197,43.770857,541.3
6.209439,43.770937,499.98
6.209677,43.771007,503.23
6.209926,43.771019,513.04
6.210169,43.771075,527.55
6.210420999999999,43.771099,504.28
6.210672000000001,43.771139,503.65
6.210931000000001,43.771165,505.42
6.211182,43.771184,505.94
6.211438,43.771166,510.2
6.211688,43.771172,523.31
6.211943,43.771188,520.92
6.2122,43.771195,492.16
6.212462,43.771214,490.24
6.212554,43.771387,489.49
6.212810999999999,43.771355,493.34
6.213055,43.771294,493.13
6.213313,43.771332,495.13
6.213563000000001,43.771382,494.68
6.213826,43.771395,494.84
6.214076,43.771454,492.66
6.214284,43.771568,492.76
6.214504,43.77166,491.48
6.214734999999999,43.771738,491.2
6.214959,43.771819,493.55
6.215169999999999,43.771927,494.4300000000001
6.215396,43.772018,492.87
6.215620000000001,43.772118,490.37
6.215834,43.772222,491.61
6.216016,43.772361,494.32
6.216225,43.772466,495.5699999999999
6.216461,43.772542,496.4300000000001
6.216662,43.772661,493.72
6.216871,43.772764,657.33
6.217049,43.77291,675.45
6.217183,43.773071,657.11
6.217339,43.773222,681.89
6.217458,43.773384,608.43
6.217599,43.773536,599.66
6.217778,43.773676,611.05
6.218000000000001,43.773775,567.13</coordinates></LineString></Placemark>
<Placemark><name>Départ</name><Point><coordinates>6.218558000000001,43.773944,506.77</coordinates></Point></Placemark>
<Placemark><name>Panorama</name><Point><coordinates>6.226324,43.778639,568.12</coordinates></Point></Placemark>
<Placemark><name>Chêne</name><Point><coordinates>6.240725,43.776285,750.7</coordinates></Point></Placemark>
<Placemark><name>Château</name><Point><coordinates>6.241939,43.775865,704.94</coordinates></Point></Placemark>
<Placemark><name>Boule en buis</name><Point><coordinates>6.242877,43.774946,761.51</coordinates></Point></Placemark>
<Placemark><name>Trail</name><Point><coordinates>6.242968000000001,43.774591,775.3</coordinates></Point></Placemark>
<Placemark><name>Chapelle</name><Point><coordinates>6.241469999999999,43.773245,776.41</coordinates></Point></Placemark>
<Placemark><name>Cimetière</name><Point><coordinates>6.241514,43.773168,772.5799999999999</coordinates></Point></Placemark>
<Placemark><name>Vignes</name><Point><coordinates>6.240977999999999,43.773939,770.13</coordinates></Point></Placemark>
<Placemark><name>Oratoire</name><Point><coordinates>6.241123,43.775159,761.33</coordinates></Point></Placemark>
<Placemark><name>Petit Margès</name><Point><coordinates>6.234342,43.766976,605.27</coordinates></Point></Placemark>
<Placemark><name>Piscine</name><Point><coordinates>6.226282,43.763732,632.98</coordinates></Point></Placemark>
<Placemark><name>Ruine</name><Point><coordinates>6.220446,43.758682,494.1799999999999</coordinates></Point></Placemark>
<Placemark><name>Fléole</name><Point><coordinates>6.219846999999999,43.7578,495.8399999999999</coordinates></Point></Placemark>
<Placemark><name>Fléole</name><description><![CDATA[Nom: Segment: 1Heure de départ: 09:34 23 juin 2019Heure d'arrivée: 15:15 23 juin 2019Distance: 12,8km (05:41)Temps déplacement: 03:00Vitesse moyenne: 2,25 km/hVitesse moyenne mouv.: 4,23 km/hVitesse Max.: 42,31 km/hAltitude minimale: 154 mAltitude maximale: 788 mVitesse de montée: 1301,5 m/hVitesse de descente: -974,3 m/hGain d'altitude: 3226 mPerte d'altitude: -3121 mTemps de montée: 02:28Temps de descente: 03:12]]></description><ExtendedData><Data name="comment"><value>Nom: Segment: 1Heure de départ: 09:34 23 juin 2019Heure d'arrivée: 15:15 23 juin 2019Distance: 12,8km (05:41)Temps déplacement: 03:00Vitesse moyenne: 2,25 km/hVitesse moyenne mouv.: 4,23 km/hVitesse Max.: 42,31 km/hAltitude minimale: 154 mAltitude maximale: 788 mVitesse de montée: 1301,5 m/hVitesse de descente: -974,3 m/hGain d'altitude: 3226 mPerte d'altitude: -3121 mTemps de montée: 02:28Temps de descente: 03:12</value></Data></ExtendedData><Point><coordinates>6.218000000000001,43.773775,567.13</coordinates></Point></Placemark>
</Document></kml>