<?xml version="1.0" encoding="UTF-8"?>
<gpx version="1.1" creator="Marando" xmlns="http://www.topografix.com/GPX/1/1">
<wpt lat="43.773944" lon="6.218558000000001"><ele>506.77</ele><name>Départ</name></wpt>
<wpt lat="43.778639" lon="6.226324"><ele>568.12</ele><name>Panorama</name></wpt>
<wpt lat="43.776285" lon="6.240725"><ele>750.7</ele><name>Chêne</name></wpt>
<wpt lat="43.775865" lon="6.241939"><ele>704.94</ele><name>Château</name></wpt>
<wpt lat="43.774946" lon="6.242877"><ele>761.51</ele><name>Boule en buis</name></wpt>
<wpt lat="43.774591" lon="6.242968000000001"><ele>775.3</ele><name>Trail</name></wpt>
<wpt lat="43.773245" lon="6.241469999999999"><ele>776.41</ele><name>Chapelle</name></wpt>
<wpt lat="43.773168" lon="6.241514"><ele>772.5799999999999</ele><name>Cimetière</name></wpt>
<wpt lat="43.773939" lon="6.240977999999999"><ele>770.13</ele><name>Vignes</name></wpt>
<wpt lat="43.775159" lon="6.241123"><ele>761.33</ele><name>Oratoire</name></wpt>
<wpt lat="43.766976" lon="6.234342"><ele>605.27</ele><name>Petit Margès</name></wpt>
<wpt lat="43.763732" lon="6.226282"><ele>632.98</ele><name>Piscine</name></wpt>
<wpt lat="43.758682" lon="6.220446"><ele>494.1799999999999</ele><name>Ruine</name></wpt>
<wpt lat="43.7578" lon="6.219846999999999"><ele>495.8399999999999</ele><name>Fléole</name></wpt>
<wpt lat="43.773775" lon="6.218000000000001"><ele>567.13</ele><name>Fléole</name><desc>Nom: Segment: 1Heure de départ: 09:34 23 juin 2019Heure d'arrivée: 15:15 23 juin 2019Distance: 12,8km (05:41)Temps déplacement: 03:00Vitesse moyenne: 2,25 km/hVitesse moyenne mouv.: 4,23 km/hVitesse Max.: 42,31 km/hAltitude minimale: 154 mAltitude maximale: 788 mVitesse de montée: 1301,5 m/hVitesse de descente: -974,3 m/hGain d'altitude: 3226 mPerte d'altitude: -3121 mTemps de montée: 02:28Temps de descente: 03:12</desc></wpt>
<trk><name>aiguines</name><trkseg>
<trkpt lat="43.773944" lon="6.218558000000001"><ele>506.77</ele></trkpt>
<trkpt lat="43.774105" lon="6.217613999999999"><ele>502.24</ele></trkpt>
<trkpt lat="43.774039" lon="6.219098"><ele>502.38</ele></trkpt>
<trkpt lat="43.774066" lon="6.219347"><ele>498.53</ele></trkpt>
<trkpt lat="43.774118" lon="6.219586"><ele>494.74</ele></trkpt>
<trkpt lat="43.774155" lon="6.219839"><ele>494.31</ele></trkpt>
<trkpt lat="43.774217" lon="6.220074"><ele>493.45</ele></trkpt>
<trkpt lat="43.774294" lon="6.220318"><ele>494.23</ele></trkpt>
<trkpt lat="43.774375" lon="6.220546"><ele>497.7799999999999</ele></trkpt>
<trkpt lat="43.7745" lon="6.220747"><ele>498.07</ele></trkpt>
<trkpt lat="43.774645" lon="6.2209"><ele>501.43</ele></trkpt>
<trkpt lat="43.774772" lon="6.221093"><ele>502.49</ele></trkpt>
<trkpt lat="43.774926" lon="6.221263"><ele>504.1399999999999</ele></trkpt>
<trkpt lat="43.7751" lon="6.221359000000001"><ele>506.6900000000001</ele></trkpt>
<trkpt lat="43.775266" lon="6.22146"><ele>499.86</ele></trkpt>
<trkpt lat="43.775426" lon="6.221575999999999"><ele>506.6900000000001</ele></trkpt>
<trkpt lat="43.775558" lon="6.221748"><ele>504.9999999999999</ele></trkpt>
<trkpt lat="43.775718" lon="6.22188"><ele>504.91</ele></trkpt>
<trkpt lat="43.775886" lon="6.221988"><ele>512.89</ele></trkpt>
<trkpt lat="43.776029" lon="6.222163"><ele>505.4</ele></trkpt>
<trkpt lat="43.776146" lon="6.222367"><ele>510.37</ele></trkpt>
<trkpt lat="43.776304" lon="6.222485999999999"><ele>511.6100000000001</ele></trkpt>
<trkpt lat="43.776454" lon="6.222631"><ele>514.44</ele></trkpt>
<trkpt lat="43.776634" lon="6.222703"><ele>513.84</ele></trkpt>
<trkpt lat="43.77681" lon="6.222784"><ele>518.26</ele></trkpt>
<trkpt lat="43.776935" lon="6.222963999999999"><ele>518.98</ele></trkpt>
<trkpt lat="43.776991" lon="6.223202000000001"><ele>529.13</ele></trkpt>
<trkpt lat="43.777118" lon="6.223389"><ele>531.27</ele></trkpt>
<trkpt lat="43.77727" lon="6.223542000000001"><ele>540.2</ele></trkpt>
<trkpt lat="43.777411" lon="6.223698"><ele>558.91</ele></trkpt>
<trkpt lat="43.777539" lon="6.223917000000001"><ele>561.6</ele></trkpt>
<trkpt lat="43.777673" lon="6.224145999999999"><ele>539.28</ele></trkpt>
<trkpt lat="43.77782" lon="6.224334"><ele>548.16</ele></trkpt>
<trkpt lat="43.777971" lon="6.224495"><ele>538.2</ele></trkpt>
<trkpt lat="43.778067" lon="6.224708"><ele>539.81</ele></trkpt>
<trkpt lat="43.778148" lon="6.22494"><ele>543.82</ele></trkpt>
<trkpt lat="43.778279" lon="6.225112000000001"><ele>547.24</ele></trkpt>
<trkpt lat="43.778422" lon="6.225265"><ele>545.31</ele></trkpt>
<trkpt lat="43.778566" lon="6.225439"><ele>543.18</ele></trkpt>
<trkpt lat="43.778623" lon="6.225712"><ele>539.39</ele></trkpt>
<trkpt lat="43.778585" lon="6.22597"><ele>566.59</ele></trkpt>
<trkpt lat="43.778612" lon="6.226229000000001"><ele>566.93</ele></trkpt>
<trkpt lat="43.778689" lon="6.226457999999999"><ele>572.04</ele></trkpt>
<trkpt lat="43.778696" lon="6.226708"><ele>566.83</ele></trkpt>
<trkpt lat="43.778652" lon="6.226952"><ele>568.03</ele></trkpt>
<trkpt lat="43.778669" lon="6.227228"><ele>570.23</ele></trkpt>
<trkpt lat="43.778692" lon="6.227479"><ele>574.45</ele></trkpt>
<trkpt lat="43.778697" lon="6.227734"><ele>569.6</ele></trkpt>
<trkpt lat="43.778698" lon="6.227989"><ele>573.15</ele></trkpt>
<trkpt lat="43.778739" lon="6.228231999999999"><ele>561.63</ele></trkpt>
<trkpt lat="43.77884" lon="6.228459000000001"><ele>571.2</ele></trkpt>
<trkpt lat="43.778952" lon="6.228673"><ele>569.74</ele></trkpt>
<trkpt lat="43.77907" lon="6.228882"><ele>577</ele></trkpt>
<trkpt lat="43.779189" lon="6.229098999999999"><ele>575.48</ele></trkpt>
<trkpt lat="43.779302" lon="6.229295"><ele>584.03</ele></trkpt>
<trkpt lat="43.779435" lon="6.229469"><ele>588.49</ele></trkpt>
<trkpt lat="43.779555" lon="6.229675000000001"><ele>575.71</ele></trkpt>
<trkpt lat="43.779631" lon="6.229906000000001"><ele>567.56</ele></trkpt>
<trkpt lat="43.779676" lon="6.230152"><ele>571.86</ele></trkpt>
<trkpt lat="43.779735" lon="6.230401"><ele>589.12</ele></trkpt>
<trkpt lat="43.779748" lon="6.23065"><ele>583.09</ele></trkpt>
<trkpt lat="43.779645" lon="6.230870000000001"><ele>592.44</ele></trkpt>
<trkpt lat="43.779485" lon="6.231008000000001"><ele>614.92</ele></trkpt>
<trkpt lat="43.779411" lon="6.231243"><ele>610.85</ele></trkpt>
<trkpt lat="43.77925" lon="6.231358"><ele>611.41</ele></trkpt>
<trkpt lat="43.779108" lon="6.23152"><ele>613.17</ele></trkpt>
<trkpt lat="43.778935" lon="6.231657999999999"><ele>613.17</ele></trkpt>
<trkpt lat="43.778776" lon="6.231785"><ele>616.25</ele></trkpt>
<trkpt lat="43.778596" lon="6.231806000000001"><ele>611.73</ele></trkpt>
<trkpt lat="43.778411" lon="6.231771999999999"><ele>617.2</ele></trkpt>
<trkpt lat="43.778226" lon="6.231767"><ele>620.1</ele></trkpt>
<trkpt lat="43.778039" lon="6.231749000000001"><ele>621.87</ele></trkpt>
<trkpt lat="43.77786" lon="6.2317"><ele>614.93</ele></trkpt>
<trkpt lat="43.777676" lon="6.231687"><ele>614.68</ele></trkpt>
<trkpt lat="43.777491" lon="6.231707"><ele>621.47</ele></trkpt>
<trkpt lat="43.777313" lon="6.231668999999999"><ele>619.78</ele></trkpt>
<trkpt lat="43.777144" lon="6.231559"><ele>621.9</ele></trkpt>
<trkpt lat="43.776956" lon="6.231497999999999"><ele>617.12</ele></trkpt>
<trkpt lat="43.776778" lon="6.231563"><ele>622.72</ele></trkpt>
<trkpt lat="43.776612" lon="6.231668999999999"><ele>625.87</ele></trkpt>
<trkpt lat="43.776466" lon="6.231816000000001"><ele>624.62</ele></trkpt>
<trkpt lat="43.776426" lon="6.232066"><ele>627.39</ele></trkpt>
<trkpt lat="43.776577" lon="6.232209"><ele>631.64</ele></trkpt>
<trkpt lat="43.776705" lon="6.232416"><ele>625.68</ele></trkpt>
<trkpt lat="43.776765" lon="6.232656"><ele>635.27</ele></trkpt>
<trkpt lat="43.776761" lon="6.232905"><ele>629.85</ele></trkpt>
<trkpt lat="43.776764" lon="6.233164"><ele>633.51</ele></trkpt>
<trkpt lat="43.776782" lon="6.23342"><ele>635.82</ele></trkpt>
<trkpt lat="43.776768" lon="6.233685"><ele>635.79</ele></trkpt>
<trkpt lat="43.776709" lon="6.233925"><ele>628.18</ele></trkpt>
<trkpt lat="43.77659" lon="6.234134"><ele>629.8</ele></trkpt>
<trkpt lat="43.77643" lon="6.234262000000001"><ele>638.66</ele></trkpt>
<trkpt lat="43.776305" lon="6.234452"><ele>634.64</ele></trkpt>
<trkpt lat="43.77618" lon="6.234635"><ele>643.3</ele></trkpt>
<trkpt lat="43.776261" lon="6.234872"><ele>643.78</ele></trkpt>
<trkpt lat="43.776365" lon="6.235076"><ele>648.42</ele></trkpt>
<trkpt lat="43.776184" lon="6.235094999999999"><ele>638.03</ele></trkpt>
<trkpt lat="43.776011" lon="6.234985"><ele>637.65</ele></trkpt>
<trkpt lat="43.77583" lon="6.234999"><ele>630.85</ele></trkpt>
<trkpt lat="43.775648" lon="6.235026"><ele>645.06</ele></trkpt>
<trkpt lat="43.775498" lon="6.235168"><ele>644.47</ele></trkpt>
<trkpt lat="43.775333" lon="6.235302"><ele>643.55</ele></trkpt>
<trkpt lat="43.775425" lon="6.235518"><ele>620.37</ele></trkpt>
<trkpt lat="43.775544" lon="6.235709999999999"><ele>628.74</ele></trkpt>
<trkpt lat="43.775647" lon="6.235917"><ele>612.2</ele></trkpt>
<trkpt lat="43.775707" lon="6.23616"><ele>633.67</ele></trkpt>
<trkpt lat="43.775698" lon="6.236413"><ele>646.53</ele></trkpt>
<trkpt lat="43.775653" lon="6.236663"><ele>612.14</ele></trkpt>
<trkpt lat="43.775614" lon="6.236912"><ele>651.68</ele></trkpt>
<trkpt lat="43.775603" lon="6.237165000000001"><ele>654</ele></trkpt>
<trkpt lat="43.775699" lon="6.237388"><ele>641.56</ele></trkpt>
<trkpt lat="43.775823" lon="6.237581"><ele>642.29</ele></trkpt>
<trkpt lat="43.775959" lon="6.237767"><ele>676.43</ele></trkpt>
<trkpt lat="43.776109" lon="6.237922"><ele>657.29</ele></trkpt>
<trkpt lat="43.776258" lon="6.238075000000001"><ele>655.16</ele></trkpt>
<trkpt lat="43.776415" lon="6.238201000000001"><ele>651.25</ele></trkpt>
<trkpt lat="43.776582" lon="6.238324000000001"><ele>632</ele></trkpt>
<trkpt lat="43.77666" lon="6.23855"><ele>647.93</ele></trkpt>
<trkpt lat="43.776625" lon="6.238806"><ele>652.97</ele></trkpt>
<trkpt lat="43.776595" lon="6.239052"><ele>653.36</ele></trkpt>
<trkpt lat="43.776583" lon="6.239323"><ele>667.4899999999999</ele></trkpt>
<trkpt lat="43.776516" lon="6.239559"><ele>633.38</ele></trkpt>
<trkpt lat="43.776492" lon="6.239806000000001"><ele>658.65</ele></trkpt>
<trkpt lat="43.776568" lon="6.240054"><ele>575.11</ele></trkpt>
<trkpt lat="43.776648" lon="6.240278"><ele>589.89</ele></trkpt>
<trkpt lat="43.776676" lon="6.240528"><ele>629.4</ele></trkpt>
<trkpt lat="43.77673" lon="6.240785000000001"><ele>619.07</ele></trkpt>
<trkpt lat="43.776544" lon="6.240818999999999"><ele>747.95</ele></trkpt>
<trkpt lat="43.776369" lon="6.240747"><ele>750.92</ele></trkpt>
<trkpt lat="43.776194" lon="6.240816"><ele>752.58</ele></trkpt>
<trkpt lat="43.776017" lon="6.240872"><ele>755.28</ele></trkpt>
<trkpt lat="43.775835" lon="6.240926"><ele>755.13</ele></trkpt>
<trkpt lat="43.775746" lon="6.241157"><ele>761.29</ele></trkpt>
<trkpt lat="43.775874" lon="6.241455999999999"><ele>758.63</ele></trkpt>
<trkpt lat="43.775894" lon="6.241707999999999"><ele>757.24</ele></trkpt>
<trkpt lat="43.775887" lon="6.241962"><ele>673.34</ele></trkpt>
<trkpt lat="43.775948" lon="6.242244"><ele>718.06</ele></trkpt>
<trkpt lat="43.775892" lon="6.242512"><ele>759.77</ele></trkpt>
<trkpt lat="43.775667" lon="6.242688"><ele>767.2</ele></trkpt>
<trkpt lat="43.775495" lon="6.242766"><ele>769.84</ele></trkpt>
<trkpt lat="43.775307" lon="6.242719999999999"><ele>762.98</ele></trkpt>
<trkpt lat="43.775113" lon="6.24284"><ele>760.3</ele></trkpt>
<trkpt lat="43.774932" lon="6.242838"><ele>766.12</ele></trkpt>
<trkpt lat="43.77475" lon="6.242815"><ele>768.29</ele></trkpt>
<trkpt lat="43.774607" lon="6.242974"><ele>774.25</ele></trkpt>
<trkpt lat="43.774425" lon="6.242961"><ele>764.51</ele></trkpt>
<trkpt lat="43.77424" lon="6.242966"><ele>779.5999999999999</ele></trkpt>
<trkpt lat="43.774059" lon="6.242937"><ele>769.2599999999999</ele></trkpt>
<trkpt lat="43.773884" lon="6.242994999999999"><ele>768.04</ele></trkpt>
<trkpt lat="43.773663" lon="6.243036"><ele>769.41</ele></trkpt>
<trkpt lat="43.773484" lon="6.243133"><ele>784.86</ele></trkpt>
<trkpt lat="43.773552" lon="6.242897"><ele>757.68</ele></trkpt>
<trkpt lat="43.773567" lon="6.242634"><ele>772.33</ele></trkpt>
<trkpt lat="43.773582" lon="6.242384"><ele>784.58</ele></trkpt>
<trkpt lat="43.773647" lon="6.242123"><ele>768.26</ele></trkpt>
<trkpt lat="43.77363" lon="6.241844"><ele>760.61</ele></trkpt>
<trkpt lat="43.773508" lon="6.242880999999999"><ele>779.34</ele></trkpt>
<trkpt lat="43.773574" lon="6.241892"><ele>765.73</ele></trkpt>
<trkpt lat="43.773498" lon="6.242862"><ele>780.92</ele></trkpt>
<trkpt lat="43.773604" lon="6.24192"><ele>788.38</ele></trkpt>
<trkpt lat="43.77351" lon="6.241671000000001"><ele>772.04</ele></trkpt>
<trkpt lat="43.773361" lon="6.241512000000001"><ele>778.95</ele></trkpt>
<trkpt lat="43.773169" lon="6.241511"><ele>772.1</ele></trkpt>
<trkpt lat="43.773352" lon="6.241504"><ele>768.56</ele></trkpt>
<trkpt lat="43.773456" lon="6.243096"><ele>757.11</ele></trkpt>
<trkpt lat="43.773466" lon="6.241633"><ele>774.84</ele></trkpt>
<trkpt lat="43.773643" lon="6.241691"><ele>707.83</ele></trkpt>
<trkpt lat="43.773839" lon="6.24173"><ele>723.12</ele></trkpt>
<trkpt lat="43.773797" lon="6.241424999999999"><ele>686.65</ele></trkpt>
<trkpt lat="43.773817" lon="6.241177"><ele>729.67</ele></trkpt>
<trkpt lat="43.773936" lon="6.240977000000001"><ele>778.92</ele></trkpt>
<trkpt lat="43.774122" lon="6.240954000000001"><ele>763.57</ele></trkpt>
<trkpt lat="43.774299" lon="6.241004"><ele>764.93</ele></trkpt>
<trkpt lat="43.774478" lon="6.241085"><ele>759.88</ele></trkpt>
<trkpt lat="43.774657" lon="6.241162"><ele>759.21</ele></trkpt>
<trkpt lat="43.774831" lon="6.241082999999999"><ele>758.64</ele></trkpt>
<trkpt lat="43.775011" lon="6.241151999999999"><ele>757.29</ele></trkpt>
<trkpt lat="43.77519" lon="6.241109"><ele>760.42</ele></trkpt>
<trkpt lat="43.775056" lon="6.240895"><ele>758.7399999999999</ele></trkpt>
<trkpt lat="43.774974" lon="6.240659999999999"><ele>772.3199999999999</ele></trkpt>
<trkpt lat="43.774939" lon="6.240398999999999"><ele>780.3699999999999</ele></trkpt>
<trkpt lat="43.775001" lon="6.240164"><ele>776.05</ele></trkpt>
<trkpt lat="43.77514" lon="6.240003"><ele>780.0399999999998</ele></trkpt>
<trkpt lat="43.775187" lon="6.239754"><ele>654.92</ele></trkpt>
<trkpt lat="43.775023" lon="6.239638"><ele>709.27</ele></trkpt>
<trkpt lat="43.774841" lon="6.239609"><ele>726.28</ele></trkpt>
<trkpt lat="43.774663" lon="6.23952"><ele>676.58</ele></trkpt>
<trkpt lat="43.774503" lon="6.2394"><ele>742.82</ele></trkpt>
<trkpt lat="43.77442" lon="6.239174"><ele>711.54</ele></trkpt>
<trkpt lat="43.774324" lon="6.238963000000001"><ele>749.14</ele></trkpt>
<trkpt lat="43.774243" lon="6.238737"><ele>752.43</ele></trkpt>
<trkpt lat="43.77412" lon="6.238543999999999"><ele>752.62</ele></trkpt>
<trkpt lat="43.773944" lon="6.238488"><ele>678.38</ele></trkpt>
<trkpt lat="43.773763" lon="6.238513"><ele>749.21</ele></trkpt>
<trkpt lat="43.773609" lon="6.238657999999999"><ele>745.36</ele></trkpt>
<trkpt lat="43.773434" lon="6.238754"><ele>745.39</ele></trkpt>
<trkpt lat="43.773308" lon="6.238944"><ele>744.31</ele></trkpt>
<trkpt lat="43.773125" lon="6.238951999999999"><ele>742.16</ele></trkpt>
<trkpt lat="43.772946" lon="6.238894000000001"><ele>622.6</ele></trkpt>
<trkpt lat="43.772769" lon="6.238851999999999"><ele>645.51</ele></trkpt>
<trkpt lat="43.772589" lon="6.238866"><ele>635.02</ele></trkpt>
<trkpt lat="43.772408" lon="6.238802"><ele>652.81</ele></trkpt>
<trkpt lat="43.772241" lon="6.238706"><ele>644.22</ele></trkpt>
<trkpt lat="43.772075" lon="6.238594"><ele>735.74</ele></trkpt>
<trkpt lat="43.771909" lon="6.238489"><ele>737.32</ele></trkpt>
<trkpt lat="43.77175" lon="6.238365"><ele>737.66</ele></trkpt>
<trkpt lat="43.77148" lon="6.238337"><ele>181.16</ele></trkpt>
<trkpt lat="43.771496" lon="6.23807"><ele>663.85</ele></trkpt>
<trkpt lat="43.771422" lon="6.23784"><ele>674.35</ele></trkpt>
<trkpt lat="43.771352" lon="6.237607"><ele>640.93</ele></trkpt>
<trkpt lat="43.771189" lon="6.237479"><ele>622.4</ele></trkpt>
<trkpt lat="43.771041" lon="6.237335"><ele>640.82</ele></trkpt>
<trkpt lat="43.77086" lon="6.237253"><ele>644.05</ele></trkpt>
<trkpt lat="43.770683" lon="6.237193"><ele>619.89</ele></trkpt>
<trkpt lat="43.770512" lon="6.237110999999999"><ele>612.37</ele></trkpt>
<trkpt lat="43.770353" lon="6.23699"><ele>635.68</ele></trkpt>
<trkpt lat="43.77022" lon="6.236817"><ele>614.23</ele></trkpt>
<trkpt lat="43.770068" lon="6.236637"><ele>725.09</ele></trkpt>
<trkpt lat="43.769935" lon="6.236458"><ele>725.18</ele></trkpt>
<trkpt lat="43.769811" lon="6.236275"><ele>726.97</ele></trkpt>
<trkpt lat="43.76965" lon="6.236144"><ele>723.62</ele></trkpt>
<trkpt lat="43.769496" lon="6.236013"><ele>720.83</ele></trkpt>
<trkpt lat="43.76933" lon="6.235911"><ele>728.22</ele></trkpt>
<trkpt lat="43.769199" lon="6.235736"><ele>718.81</ele></trkpt>
<trkpt lat="43.769094" lon="6.235526000000001"><ele>710.56</ele></trkpt>
<trkpt lat="43.769037" lon="6.235253999999999"><ele>714.87</ele></trkpt>
<trkpt lat="43.768988" lon="6.235001"><ele>713.14</ele></trkpt>
<trkpt lat="43.768924" lon="6.234764999999999"><ele>710.15</ele></trkpt>
<trkpt lat="43.768754" lon="6.234621"><ele>621.11</ele></trkpt>
<trkpt lat="43.768574" lon="6.234512"><ele>612.11</ele></trkpt>
<trkpt lat="43.768393" lon="6.23452"><ele>598.58</ele></trkpt>
<trkpt lat="43.768193" lon="6.234557"><ele>559.33</ele></trkpt>
<trkpt lat="43.768012" lon="6.23457"><ele>583.98</ele></trkpt>
<trkpt lat="43.767842" lon="6.234673999999999"><ele>574.09</ele></trkpt>
<trkpt lat="43.767659" lon="6.234748"><ele>583.77</ele></trkpt>
<trkpt lat="43.767479" lon="6.234801"><ele>578.37</ele></trkpt>
<trkpt lat="43.767297" lon="6.234772"><ele>583.79</ele></trkpt>
<trkpt lat="43.767164" lon="6.234602"><ele>560.63</ele></trkpt>
<trkpt lat="43.767017" lon="6.23442"><ele>600.54</ele></trkpt>
<trkpt lat="43.766896" lon="6.234224"><ele>635.2</ele></trkpt>
<trkpt lat="43.766741" lon="6.234075"><ele>622.95</ele></trkpt>
<trkpt lat="43.766571" lon="6.233989000000001"><ele>636.93</ele></trkpt>
<trkpt lat="43.766456" lon="6.234184000000001"><ele>614.25</ele></trkpt>
<trkpt lat="43.766323" lon="6.234355999999999"><ele>585.82</ele></trkpt>
<trkpt lat="43.766126" lon="6.234331999999999"><ele>542.06</ele></trkpt>
<trkpt lat="43.765944" lon="6.234317"><ele>516.89</ele></trkpt>
<trkpt lat="43.765758" lon="6.234378999999999"><ele>532.06</ele></trkpt>
<trkpt lat="43.765583" lon="6.234478000000001"><ele>550.18</ele></trkpt>
<trkpt lat="43.765401" lon="6.234467000000001"><ele>549.42</ele></trkpt>
<trkpt lat="43.765224" lon="6.234400999999999"><ele>556.81</ele></trkpt>
<trkpt lat="43.765038" lon="6.234392"><ele>560.01</ele></trkpt>
<trkpt lat="43.764857" lon="6.234357"><ele>661.3</ele></trkpt>
<trkpt lat="43.764713" lon="6.234196999999999"><ele>707.36</ele></trkpt>
<trkpt lat="43.764707" lon="6.233942"><ele>715.65</ele></trkpt>
<trkpt lat="43.764636" lon="6.233702"><ele>707.45</ele></trkpt>
<trkpt lat="43.764586" lon="6.233457"><ele>581.41</ele></trkpt>
<trkpt lat="43.764421" lon="6.233324"><ele>564.5</ele></trkpt>
<trkpt lat="43.764245" lon="6.233259"><ele>576.79</ele></trkpt>
<trkpt lat="43.764084" lon="6.233136999999999"><ele>585.92</ele></trkpt>
<trkpt lat="43.763972" lon="6.232942000000001"><ele>569.8</ele></trkpt>
<trkpt lat="43.763865" lon="6.232737999999999"><ele>564.28</ele></trkpt>
<trkpt lat="43.763788" lon="6.232511999999999"><ele>592.78</ele></trkpt>
<trkpt lat="43.763686" lon="6.232293000000001"><ele>595.34</ele></trkpt>
<trkpt lat="43.763624" lon="6.232055000000001"><ele>593.05</ele></trkpt>
<trkpt lat="43.763566" lon="6.231813"><ele>589.84</ele></trkpt>
<trkpt lat="43.763582" lon="6.231547"><ele>580.15</ele></trkpt>
<trkpt lat="43.763652" lon="6.231312"><ele>587.05</ele></trkpt>
<trkpt lat="43.763632" lon="6.231058"><ele>535.07</ele></trkpt>
<trkpt lat="43.763668" lon="6.230804999999999"><ele>546.96</ele></trkpt>
<trkpt lat="43.763774" lon="6.230598"><ele>538.48</ele></trkpt>
<trkpt lat="43.763869" lon="6.230371000000001"><ele>527.41</ele></trkpt>
<trkpt lat="43.763976" lon="6.230166"><ele>537.28</ele></trkpt>
<trkpt lat="43.764095" lon="6.229974999999999"><ele>512.55</ele></trkpt>
<trkpt lat="43.763941" lon="6.229815999999999"><ele>520.31</ele></trkpt>
<trkpt lat="43.76382" lon="6.229630000000001"><ele>511.08</ele></trkpt>
<trkpt lat="43.763788" lon="6.229367"><ele>507.5699999999999</ele></trkpt>
<trkpt lat="43.763735" lon="6.229119999999999"><ele>515.58</ele></trkpt>
<trkpt lat="43.763689" lon="6.228865"><ele>689.2</ele></trkpt>
<trkpt lat="43.763746" lon="6.228623"><ele>710.43</ele></trkpt>
<trkpt lat="43.763856" lon="6.228414999999999"><ele>697.58</ele></trkpt>
<trkpt lat="43.763756" lon="6.228198000000001"><ele>699.31</ele></trkpt>
<trkpt lat="43.763721" lon="6.227941"><ele>686.67</ele></trkpt>
<trkpt lat="43.763697" lon="6.227677"><ele>684.44</ele></trkpt>
<trkpt lat="43.763724" lon="6.227423999999999"><ele>673.97</ele></trkpt>
<trkpt lat="43.763739" lon="6.22717"><ele>671.15</ele></trkpt>
<trkpt lat="43.764532" lon="6.226266"><ele>164.41</ele></trkpt>
<trkpt lat="43.763719" lon="6.227093999999999"><ele>452.2799999999999</ele></trkpt>
<trkpt lat="43.763707" lon="6.226842000000001"><ele>647.69</ele></trkpt>
<trkpt lat="43.763748" lon="6.226586"><ele>649.07</ele></trkpt>
<trkpt lat="43.763756" lon="6.226335"><ele>652.47</ele></trkpt>
<trkpt lat="43.764574" lon="6.226001999999999"><ele>156.3</ele></trkpt>
<trkpt lat="43.763747" lon="6.226312"><ele>435.39</ele></trkpt>
<trkpt lat="43.764534" lon="6.225946"><ele>154.34</ele></trkpt>
<trkpt lat="43.763733" lon="6.226244"><ele>441.68</ele></trkpt>
<trkpt lat="43.763561" lon="6.226166"><ele>684.52</ele></trkpt>
<trkpt lat="43.763403" lon="6.2263"><ele>648.57</ele></trkpt>
<trkpt lat="43.763225" lon="6.226375"><ele>557.18</ele></trkpt>
<trkpt lat="43.763056" lon="6.226490000000001"><ele>555.62</ele></trkpt>
<trkpt lat="43.762881" lon="6.22659"><ele>555.94</ele></trkpt>
<trkpt lat="43.762714" lon="6.226687"><ele>546.21</ele></trkpt>
<trkpt lat="43.762548" lon="6.226814"><ele>541.37</ele></trkpt>
<trkpt lat="43.762379" lon="6.226922000000001"><ele>535.46</ele></trkpt>
<trkpt lat="43.762202" lon="6.227008"><ele>543.93</ele></trkpt>
<trkpt lat="43.762031" lon="6.227096"><ele>550.65</ele></trkpt>
<trkpt lat="43.761868" lon="6.227205"><ele>528.8</ele></trkpt>
<trkpt lat="43.761712" lon="6.227335"><ele>549.68</ele></trkpt>
<trkpt lat="43.761543" lon="6.227447000000001"><ele>556.33</ele></trkpt>
<trkpt lat="43.761371" lon="6.22753"><ele>553.99</ele></trkpt>
<trkpt lat="43.761263" lon="6.227735"><ele>511.09</ele></trkpt>
<trkpt lat="43.761184" lon="6.227958999999999"><ele>527.36</ele></trkpt>
<trkpt lat="43.761063" lon="6.228169"><ele>544.72</ele></trkpt>
<trkpt lat="43.76095" lon="6.228372"><ele>558.38</ele></trkpt>
<trkpt lat="43.760822" lon="6.228568"><ele>547.58</ele></trkpt>
<trkpt lat="43.760642" lon="6.228545"><ele>533.6</ele></trkpt>
<trkpt lat="43.760464" lon="6.228591"><ele>518.09</ele></trkpt>
<trkpt lat="43.76029" lon="6.228666999999999"><ele>666.25</ele></trkpt>
<trkpt lat="43.760111" lon="6.228625"><ele>636.68</ele></trkpt>
<trkpt lat="43.759947" lon="6.228504000000001"><ele>582.52</ele></trkpt>
<trkpt lat="43.75979" lon="6.22836"><ele>581.58</ele></trkpt>
<trkpt lat="43.759647" lon="6.228188"><ele>581.05</ele></trkpt>
<trkpt lat="43.759535" lon="6.227982000000001"><ele>581.39</ele></trkpt>
<trkpt lat="43.759448" lon="6.227759"><ele>580.15</ele></trkpt>
<trkpt lat="43.759267" lon="6.227708999999999"><ele>530.48</ele></trkpt>
<trkpt lat="43.759134" lon="6.227531"><ele>543.79</ele></trkpt>
<trkpt lat="43.759102" lon="6.227274000000001"><ele>530.93</ele></trkpt>
<trkpt lat="43.759087" lon="6.22702"><ele>514.28</ele></trkpt>
<trkpt lat="43.759067" lon="6.226757"><ele>512.78</ele></trkpt>
<trkpt lat="43.759058" lon="6.226504"><ele>537.37</ele></trkpt>
<trkpt lat="43.759015" lon="6.22626"><ele>523.79</ele></trkpt>
<trkpt lat="43.75895" lon="6.226026"><ele>519.17</ele></trkpt>
<trkpt lat="43.758838" lon="6.225816"><ele>518.59</ele></trkpt>
<trkpt lat="43.758703" lon="6.225648"><ele>508.66</ele></trkpt>
<trkpt lat="43.758554" lon="6.225497"><ele>515.59</ele></trkpt>
<trkpt lat="43.758417" lon="6.225328000000001"><ele>512.78</ele></trkpt>
<trkpt lat="43.758377" lon="6.225081999999999"><ele>510.83</ele></trkpt>
<trkpt lat="43.75835" lon="6.224829000000001"><ele>509.43</ele></trkpt>
<trkpt lat="43.758261" lon="6.224608"><ele>511.05</ele></trkpt>
<trkpt lat="43.758406" lon="6.224451"><ele>510.34</ele></trkpt>
<trkpt lat="43.75855" lon="6.22429"><ele>516.66</ele></trkpt>
<trkpt lat="43.758647" lon="6.224067000000001"><ele>509.98</ele></trkpt>
<trkpt lat="43.758836" lon="6.223963000000001"><ele>518.91</ele></trkpt>
<trkpt lat="43.758925" lon="6.223744"><ele>524.52</ele></trkpt>
<trkpt lat="43.758756" lon="6.22364"><ele>538.61</ele></trkpt>
<trkpt lat="43.758586" lon="6.223523"><ele>539.72</ele></trkpt>
<trkpt lat="43.758404" lon="6.22349"><ele>549.04</ele></trkpt>
<trkpt lat="43.758211" lon="6.223489"><ele>549.15</ele></trkpt>
<trkpt lat="43.758053" lon="6.223361000000001"><ele>549.97</ele></trkpt>
<trkpt lat="43.757879" lon="6.223437"><ele>549.59</ele></trkpt>
<trkpt lat="43.757742" lon="6.223271"><ele>503.44</ele></trkpt>
<trkpt lat="43.757676" lon="6.223036"><ele>503.44</ele></trkpt>
<trkpt lat="43.757638" lon="6.222791999999999"><ele>501.6199999999999</ele></trkpt>
<trkpt lat="43.757574" lon="6.222541"><ele>503.13</ele></trkpt>
<trkpt lat="43.757724" lon="6.222399"><ele>547.3</ele></trkpt>
<trkpt lat="43.757911" lon="6.222379"><ele>544.74</ele></trkpt>
<trkpt lat="43.758082" lon="6.222297"><ele>553.18</ele></trkpt>
<trkpt lat="43.758263" lon="6.222355"><ele>551.54</ele></trkpt>
<trkpt lat="43.758453" lon="6.222367"><ele>545.85</ele></trkpt>
<trkpt lat="43.758635" lon="6.222427"><ele>530.95</ele></trkpt>
<trkpt lat="43.758811" lon="6.222343"><ele>517.26</ele></trkpt>
<trkpt lat="43.758815" lon="6.222093"><ele>538.1</ele></trkpt>
<trkpt lat="43.75867" lon="6.221925"><ele>535.82</ele></trkpt>
<trkpt lat="43.758549" lon="6.221739"><ele>534.07</ele></trkpt>
<trkpt lat="43.758372" lon="6.221636"><ele>522.21</ele></trkpt>
<trkpt lat="43.758181" lon="6.221592"><ele>527.06</ele></trkpt>
<trkpt lat="43.757992" lon="6.221577"><ele>521.81</ele></trkpt>
<trkpt lat="43.757818" lon="6.221651"><ele>521.88</ele></trkpt>
<trkpt lat="43.757683" lon="6.221477"><ele>494.81</ele></trkpt>
<trkpt lat="43.75784" lon="6.221323999999999"><ele>494.5</ele></trkpt>
<trkpt lat="43.758004" lon="6.221219"><ele>493.8199999999999</ele></trkpt>
<trkpt lat="43.758174" lon="6.221135"><ele>493.09</ele></trkpt>
<trkpt lat="43.758358" lon="6.221176000000001"><ele>490.49</ele></trkpt>
<trkpt lat="43.758556" lon="6.221154"><ele>491.2699999999999</ele></trkpt>
<trkpt lat="43.758612" lon="6.220912"><ele>492.25</ele></trkpt>
<trkpt lat="43.758634" lon="6.220657"><ele>489.8699999999999</ele></trkpt>
<trkpt lat="43.758674" lon="6.220398"><ele>494.26</ele></trkpt>
<trkpt lat="43.758656" lon="6.220137"><ele>492.9499999999999</ele></trkpt>
<trkpt lat="43.758665" lon="6.219874"><ele>492.27</ele></trkpt>
<trkpt lat="43.758685" lon="6.219621"><ele>492.52</ele></trkpt>
<trkpt lat="43.758683" lon="6.219366999999999"><ele>495.89</ele></trkpt>
<trkpt lat="43.758625" lon="6.219124"><ele>495.34</ele></trkpt>
<trkpt lat="43.75845" lon="6.219204"><ele>496.83</ele></trkpt>
<trkpt lat="43.758313" lon="6.219384"><ele>495.63</ele></trkpt>
<trkpt lat="43.758175" lon="6.219557"><ele>495.99</ele></trkpt>
<trkpt lat="43.758022" lon="6.219695"><ele>497.36</ele></trkpt>
<trkpt lat="43.75785" lon="6.219794"><ele>495.33</ele></trkpt>
<trkpt lat="43.757675" lon="6.219879999999999"><ele>495.99</ele></trkpt>
<trkpt lat="43.7575" lon="6.219966"><ele>522.8</ele></trkpt>
<trkpt lat="43.757314" lon="6.220001"><ele>536.06</ele></trkpt>
<trkpt lat="43.757132" lon="6.219989"><ele>550.07</ele></trkpt>
<trkpt lat="43.756949" lon="6.219970999999999"><ele>554.66</ele></trkpt>
<trkpt lat="43.756766" lon="6.219938"><ele>666.84</ele></trkpt>
<trkpt lat="43.756678" lon="6.219715"><ele>639.62</ele></trkpt>
<trkpt lat="43.756708" lon="6.219464"><ele>623.15</ele></trkpt>
<trkpt lat="43.756703" lon="6.219212"><ele>678.13</ele></trkpt>
<trkpt lat="43.756775" lon="6.218979999999999"><ele>575.78</ele></trkpt>
<trkpt lat="43.756823" lon="6.218739000000001"><ele>573.4</ele></trkpt>
<trkpt lat="43.756809" lon="6.218473"><ele>538.16</ele></trkpt>
<trkpt lat="43.756826" lon="6.218212"><ele>565.02</ele></trkpt>
<trkpt lat="43.756918" lon="6.217988999999999"><ele>560.5</ele></trkpt>
<trkpt lat="43.756998" lon="6.217757"><ele>563.67</ele></trkpt>
<trkpt lat="43.757062" lon="6.217494"><ele>568.01</ele></trkpt>
<trkpt lat="43.757096" lon="6.217242"><ele>554.81</ele></trkpt>
<trkpt lat="43.757144" lon="6.216985"><ele>577.93</ele></trkpt>
<trkpt lat="43.757166" lon="6.216733"><ele>576.88</ele></trkpt>
<trkpt lat="43.757187" lon="6.216482"><ele>585.3</ele></trkpt>
<trkpt lat="43.757166" lon="6.216226999999999"><ele>567.41</ele></trkpt>
<trkpt lat="43.757244" lon="6.215996"><ele>570.33</ele></trkpt>
<trkpt lat="43.757352" lon="6.215770000000001"><ele>560.18</ele></trkpt>
<trkpt lat="43.757436" lon="6.215538"><ele>582.62</ele></trkpt>
<trkpt lat="43.757514" lon="6.215307"><ele>627.71</ele></trkpt>
<trkpt lat="43.757642" lon="6.215116"><ele>625.34</ele></trkpt>
<trkpt lat="43.757755" lon="6.214916"><ele>609.44</ele></trkpt>
<trkpt lat="43.757862" lon="6.214695"><ele>629.76</ele></trkpt>
<trkpt lat="43.757957" lon="6.21447"><ele>487.94</ele></trkpt>
<trkpt lat="43.75815" lon="6.21447"><ele>521.84</ele></trkpt>
<trkpt lat="43.758327" lon="6.2144"><ele>532.27</ele></trkpt>
<trkpt lat="43.758341" lon="6.214143999999999"><ele>529.47</ele></trkpt>
<trkpt lat="43.758354" lon="6.213888"><ele>496.2</ele></trkpt>
<trkpt lat="43.758284" lon="6.213658"><ele>510.57</ele></trkpt>
<trkpt lat="43.75839" lon="6.213872"><ele>528.17</ele></trkpt>
<trkpt lat="43.758518" lon="6.214051"><ele>532.53</ele></trkpt>
<trkpt lat="43.758672" lon="6.21418"><ele>533.63</ele></trkpt>
<trkpt lat="43.758843" lon="6.214274"><ele>524.27</ele></trkpt>
<trkpt lat="43.759016" lon="6.214373"><ele>537.05</ele></trkpt>
<trkpt lat="43.759191" lon="6.214445"><ele>526.07</ele></trkpt>
<trkpt lat="43.759385" lon="6.214424"><ele>522.24</ele></trkpt>
<trkpt lat="43.759508" lon="6.214211999999999"><ele>513.91</ele></trkpt>
<trkpt lat="43.759586" lon="6.213986"><ele>524.69</ele></trkpt>
<trkpt lat="43.759648" lon="6.213744000000001"><ele>511.14</ele></trkpt>
<trkpt lat="43.759743" lon="6.213523"><ele>510.3</ele></trkpt>
<trkpt lat="43.759742" lon="6.21327"><ele>504.92</ele></trkpt>
<trkpt lat="43.75973" lon="6.213017000000001"><ele>512.74</ele></trkpt>
<trkpt lat="43.759818" lon="6.212791"><ele>498.6900000000001</ele></trkpt>
<trkpt lat="43.759906" lon="6.212568"><ele>500.4399999999999</ele></trkpt>
<trkpt lat="43.759963" lon="6.212332"><ele>502.31</ele></trkpt>
<trkpt lat="43.760076" lon="6.212134"><ele>501.2699999999999</ele></trkpt>
<trkpt lat="43.75998" lon="6.212364"><ele>507.8699999999999</ele></trkpt>
<trkpt lat="43.75986" lon="6.212563"><ele>498.81</ele></trkpt>
<trkpt lat="43.759798" lon="6.212800000000001"><ele>492.6499999999999</ele></trkpt>
<trkpt lat="43.759877" lon="6.21303"><ele>520.64</ele></trkpt>
<trkpt lat="43.759926" lon="6.212777000000001"><ele>512.93</ele></trkpt>
<trkpt lat="43.760029" lon="6.212572999999999"><ele>500.1799999999999</ele></trkpt>
<trkpt lat="43.760133" lon="6.212367"><ele>498.03</ele></trkpt>
<trkpt lat="43.760247" lon="6.212161"><ele>498.83</ele></trkpt>
<trkpt lat="43.760374" lon="6.21198"><ele>506.84</ele></trkpt>
<trkpt lat="43.76054" lon="6.211882"><ele>498.26</ele></trkpt>
<trkpt lat="43.760663" lon="6.211699"><ele>506.02</ele></trkpt>
<trkpt lat="43.760816" lon="6.211554"><ele>504.88</ele></trkpt>
<trkpt lat="43.761003" lon="6.211527"><ele>501.9</ele></trkpt>
<trkpt lat="43.761186" lon="6.211496"><ele>501.47</ele></trkpt>
<trkpt lat="43.761367" lon="6.211545"><ele>504.3399999999999</ele></trkpt>
<trkpt lat="43.761531" lon="6.211674"><ele>515.54</ele></trkpt>
<trkpt lat="43.761677" lon="6.211831999999999"><ele>531.24</ele></trkpt>
<trkpt lat="43.761823" lon="6.211984"><ele>529.86</ele></trkpt>
<trkpt lat="43.761998" lon="6.212046"><ele>533.5</ele></trkpt>
<trkpt lat="43.76217" lon="6.212152000000001"><ele>510.86</ele></trkpt>
<trkpt lat="43.762343" lon="6.212257"><ele>525.58</ele></trkpt>
<trkpt lat="43.76252" lon="6.212335999999999"><ele>514.92</ele></trkpt>
<trkpt lat="43.762697" lon="6.212417"><ele>519.42</ele></trkpt>
<trkpt lat="43.762874" lon="6.212465"><ele>512.45</ele></trkpt>
<trkpt lat="43.763051" lon="6.212405"><ele>499.73</ele></trkpt>
<trkpt lat="43.763146" lon="6.212192"><ele>505.75</ele></trkpt>
<trkpt lat="43.763195" lon="6.211952"><ele>503.97</ele></trkpt>
<trkpt lat="43.763262" lon="6.211707"><ele>494.6499999999999</ele></trkpt>
<trkpt lat="43.763358" lon="6.21149"><ele>494.9599999999999</ele></trkpt>
<trkpt lat="43.763512" lon="6.211363"><ele>515.62</ele></trkpt>
<trkpt lat="43.763692" lon="6.211330000000001"><ele>498.2</ele></trkpt>
<trkpt lat="43.763877" lon="6.211389999999999"><ele>498.49</ele></trkpt>
<trkpt lat="43.764066" lon="6.211395"><ele>497.37</ele></trkpt>
<trkpt lat="43.764237" lon="6.211299"><ele>495.35</ele></trkpt>
<trkpt lat="43.764403" lon="6.211194"><ele>500.02</ele></trkpt>
<trkpt lat="43.76458" lon="6.211131"><ele>519.67</ele></trkpt>
<trkpt lat="43.764759" lon="6.211219999999999"><ele>544.45</ele></trkpt>
<trkpt lat="43.764883" lon="6.211421"><ele>554.5</ele></trkpt>
<trkpt lat="43.764984" lon="6.211635"><ele>479.2599999999999</ele></trkpt>
<trkpt lat="43.765142" lon="6.211768"><ele>534.63</ele></trkpt>
<trkpt lat="43.765323" lon="6.211819"><ele>538.41</ele></trkpt>
<trkpt lat="43.76547" lon="6.211971"><ele>552.22</ele></trkpt>
<trkpt lat="43.765635" lon="6.212076"><ele>563.75</ele></trkpt>
<trkpt lat="43.765819" lon="6.212102"><ele>548.58</ele></trkpt>
<trkpt lat="43.76594" lon="6.212294"><ele>547.15</ele></trkpt>
<trkpt lat="43.766027" lon="6.212513000000001"><ele>574.76</ele></trkpt>
<trkpt lat="43.766174" lon="6.212678"><ele>542.43</ele></trkpt>
<trkpt lat="43.766304" lon="6.212861"><ele>545.29</ele></trkpt>
<trkpt lat="43.766415" lon="6.213062000000001"><ele>569.82</ele></trkpt>
<trkpt lat="43.766561" lon="6.213213"><ele>595.31</ele></trkpt>
<trkpt lat="43.766705" lon="6.213397"><ele>550.63</ele></trkpt>
<trkpt lat="43.766843" lon="6.213573999999999"><ele>557.05</ele></trkpt>
<trkpt lat="43.767016" lon="6.213675000000001"><ele>564.89</ele></trkpt>
<trkpt lat="43.767196" lon="6.213721"><ele>500.53</ele></trkpt>
<trkpt lat="43.767381" lon="6.213685"><ele>466.74</ele></trkpt>
<trkpt lat="43.767536" lon="6.213829"><ele>468.3399999999999</ele></trkpt>
<trkpt lat="43.767682" lon="6.213987"><ele>481.41</ele></trkpt>
<trkpt lat="43.767865" lon="6.213995999999999"><ele>477.29</ele></trkpt>
<trkpt lat="43.768053" lon="6.213972000000001"><ele>482.76</ele></trkpt>
<trkpt lat="43.768245" lon="6.213937"><ele>484</ele></trkpt>
<trkpt lat="43.768398" lon="6.213774"><ele>485.79</ele></trkpt>
<trkpt lat="43.768565" lon="6.213641999999999"><ele>483.9299999999999</ele></trkpt>
<trkpt lat="43.768732" lon="6.213538"><ele>484.42</ele></trkpt>
<trkpt lat="43.768834" lon="6.213318"><ele>482.63</ele></trkpt>
<trkpt lat="43.768865" lon="6.213062999999999"><ele>482.37</ele></trkpt>
<trkpt lat="43.76886" lon="6.212810000000001"><ele>487.22</ele></trkpt>
<trkpt lat="43.768777" lon="6.212579"><ele>484.82</ele></trkpt>
<trkpt lat="43.768686" lon="6.212362"><ele>483.95</ele></trkpt>
<trkpt lat="43.768713" lon="6.212116000000001"><ele>482.77</ele></trkpt>
<trkpt lat="43.768747" lon="6.211869"><ele>483.5199999999999</ele></trkpt>
<trkpt lat="43.768776" lon="6.21162"><ele>486.0799999999999</ele></trkpt>
<trkpt lat="43.768844" lon="6.211374"><ele>484.3999999999999</ele></trkpt>
<trkpt lat="43.768862" lon="6.211113"><ele>483.95</ele></trkpt>
<trkpt lat="43.768899" lon="6.210853999999999"><ele>479.63</ele></trkpt>
<trkpt lat="43.768972" lon="6.210626"><ele>477.5699999999999</ele></trkpt>
<trkpt lat="43.769081" lon="6.210414"><ele>503.77</ele></trkpt>
<trkpt lat="43.7692" lon="6.210209"><ele>531.76</ele></trkpt>
<trkpt lat="43.769293" lon="6.209994"><ele>524.55</ele></trkpt>
<trkpt lat="43.769364" lon="6.209760000000001"><ele>524.2</ele></trkpt>
<trkpt lat="43.769429" lon="6.209526"><ele>495.0099999999999</ele></trkpt>
<trkpt lat="43.769482" lon="6.209283000000001"><ele>503.03</ele></trkpt>
<trkpt lat="43.769541" lon="6.209037"><ele>505.8200000000001</ele></trkpt>
<trkpt lat="43.769714" lon="6.208942"><ele>515.68</ele></trkpt>
<trkpt lat="43.769898" lon="6.208874000000001"><ele>512.6</ele></trkpt>
<trkpt lat="43.770078" lon="6.208928"><ele>506.3</ele></trkpt>
<trkpt lat="43.770247" lon="6.208822"><ele>493.7799999999999</ele></trkpt>
<trkpt lat="43.770417" lon="6.208739999999999"><ele>516.9</ele></trkpt>
<trkpt lat="43.770586" lon="6.208850999999999"><ele>530.64</ele></trkpt>
<trkpt lat="43.770749" lon="6.208985"><ele>550.04</ele></trkpt>
<trkpt lat="43.770857" lon="6.209197"><ele>541.3</ele></trkpt>
<trkpt lat="43.770937" lon="6.209439"><ele>499.98</ele></trkpt>
<trkpt lat="43.771007" lon="6.209677"><ele>503.23</ele></trkpt>
<trkpt lat="43.771019" lon="6.209926"><ele>513.04</ele></trkpt>
<trkpt lat="43.771075" lon="6.210169"><ele>527.55</ele></trkpt>
<trkpt lat="43.771099" lon="6.210420999999999"><ele>504.28</ele></trkpt>
<trkpt lat="43.771139" lon="6.210672000000001"><ele>503.65</ele></trkpt>
<trkpt lat="43.771165" lon="6.210931000000001"><ele>505.42</ele></trkpt>
<trkpt lat="43.771184" lon="6.211182"><ele>505.94</ele></trkpt>
<trkpt lat="43.771166" lon="6.211438"><ele>510.2</ele></trkpt>
<trkpt lat="43.771172" lon="6.211688"><ele>523.31</ele></trkpt>
<trkpt lat="43.771188" lon="6.211943"><ele>520.92</ele></trkpt>
<trkpt lat="43.771195" lon="6.2122"><ele>492.16</ele></trkpt>
<trkpt lat="43.771214" lon="6.212462"><ele>490.24</ele></trkpt>
<trkpt lat="43.771387" lon="6.212554"><ele>489.49</ele></trkpt>
<trkpt lat="43.771355" lon="6.212810999999999"><ele>493.34</ele></trkpt>
<trkpt lat="43.771294" lon="6.213055"><ele>493.13</ele></trkpt>
<trkpt lat="43.771332" lon="6.213313"><ele>495.13</ele></trkpt>
<trkpt lat="43.771382" lon="6.213563000000001"><ele>494.68</ele></trkpt>
<trkpt lat="43.771395" lon="6.213826"><ele>494.84</ele></trkpt>
<trkpt lat="43.771454" lon="6.214076"><ele>492.66</ele></trkpt>
<trkpt lat="43.771568" lon="6.214284"><ele>492.76</ele></trkpt>
<trkpt lat="43.77166" lon="6.214504"><ele>491.48</ele></trkpt>
<trkpt lat="43.771738" lon="6.214734999999999"><ele>491.2</ele></trkpt>
<trkpt lat="43.771819" lon="6.214959"><ele>493.55</ele></trkpt>
<trkpt lat="43.771927" lon="6.215169999999999"><ele>494.4300000000001</ele></trkpt>
<trkpt lat="43.772018" lon="6.215396"><ele>492.87</ele></trkpt>
<trkpt lat="43.772118" lon="6.215620000000001"><ele>490.37</ele></trkpt>
<trkpt lat="43.772222" lon="6.215834"><ele>491.61</ele></trkpt>
<trkpt lat="43.772361" lon="6.216016"><ele>494.32</ele></trkpt>
<trkpt lat="43.772466" lon="6.216225"><ele>495.5699999999999</ele></trkpt>
<trkpt lat="43.772542" lon="6.216461"><ele>496.4300000000001</ele></trkpt>
<trkpt lat="43.772661" lon="6.216662"><ele>493.72</ele></trkpt>
<trkpt lat="43.772764" lon="6.216871"><ele>657.33</ele></trkpt>
<trkpt lat="43.77291" lon="6.217049"><ele>675.45</ele></trkpt>
<trkpt lat="43.773071" lon="6.217183"><ele>657.11</ele></trkpt>
<trkpt lat="43.773222" lon="6.217339"><ele>681.89</ele></trkpt>
<trkpt lat="43.773384" lon="6.217458"><ele>608.43</ele></trkpt>
<trkpt lat="43.773536" lon="6.217599"><ele>599.66</ele></trkpt>
<trkpt lat="43.773676" lon="6.217778"><ele>611.05</ele></trkpt>
<trkpt lat="43.773775" lon="6.218000000000001"><ele>567.13</ele></trkpt>
</trkseg></trk>
</gpx>