<?xml version="1.0" encoding="UTF-8"?>
<kml xmlns="http://www.opengis.net/kml/2.2"><Document><name>mont_aurelien_pourcieux</name>
<Placemark><name>Tracé</name><Style><LineStyle><color>ff5aad7a</color><width>3</width></LineStyle></Style><LineString><altitudeMode>clampToGround</altitudeMode><coordinates>5.782777,43.470027,0
5.782725,43.469885,0
5.782776,43.469744,0
5.782959,43.469654,0
5.783143,43.469614,0
5.783305,43.469543,0
5.783479,43.469479,0
5.783669,43.469469,0
5.78386,43.469443,0
5.784053,43.469406,0
5.784193,43.469306,0
5.784351,43.46923,0
5.784513,43.469149,0
5.784655,43.469062,0
5.784819,43.468994,0
5.784959999999999,43.468893,0
5.785140999999999,43.468844,0
5.785323000000001,43.468876,0
5.785491,43.468947,0
5.785433,43.468807,0
5.785355,43.468673,0
5.785290000000001,43.468537,0
5.785231,43.468406,0
5.785185999999999,43.468263,0
5.785114,43.468134,0
5.785117,43.467997,0
5.785,43.467854,0
5.784919,43.467728,0
5.784814,43.467613,0
5.784674999999999,43.467521,0
5.784502,43.467443,0
5.784356000000001,43.467352,0
5.784211,43.467267,0
5.784055,43.467174,0
5.783912000000001,43.46708,0
5.783761,43.466987,0
5.7836,43.466907,0
5.783436,43.466826,0
5.783262,43.466766,0
5.783074,43.466771,0
5.782881,43.46678,0
5.782691,43.466762,0
5.782508,43.466717,0
5.782403,43.466598,0
5.782305,43.466481,0
5.78229,43.46634,0
5.78241,43.466236,0
5.782567,43.466164,0
5.782717000000001,43.46608,0
5.782905,43.466033,0
5.78309,43.465982,0
5.783258,43.465921,0
5.783442,43.465874,0
5.783533,43.465753,0
5.783547,43.465618,0
5.783563,43.465479,0
5.783582999999999,43.465339,0
5.783633,43.465202,0
5.783699,43.465064,0
5.783756,43.464932,0
5.783809,43.464802,0
5.783876000000001,43.46467,0
5.78394,43.464539,0
5.783992,43.464407,0
5.783997,43.464264,0
5.783936999999999,43.464133,0
5.783867000000001,43.463999,0
5.783836,43.463863,0
5.78383,43.463715,0
5.78389,43.463587,0
5.784002999999999,43.463479,0
5.784185999999999,43.463421,0
5.784327,43.463315,0
5.784374,43.46318,0
5.784427,43.463043,0
5.784570000000001,43.462949,0
5.784715,43.462851,0
5.784817,43.462727,0
5.784871,43.462597,0
5.784890000000001,43.462428,0
5.784899,43.462291,0
5.784888,43.462143,0
5.784896,43.462004,0
5.784875,43.461867,0
5.78494,43.461738,0
5.785009,43.461609,0
5.785095000000001,43.461487,0
5.785089,43.461349,0
5.785077,43.461184,0
5.785214,43.461093,0
5.785347999999999,43.460998,0
5.785485,43.460885,0
5.785629000000001,43.460789,0
5.785785,43.460708,0
5.785962999999999,43.460664,0
5.786123,43.460574,0
5.786235999999999,43.460451,0
5.786345,43.460342,0
5.786423,43.460214,0
5.786456,43.460079,0
5.786506999999999,43.459942,0
5.786616,43.45982,0
5.786712000000001,43.459699,0
5.786776,43.459568,0
5.78685,43.459435,0
5.787018,43.459343,0
5.787208,43.459333,0
5.787402,43.459308,0
5.787586,43.459272,0
5.787765,43.459215,0
5.787912,43.459127,0
5.787969,43.458987,0
5.787967,43.458844,0
5.788,43.45871,0
5.788031000000001,43.458569,0
5.787997000000001,43.458425,0
5.787869,43.458317,0
5.787676,43.458295,0
5.787512,43.458223,0
5.787444,43.458085,0
5.787435,43.457943,0
5.787406000000001,43.457801,0
5.787402,43.457658,0
5.787399,43.45752,0
5.787444,43.457385,0
5.787511,43.457255,0
5.787499999999999,43.457118,0
5.787397,43.456997,0
5.787298,43.456875,0
5.787313000000001,43.456732,0
5.787271,43.456596,0
5.787245000000001,43.456462,0
5.787154000000001,43.456332,0
5.787107,43.456197,0
5.78707,43.456064,0
5.787071,43.455918,0
5.787064000000001,43.455778,0
5.787054999999999,43.455639,0
5.787024,43.455503,0
5.786940999999999,43.455381,0
5.786793,43.455297,0
5.786632999999999,43.455223,0
5.786467,43.455161,0
5.786446,43.455022,0
5.786553000000001,43.454898,0
5.786667,43.454788,0
5.786475,43.454766,0
5.786286,43.454713,0
5.786106,43.454645,0
5.786125,43.454506,0
5.786071,43.454377,0
5.786111,43.454238,0
5.786182,43.454113,0
5.786317,43.454004,0
5.786242,43.454132,0
5.78622,43.454268,0
5.786145999999999,43.454405,0
5.786223999999999,43.454533,0
5.786144,43.454657,0
5.786026,43.454767,0
5.785901,43.454875,0
5.785704,43.454853,0
5.785505,43.454878,0
5.785374,43.454762,0
5.785185000000001,43.454713,0
5.78499,43.454679,0
5.784803,43.454628,0
5.784618999999999,43.454575,0
5.78446,43.454499,0
5.78428,43.454443,0
5.784111,43.454377,0
5.783923,43.454373,0
5.783749,43.454326,0
5.783572999999999,43.454382,0
5.783408,43.454454,0
5.783230999999999,43.454402,0
5.783026999999999,43.454347,0
5.782848,43.454413,0
5.782662,43.45441,0
5.782471,43.454431,0
5.782308,43.454497,0
5.7821,43.454472,0
5.782018,43.454598,0
5.781822,43.45461,0
5.781686,43.454514,0
5.781497,43.454509,0
5.781321,43.454596,0
5.781102999999999,43.45459,0
5.78093,43.454537,0
5.780817000000001,43.454419,0
5.780628,43.454373,0
5.780555000000001,43.454244,0
5.780475999999999,43.454121,0
5.780501,43.453985,0
5.780344,43.453909,0
5.780172,43.453852,0
5.779946,43.453862,0
5.780026,43.453739,0
5.780178000000001,43.453611,0
5.780145999999999,43.453478,0
5.780349999999999,43.453507,0
5.78054,43.453528,0
5.780719,43.45357,0
5.780895999999999,43.453626,0
5.781082,43.45359,0
5.781255,43.453527,0
5.781423,43.453459,0
5.781551,43.453356,0
5.781655,43.45323,0
5.781766,43.453116,0
5.781759,43.452963,0
5.781748000000001,43.452806,0
5.781774,43.452665,0
5.781812,43.452527,0
5.781859,43.452391,0
5.782053,43.452364,0
5.782227,43.452415,0
5.782389,43.452481,0
5.782585,43.452516,0
5.782791,43.452534,0
5.782976,43.452586,0
5.783156,43.452543,0
5.78336,43.452498,0
5.783483,43.4526,0
5.78368,43.452547,0
5.783809,43.452448,0
5.783851,43.452315,0
5.783831000000001,43.45218,0
5.783822999999999,43.452039,0
5.783731,43.451914,0
5.783721,43.451771,0
5.783864000000001,43.451683,0
5.784042,43.451722,0
5.78424,43.451683,0
5.784283,43.451544,0
5.784503000000001,43.451536,0
5.784657,43.451613,0
5.784822000000001,43.45154,0
5.785014000000001,43.451528,0
5.785211,43.451559,0
5.785411,43.451593,0
5.785608000000001,43.451609,0
5.785815,43.451562,0
5.785983000000001,43.451501,0
5.786171,43.451473,0
5.786361,43.451473,0
5.786548,43.451362,0
5.786734000000001,43.451354,0
5.786904,43.451419,0
5.787078,43.451481,0
5.787275,43.451434,0
5.787455,43.451398,0
5.787651,43.451354,0
5.787796,43.451269,0
5.787934,43.451175,0
5.788063,43.451068,0
5.788177,43.450959,0
5.788389,43.450878,0
5.788515,43.450778,0
5.788649,43.450685,0
5.788778,43.450579,0
5.78888,43.450462,0
5.789038,43.45036,0
5.7892,43.450294,0
5.789385000000001,43.450256,0
5.78957,43.450161,0
5.789637999999999,43.45003,0
5.789580999999999,43.449894,0
5.78956,43.449757,0
5.789686,43.449658,0
5.789873,43.449658,0
5.790061,43.449668,0
5.790242,43.449698,0
5.790429,43.449687,0
5.790619,43.449684,0
5.790705000000001,43.449564,0
5.790623,43.449438,0
5.790682000000001,43.44931,0
5.790876000000001,43.449282,0
5.791097,43.4493,0
5.791283,43.449297,0
5.791417,43.449186,0
5.791443,43.449048,0
5.791647,43.449046,0
5.791837,43.449036,0
5.791810999999999,43.4489,0
5.791776,43.448764,0
5.791932,43.448669,0
5.792125,43.448684,0
5.792318,43.448724,0
5.792515,43.448734,0
5.792689,43.448785,0
5.792841,43.448871,0
5.792987,43.448959,0
5.793192,43.448896,0
5.793388,43.4489,0
5.793411,43.449035,0
5.793428999999999,43.449191,0
5.793622,43.449231,0
5.793809,43.449261,0
5.794005000000001,43.449263,0
5.794212999999999,43.449248,0
5.794402,43.44923,0
5.794577999999999,43.449181,0
5.794768000000001,43.449152,0
5.795046,43.449142,0
5.795242,43.449069,0
5.795440999999999,43.449045,0
5.795634999999999,43.448962,0
5.795746000000001,43.449086,0
5.795950000000001,43.449095,0
5.796135,43.449058,0
5.796323,43.44904,0
5.796531,43.449006,0
5.796715999999999,43.448978,0
5.796888,43.448882,0
5.797046999999999,43.448811,0
5.797244,43.448804,0
5.797416,43.448754,0
5.79763,43.448721,0
5.797813,43.448651,0
5.798021,43.448592,0
5.798239,43.44855,0
5.79841,43.448498,0
5.798606999999999,43.448496,0
5.798795,43.448497,0
5.798946999999999,43.448415,0
5.798898000000001,43.448285,0
5.798949,43.44815,0
5.799014,43.448021,0
5.798979000000001,43.447883,0
5.798910999999999,43.447747,0
5.798839,43.447619,0
5.798755,43.44749,0
5.798592000000001,43.44742,0
5.798415,43.447347,0
5.798274000000001,43.447259,0
5.798126000000001,43.447163,0
5.797991000000001,43.44706,0
5.797965,43.446923,0
5.797867,43.446803,0
5.797844999999999,43.446665,0
5.797781,43.446537,0
5.797736,43.446401,0
5.797668,43.446268,0
5.797597,43.446136,0
5.797499000000001,43.446017,0
5.797376000000001,43.445914,0
5.797262999999999,43.445798,0
5.797093,43.445743,0
5.796914,43.445699,0
5.79673,43.445669,0
5.796578999999999,43.445582,0
5.796389,43.445597,0
5.796204,43.445581,0
5.796065,43.445485,0
5.795871,43.445478,0
5.795686,43.445502,0
5.795495,43.44552,0
5.79538,43.445408,0
5.795218,43.445335,0
5.795172,43.445199,0
5.794992,43.445234,0
5.79483,43.445162,0
5.794636,43.445127,0
5.794428999999999,43.445124,0
5.794254,43.445078,0
5.794079,43.445024,0
5.794026,43.444895,0
5.79384,43.444906,0
5.793668,43.444959,0
5.793526,43.444864,0
5.793369999999999,43.444769,0
5.793183,43.444732,0
5.793005999999999,43.444684,0
5.792817,43.444669,0
5.79264,43.444714,0
5.792467,43.444769,0
5.792281,43.444824,0
5.792095000000001,43.44478,0
5.79195,43.444691,0
5.791765000000001,43.444705,0
5.791592,43.44476,0
5.791397,43.444778,0
5.791211,43.444821,0
5.791026999999999,43.44486,0
5.790832999999999,43.4449,0
5.790655,43.444947,0
5.79053,43.445051,0
5.790495,43.445205,0
5.790366999999999,43.445305,0
5.790237,43.44541,0
5.790083,43.445508,0
5.789893,43.445546,0
5.789739000000001,43.445626,0
5.789563,43.445673,0
5.789439,43.445776,0
5.789275,43.445842,0
5.789102999999999,43.445895,0
5.788948,43.445971,0
5.788756,43.446021,0
5.788551,43.446022,0
5.788397000000001,43.446107,0
5.788218,43.44617,0
5.78804,43.446226,0
5.787856,43.446305,0
5.787678,43.446349,0
5.787517,43.446419,0
5.787432,43.446558,0
5.787268999999999,43.446646,0
5.787078,43.446675,0
5.786919,43.44675,0
5.786734000000001,43.446818,0
5.78659,43.446912,0
5.786361,43.446911,0
5.786176000000001,43.446954,0
5.786022,43.447034,0
5.785848000000001,43.447109,0
5.785698999999999,43.447201,0
5.785525,43.447272,0
5.785392999999999,43.447375,0
5.785233999999999,43.44746,0
5.785116000000001,43.447566,0
5.785009,43.447692,0
5.784834999999999,43.447745,0
5.784641999999999,43.447778,0
5.784449,43.447787,0
5.784256,43.447761,0
5.78408,43.447818,0
5.783929,43.447898,0
5.783776999999999,43.447987,0
5.783613,43.448063,0
5.783421,43.448107,0
5.783275999999999,43.448191,0
5.783173000000001,43.448311,0
5.782989,43.448365,0
5.782845,43.448458,0
5.782672000000001,43.448519,0
5.782491,43.44857,0
5.782316,43.448626,0
5.782501999999999,43.448602,0
5.782318000000001,43.448573,0
5.782135999999999,43.448634,0
5.781974,43.448708,0
5.7818,43.448768,0
5.781582,43.448815,0
5.781399999999999,43.448848,0
5.781285,43.448971,0
5.781138,43.449054,0
5.780968,43.449119,0
5.780760000000001,43.449199,0
5.780571,43.449191,0
5.780363,43.449249,0
5.780194,43.449326,0
5.780061,43.44943,0
5.779854,43.449489,0
5.779699,43.449569,0
5.779574,43.449755,0
5.779437,43.449871,0
5.779244000000001,43.449847,0
5.779117,43.450027,0
5.778964,43.450116,0
5.778773,43.450113,0
5.778563999999999,43.450133,0
5.778411,43.450237,0
5.778265,43.450332,0
5.778138,43.450456,0
5.777955,43.450416,0
5.77777,43.450427,0
5.777608999999999,43.450495,0
5.77742,43.450539,0
5.777238,43.450571,0
5.777035,43.450576,0
5.776833999999999,43.450602,0
5.776658,43.450656,0
5.776485,43.450711,0
5.776306,43.450778,0
5.776131,43.450827,0
5.77595,43.450904,0
5.775741000000001,43.450882,0
5.775552,43.450889,0
5.775356999999999,43.450873,0
5.775168,43.4509,0
5.775001,43.45097,0
5.774815,43.450966,0
5.774626999999999,43.450975,0
5.774443,43.451014,0
5.774232,43.451062,0
5.774042,43.451067,0
5.773852999999999,43.451062,0
5.773664,43.451079,0
5.773471,43.451061,0
5.773281,43.451063,0
5.773089000000001,43.451085,0
5.772897999999999,43.451119,0
5.772699,43.451112,0
5.772525,43.451174,0
5.772332,43.451142,0
5.772133999999999,43.451144,0
5.771936,43.451166,0
5.771779000000001,43.45124,0
5.771583,43.451228,0
5.771376,43.451198,0
5.771189000000001,43.451202,0
5.771003,43.451181,0
5.770805,43.451183,0
5.770624,43.45114,0
5.770431,43.45112,0
5.770255,43.451057,0
5.770065,43.451014,0
5.769872,43.450984,0
5.769692,43.450942,0
5.769505999999999,43.450985,0
5.769321,43.450971,0
5.769139999999999,43.450915,0
5.768971999999999,43.450856,0
5.768769,43.450842,0
5.768572000000001,43.450838,0
5.768364,43.45087,0
5.768167,43.450849,0
5.767979,43.450835,0
5.767776999999999,43.450817,0
5.767592,43.450853,0
5.767454,43.450949,0
5.767336,43.450833,0
5.76714,43.450804,0
5.766942999999999,43.450799,0
5.766756,43.45078,0
5.766925,43.450839,0
5.767044000000001,43.450945,0
5.767199,43.451021,0
5.767062,43.450922,0
5.766902,43.450849,0
5.766716999999999,43.450831,0
5.766534999999999,43.450774,0
5.766346,43.45075,0
5.766156,43.450731,0
5.76597,43.450748,0
5.765807000000001,43.450681,0
5.765619,43.450636,0
5.765429000000001,43.450652,0
5.765297,43.450527,0
5.765129,43.45047,0
5.764915,43.450463,0
5.764756,43.450391,0
5.764595,43.450311,0
5.764417999999999,43.450259,0
5.764242,43.450193,0
5.764073,43.450129,0
5.763940000000001,43.450003,0
5.763802000000001,43.449876,0
5.763696,43.449759,0
5.763514,43.449732,0
5.763458,43.4496,0
5.7633,43.449523,0
5.763177999999999,43.449421,0
5.763001,43.449377,0
5.762916999999999,43.449239,0
5.762811000000001,43.449115,0
5.762711,43.448996,0
5.762640999999999,43.448858,0
5.762536,43.448717,0
5.762460999999999,43.448593,0
5.762419,43.448455,0
5.762329,43.448333,0
5.762279,43.4482,0
5.762181,43.44807,0
5.762083,43.44795,0
5.761949,43.447857,0
5.761828,43.447742,0
5.761696,43.447639,0
5.761601,43.447518,0
5.761475,43.447415,0
5.761346999999999,43.447301,0
5.76127,43.447171,0
5.761226,43.447032,0
5.761212,43.446886,0
5.76116,43.446748,0
5.761169,43.44661,0
5.761134,43.446469,0
5.761098,43.446336,0
5.761106999999999,43.446197,0
5.76117,43.446066,0
5.761226,43.445926,0
5.761252,43.44579,0
5.761212,43.445649,0
5.761227,43.445514,0
5.761216,43.445378,0
5.761159,43.445239,0
5.761077,43.445115,0
5.761084,43.44498,0
5.760982,43.444859,0
5.76097,43.444718,0
5.76085,43.444612,0
5.760724,43.444504,0
5.760613,43.444394,0
5.760502999999999,43.444283,0
5.760384,43.444167,0
5.760329,43.444032,0
5.760178,43.443944,0
5.760316,43.443847,0
5.760477,43.443767,0
5.760486,43.443624,0
5.760635,43.443529,0
5.76075,43.443415,0
5.760586,43.443347,0
5.76046,43.443231,0
5.760326,43.443132,0
5.760201,43.443028,0
5.76013,43.442902,0
5.760007,43.442788,0
5.759845,43.442711,0
5.759645,43.442647,0
5.759512999999999,43.442538,0
5.759402,43.44242,0
5.759260000000001,43.442319,0
5.759196,43.44219,0
5.759056999999999,43.442093,0
5.758844,43.442088,0
5.758785999999999,43.441957,0
5.758669000000001,43.441847,0
5.758545000000001,43.44174,0
5.758428,43.441627,0
5.758333,43.441501,0
5.758275,43.441368,0
5.758243,43.441235,0
5.758169,43.44111,0
5.758031,43.441019,0
5.757905,43.440917,0
5.757821,43.440793,0
5.757816999999999,43.440655,0
5.757787,43.440519,0
5.757761999999999,43.44038,0
5.757744,43.440233,0
5.757783999999999,43.440099,0
5.757743,43.439967,0
5.757605,43.439873,0
5.75741,43.4399,0
5.757281000000001,43.439999,0
5.757167000000001,43.440107,0
5.757103,43.440238,0
5.756974,43.440337,0
5.756887,43.440462,0
5.756811,43.440595,0
5.756738,43.440719,0
5.756633000000001,43.440835,0
5.756576000000001,43.440965,0
5.75663,43.441109,0
5.756698,43.441243,0
5.756763,43.441372,0
5.756816000000001,43.441507,0
5.756873999999999,43.441639,0
5.756795,43.441767,0
5.756707,43.441899,0
5.756613,43.442016,0
5.75653,43.442138,0
5.756531000000001,43.442282,0
5.756641,43.44239,0
5.756804999999999,43.442485,0
5.756966,43.442592,0
5.756996999999999,43.442726,0
5.756887,43.44284,0
5.7568,43.44297,0
5.756828000000001,43.443107,0
5.756858,43.443246,0
5.756885,43.443382,0
5.756807,43.443505,0
5.756664,43.44361,0
5.756561,43.443726,0
5.756514,43.443858,0
5.756540000000001,43.443996,0
5.756584,43.444161,0
5.756645000000001,43.444295,0
5.756759000000001,43.444403,0
5.756834,43.444535,0
5.756788,43.444667,0
5.756727,43.444795,0
5.756806,43.444946,0
5.756801,43.445107,0
5.75672,43.445231,0
5.756763,43.445364,0
5.756689,43.445491,0
5.756642000000001,43.445634,0
5.756708,43.445763,0
5.756765,43.445896,0
5.756688,43.446035,0
5.756545,43.446123,0
5.756405999999999,43.446241,0
5.756326999999999,43.446374,0
5.756319,43.446509,0
5.756201000000001,43.44663,0
5.75617,43.446771,0
5.756005,43.446877,0
5.755961999999999,43.447014,0
5.755944,43.447153,0
5.755878,43.447291,0
5.755891,43.447432,0
5.755906999999999,43.447574,0
5.755837999999999,43.44773,0
5.755911,43.447856,0
5.755870999999999,43.447989,0
5.755809,43.448118,0
5.755719,43.448244,0
5.755744,43.44839,0
5.755849999999999,43.448511,0
5.755867,43.448646,0
5.755918999999999,43.448796,0
5.756023,43.448928,0
5.756167,43.449037,0
5.75626,43.44917,0
5.756423,43.449246,0
5.756600000000001,43.449322,0
5.756683,43.44945,0
5.756823,43.449551,0
5.756975999999999,43.449656,0
5.757172,43.449688,0
5.757350999999999,43.449727,0
5.757525,43.449789,0
5.757656,43.4499,0
5.757771000000001,43.450016,0
5.757884,43.450144,0
5.758111000000001,43.450192,0
5.758295,43.450288,0
5.758487,43.450301,0
5.758703,43.450271,0
5.758895,43.450288,0
5.759056999999999,43.450375,0
5.759137999999999,43.4505,0
5.759148999999999,43.450639,0
5.759194000000001,43.450798,0
5.759260000000001,43.450938,0
5.759361,43.451061,0
5.75952,43.451142,0
5.759701,43.451234,0
5.759736,43.451367,0
5.759796,43.451504,0
5.759916,43.451612,0
5.760103000000001,43.451651,0
5.760298999999999,43.451656,0
5.760479000000001,43.451699,0
5.76067,43.451696,0
5.760856,43.451706,0
5.76104,43.451738,0
5.761137,43.451864,0
5.761318,43.451904,0
5.761511,43.451963,0
5.761645,43.452072,0
5.761819,43.452162,0
5.761917,43.452283,0
5.762016999999999,43.452403,0
5.762202,43.452506,0
5.762129,43.452647,0
5.762242,43.452759,0
5.762423,43.452807,0
5.762609999999999,43.452806,0
5.762795,43.452831,0
5.762942,43.452915,0
5.763077,43.453024,0
5.763209,43.453142,0
5.763366,43.453135,0
5.763419,43.45319,0
5.763584,43.453255,0
5.763735999999999,43.453339,0
5.763891,43.453418,0
5.764030000000001,43.453524,0
5.764216,43.453544,0
5.76426,43.45369,0
5.764296,43.453825,0
5.764339000000001,43.453957,0
5.764138,43.454003,0
5.764039,43.45416,0
5.763891,43.454068,0
5.763859999999999,43.454214,0
5.763712000000001,43.454314,0
5.763655000000001,43.454451,0
5.763747999999999,43.454568,0
5.763569,43.454631,0
5.763759,43.454589,0
5.763856,43.454472,0
5.763973000000001,43.454353,0
5.763924,43.454214,0
5.76409,43.454152,0
5.76416,43.454024,0
5.764279999999999,43.453914,0
5.764459,43.453877,0
5.764615,43.453798,0
5.764804000000001,43.453787,0
5.764997000000001,43.453803,0
5.765195,43.453827,0
5.765381,43.453844,0
5.765551,43.453922,0
5.765738999999999,43.453951,0
5.765930000000001,43.453953,0
5.766134000000001,43.453923,0
5.766322,43.45392,0
5.766507,43.453894,0
5.766683999999999,43.453842,0
5.766872,43.453816,0
5.767070999999999,43.453824,0
5.767248,43.453899,0
5.767425,43.45397,0
5.76753,43.454092,0
5.767716,43.454096,0
5.767888999999999,43.454037,0
5.768080000000001,43.454065,0
5.768261,43.454109,0
5.768436999999999,43.454166,0
5.76854,43.45428,0
5.768683000000001,43.454376,0
5.768868999999999,43.454417,0
5.769055,43.454412,0
5.769227,43.454335,0
5.769381,43.454242,0
5.769534,43.454164,0
5.769709000000001,43.454111,0
5.769888,43.454156,0
5.770024,43.454259,0
5.770147,43.454381,0
5.77035,43.454339,0
5.770526,43.454293,0
5.770761,43.454302,0
5.770887,43.454405,0
5.771052999999999,43.454471,0
5.771132999999999,43.4546,0
5.771319,43.454593,0
5.771465,43.454508,0
5.771615,43.454596,0
5.771801,43.454635,0
5.77188,43.454758,0
5.771956,43.454909,0
5.771961999999999,43.455046,0
5.77216,43.455009,0
5.772331,43.45495,0
5.772513,43.454912,0
5.772701,43.454947,0
5.772885,43.454987,0
5.773087000000001,43.454992,0
5.773261999999999,43.455049,0
5.773443999999999,43.455094,0
5.773628,43.455137,0
5.773854,43.455186,0
5.774051,43.455159,0
5.774189,43.455058,0
5.774374,43.455028,0
5.774524,43.454949,0
5.774723,43.454932,0
5.774886000000001,43.455009,0
5.775053,43.455077,0
5.775242999999999,43.455027,0
5.775418,43.454962,0
5.775639999999999,43.454975,0
5.775815,43.455027,0
5.776002000000001,43.45502,0
5.77618,43.454959,0
5.776354000000001,43.454906,0
5.776353,43.455046,0
5.776511,43.455124,0
5.776383,43.455226,0
5.776185000000001,43.455205,0
5.776008,43.455254,0
5.775873,43.455347,0
5.775804,43.455488,0
5.775719,43.455609,0
5.775623,43.455728,0
5.775584,43.455869,0
5.775491000000001,43.455991,0
5.775464,43.456137,0
5.775383,43.456272,0
5.775388,43.45641,0
5.775362,43.456546,0
5.775444000000001,43.456671,0
5.775523,43.456794,0
5.775643,43.456922,0
5.775756,43.457041,0
5.77588,43.457143,0
5.776061999999999,43.45722,0
5.77627,43.457305,0
5.776453,43.457354,0
5.776593999999999,43.457461,0
5.776605999999999,43.457596,0
5.77642,43.45764,0
5.776246,43.457697,0
5.776079,43.457769,0
5.775878000000001,43.457797,0
5.775686,43.457787,0
5.775493,43.457835,0
5.775347,43.45792,0
5.775237,43.458037,0
5.775103,43.458153,0
5.774931,43.458219,0
5.774807999999999,43.458341,0
5.774631,43.458428,0
5.774479,43.458507,0
5.774311,43.458567,0
5.774149,43.458636,0
5.773965,43.45867,0
5.773771999999999,43.458691,0
5.773588,43.458705,0
5.773391,43.458724,0
5.773197,43.458738,0
5.772994,43.458724,0
5.772808,43.458721,0
5.772617,43.458709,0
5.772429000000001,43.458688,0
5.772213999999999,43.45869,0
5.772016,43.458642,0
5.771825,43.458649,0
5.771648,43.458712,0
5.771519999999999,43.458833,0
5.771409,43.458949,0
5.771241,43.459028,0
5.771386,43.459134,0
5.771610999999999,43.45919,0
5.771749,43.459284,0
5.771950000000001,43.459335,0
5.772142,43.459361,0
5.772302,43.459434,0
5.772437,43.459541,0
5.772608,43.459631,0
5.772828000000001,43.45968,0
5.773024,43.459772,0
5.773088,43.459927,0
5.773282000000001,43.459972,0
5.773489000000001,43.460026,0
5.773662,43.460082,0
5.773852000000001,43.460145,0
5.774013,43.460227,0
5.774191,43.46028,0
5.774351999999999,43.460354,0
5.774465000000001,43.460464,0
5.774541,43.460605,0
5.774676,43.460726,0
5.774797999999999,43.460835,0
5.774965,43.460908,0
5.774945999999999,43.461059,0
5.774878,43.46119,0
5.774917,43.46134,0
5.774968999999999,43.461475,0
5.775149999999999,43.461518,0
5.775335,43.461567,0
5.775542,43.461565,0
5.775746,43.46153,0
5.775909000000001,43.461452,0
5.776101,43.461424,0
5.776296,43.461443,0
5.776502,43.461455,0
5.776707000000001,43.461469,0
5.776899,43.461426,0
5.777071000000001,43.461358,0
5.77724,43.461291,0
5.777442,43.461315,0
5.777629999999999,43.461326,0
5.777817,43.461327,0
5.778040999999999,43.461301,0
5.778253,43.461308,0
5.778403000000001,43.46139,0
5.778586999999999,43.461323,0
5.778778,43.461256,0
5.778959000000001,43.461317,0
5.779161,43.461356,0
5.779329,43.461421,0
5.779504,43.461359,0
5.779669,43.46128,0
5.779792,43.461166,0
5.779955,43.461077,0
5.780138,43.461052,0
5.780326,43.461022,0
5.780512,43.461027,0
5.780697,43.460982,0
5.780607,43.461109,0
5.780795999999999,43.461099,0
5.780962,43.461171,0
5.781074,43.461284,0
5.781186,43.461391,0
5.781255,43.46152,0
5.781327000000001,43.461644,0
5.7813,43.46179,0
5.781244,43.461922,0
5.781049,43.461977,0
5.780994,43.462107,0
5.781078000000001,43.462231,0
5.781207,43.462333,0
5.781246,43.462467,0
5.781134,43.462587,0
5.781066000000001,43.462715,0
5.780986000000001,43.462843,0
5.781072,43.462977,0
5.781145000000001,43.463117,0
5.781299,43.463199,0
5.781428,43.463302,0
5.781439,43.463437,0
5.781338,43.463563,0
5.781197,43.463654,0
5.781122,43.463786,0
5.781032,43.463911,0
5.780949,43.464033,0
5.78082,43.464148,0
5.780748000000001,43.464282,0
5.780606,43.464419,0
5.780512,43.464557,0
5.780334,43.464611,0
5.780194,43.464706,0
5.780068,43.464825,0
5.779952000000001,43.464934,0
5.779967,43.465082,0
5.77999,43.465275,0
5.780090999999999,43.465398,0
5.780245,43.465486,0
5.780418000000001,43.46554,0
5.780581,43.465611,0
5.780775,43.465646,0
5.780926,43.465752,0
5.781086,43.465825,0
5.781244,43.465899,0
5.781293,43.466031,0
5.781465999999999,43.4661,0
5.781663,43.466146,0
5.781859,43.466179,0
5.781952000000001,43.466302,0
5.782155,43.466371,0
5.782297000000001,43.466463,0
5.782456000000001,43.466562,0
5.782613,43.466689,0
5.782819999999999,43.466743,0
5.783011,43.466726,0
5.783214,43.466716,0
5.783401,43.466759,0
5.783564,43.466866,0
5.783736,43.466947,0
5.783888000000001,43.467045,0
5.784036000000001,43.467132,0
5.784182,43.467215,0
5.784344999999999,43.467289,0
5.784498,43.467372,0
5.784651999999999,43.46745,0
5.784804,43.467538,0
5.784913,43.46765,0
5.785044,43.46775,0
5.785034,43.467888,0
5.785107999999999,43.468017,0
5.785211,43.468139,0
5.785251,43.468272,0
5.78525,43.468421,0
5.785317,43.468557,0
5.785406,43.468677,0
5.785444,43.468813,0
5.785482000000001,43.468958,0
5.785273,43.468948,0
5.785083999999999,43.468931,0
5.784917,43.469006,0
5.784758,43.469089,0
5.784583,43.469149,0
5.784454,43.469248,0
5.784278,43.469305,0
5.784125,43.469385,0
5.783968,43.469463,0
5.783767,43.469472,0
5.783578,43.4695,0
5.783391,43.469531,0
5.783212,43.46959,0
5.783038,43.469654,0
5.782855000000001,43.469705,0
5.782713,43.469807,0
5.782715,43.46995,0
5.782851,43.470085,0
5.78276,43.470206,0
5.782591000000001,43.47028,0
5.782425,43.470359,0</coordinates></LineString></Placemark>
<Placemark><name>Départ/Arrivee</name><Point><coordinates>5.782240011550664,43.47040950101828,0</coordinates></Point></Placemark>
</Document></kml>